cow_country_name,extended_country_name,polity_country_name,GW_country_name,GWn,extended_GWn,GWc,extended_GWc,cown,cowc,polity_ccode,polity_scode,cow_startdate,cow_enddate,polity_startdate,polity_enddate,GW_startdate,GW_enddate,unofficial_startdate,unofficial_enddate,GW_membership,polity_membership,cow_membership,regex,lat,lon,country_name_en,extended_region,extended_continent,ar5,official_continent,eu28,eurocontrol_pru,eurocontrol_statfor,fao,fips105,icao,icao_region,imf,ioc,iso2c,iso3c,iso3n,official_region,un,wb,country_name_ar,country_name_de,country_name_de_regex,country_name_en_regex,country_name_es,country_name_fr,country_name_ru,country_name_zh,eurostat,wb_api2c,wb_api3c,wvs,microstate
United States of America,United States of America,United States,United States of America,2,2,USA,USA,2,USA,2,USA,1816-01-01,NA,1800-01-01,NA,1816-01-01,NA,NA,NA,TRUE,TRUE,TRUE,^(?!.*islands).*united.?states|^u\.?s\.?a\.?$|^u\.?s\.?$,37.09024,-95.712891,United States of America,Northern America,Americas,OECD1990,Americas,NA,Northern America,North Atlantic,231,US,K,K,111,USA,US,USA,840,Northern America,840,USA,الولايات المتحدة الأمريكية,Vereinigte Staaten,vereinigte.?staaten|\bu\.?s\.?a\.?\b|\bu\.?s\.?\b(?!.*islands),united.?states\b(?!.*islands)|\bu\.?s\.?a\.?\b|^\s*u\.?s\.?\b(?!.*islands),Estados Unidos de América,États-Unis d'Amérique,Соединенные Штаты Америки,美利坚合众国,US,US,USA,840,FALSE
Canada,Canada,Canada,Canada,20,20,CAN,CAN,20,CAN,20,CAN,1920-01-10,NA,1867-07-01,NA,1867-07-01,NA,NA,NA,TRUE,TRUE,TRUE,canada,56.130366,-106.346771,Canada,Northern America,Americas,OECD1990,Americas,NA,Northern America,North Atlantic,33,CA,C,C,156,CAN,CA,CAN,124,Northern America,124,CAN,كندا,Kanada,kanada,canada,Canadá,Canada,Канада,加拿大,CA,CA,CAN,124,FALSE
Bahamas,Bahamas,NA,Bahamas,31,31,BHM,BHM,31,BHM,31,NA,1973-07-10,NA,NA,NA,1973-07-10,NA,NA,NA,TRUE,FALSE,TRUE,bahamas,25.03428,-77.39628,Bahamas,Caribbean,Americas,LAM,Americas,NA,Southern America,Mid-Atlantic,12,BF,MY,M,313,BAH,BS,BHS,44,Caribbean,44,BHS,جزر البهاما,Bahamas,bahamas,bahamas,Bahamas,Bahamas,Багамские Острова,巴哈马,BS,BS,BHS,NA,FALSE
Cuba,Cuba,Cuba,Cuba,40,40,CUB,CUB,40,CUB,40,CUB,1902-05-20,1906-09-25,1902-05-20,NA,1902-05-20,NA,NA,NA,TRUE,TRUE,TRUE,\bcuba,21.521757,-77.781167,Cuba,Caribbean,Americas,LAM,Americas,NA,Southern America,Mid-Atlantic,49,CU,MU,M,928,CUB,CU,CUB,192,Caribbean,192,CUB,كوبا,Kuba,\bkuba,\bcuba,Cuba,Cuba,Куба,古巴,CU,CU,CUB,192,FALSE
Cuba,Cuba,Cuba,Cuba,40,40,CUB,CUB,40,CUB,40,CUB,1909-01-23,NA,1902-05-20,NA,1902-05-20,NA,NA,NA,TRUE,TRUE,TRUE,\bcuba,21.521757,-77.781167,Cuba,Caribbean,Americas,LAM,Americas,NA,Southern America,Mid-Atlantic,49,CU,MU,M,928,CUB,CU,CUB,192,Caribbean,192,CUB,كوبا,Kuba,\bkuba,\bcuba,Cuba,Cuba,Куба,古巴,CU,CU,CUB,192,FALSE
Haiti,Haiti,Haiti,Haiti,41,41,HAI,HAI,41,HAI,41,HAI,1859-01-01,1915-07-28,1820-07-01,NA,1816-01-01,1915-07-04,NA,NA,TRUE,TRUE,TRUE,haiti|haïti,18.971187,-72.285215,Haiti,Caribbean,Americas,LAM,Americas,NA,Southern America,Mid-Atlantic,93,HA,MT,M,263,HAI,HT,HTI,332,Caribbean,332,HTI,هايتي,Haiti,haiti,haiti,Haití,Haïti,Гаити,海地,HT,HT,HTI,332,FALSE
Haiti,Haiti,Haiti,Haiti,41,41,HAI,HAI,41,HAI,41,HAI,1934-08-15,NA,1820-07-01,NA,1934-08-15,NA,NA,NA,TRUE,TRUE,TRUE,haiti|haïti,18.971187,-72.285215,Haiti,Caribbean,Americas,LAM,Americas,NA,Southern America,Mid-Atlantic,93,HA,MT,M,263,HAI,HT,HTI,332,Caribbean,332,HTI,هايتي,Haiti,haiti,haiti,Haití,Haïti,Гаити,海地,HT,HT,HTI,332,FALSE
Dominican Republic,Dominican Republic,Dominican Republic,Dominican Republic,42,42,DOM,DOM,42,DOM,42,DOM,1894-01-01,1916-11-29,1844-02-27,NA,1844-02-27,NA,NA,NA,TRUE,TRUE,TRUE,dominican,18.735693,-70.162651,Dominican Republic,Caribbean,Americas,LAM,Americas,NA,Southern America,Mid-Atlantic,56,DR,MD,M,243,DOM,DO,DOM,214,Caribbean,214,DOM,الجمهورية الدومينيكية,Dominikanische Republik,dominikanische,dominican.rep,República Dominicana,République dominicaine,Доминиканская Республика,多米尼加共和国,DO,DO,DOM,214,FALSE
Dominican Republic,Dominican Republic,Dominican Republic,Dominican Republic,42,42,DOM,DOM,42,DOM,42,DOM,1924-09-29,NA,1844-02-27,NA,1844-02-27,NA,NA,NA,TRUE,TRUE,TRUE,dominican,18.735693,-70.162651,Dominican Republic,Caribbean,Americas,LAM,Americas,NA,Southern America,Mid-Atlantic,56,DR,MD,M,243,DOM,DO,DOM,214,Caribbean,214,DOM,الجمهورية الدومينيكية,Dominikanische Republik,dominikanische,dominican.rep,República Dominicana,République dominicaine,Доминиканская Республика,多米尼加共和国,DO,DO,DOM,214,FALSE
Jamaica,Jamaica,Jamaica,Jamaica,51,51,JAM,JAM,51,JAM,51,JAM,1962-08-06,NA,1959-07-04,NA,1962-08-06,NA,NA,NA,TRUE,TRUE,TRUE,jamaica,18.109581,-77.297508,Jamaica,Caribbean,Americas,LAM,Americas,NA,Southern America,Mid-Atlantic,109,JM,MK,M,343,JAM,JM,JAM,388,Caribbean,388,JAM,جامايكا,Jamaika,jamaika,jamaica,Jamaica,Jamaïque,Ямайка,牙买加,JM,JM,JAM,388,FALSE
Trinidad and Tobago,Trinidad and Tobago,Trinidad,Trinidad and Tobago,52,52,TRI,TRI,52,TRI,52,TRI,1962-08-31,NA,1962-08-31,NA,1962-08-31,NA,NA,NA,TRUE,TRUE,TRUE,trinidad|tobago,10.691803,-61.222503,Trinidad and Tobago,Caribbean,Americas,LAM,Americas,NA,Southern America,Mid-Atlantic,220,TD,TT,T,369,TTO,TT,TTO,780,Caribbean,780,TTO,ترينيداد وتوباغو,Trinidad und Tobago,trinidad|tobago,trinidad|tobago,Trinidad y Tobago,Trinité-et-Tobago,Тринидад и Тобаго,特立尼达和多巴哥,TT,TT,TTO,780,FALSE
Barbados,Barbados,NA,Barbados,53,53,BAR,BAR,53,BAR,53,NA,1966-11-30,NA,NA,NA,1966-11-30,NA,NA,NA,TRUE,FALSE,TRUE,barbados,13.193887,-59.543198,Barbados,Caribbean,Americas,LAM,Americas,NA,Southern America,Mid-Atlantic,14,BB,TB,T,316,BAR,BB,BRB,52,Caribbean,52,BRB,بربادوس,Barbados,barbados,barbados,Barbados,Barbade,Барбадос,巴巴多斯,BB,BB,BRB,52,FALSE
Dominica,Dominica,NA,Dominica,54,54,DMA,DMA,54,DMA,54,NA,1978-11-03,NA,NA,NA,1978-11-03,NA,NA,NA,TRUE,FALSE,TRUE,dominica(?!n),15.414999,-61.370976,Dominica,Caribbean,Americas,LAM,Americas,NA,Southern America,Mid-Atlantic,55,DO,TD,T,321,DMA,DM,DMA,212,Caribbean,212,DMA,دومينيكا,Dominica,dominica(?!n),dominica(?!n),Dominica,Dominique,Доминика,多米尼克,DM,DM,DMA,NA,TRUE
Grenada,Grenada,NA,Grenada,55,55,GRN,GRN,55,GRN,55,NA,1974-02-07,NA,NA,NA,1974-02-07,NA,NA,NA,TRUE,FALSE,TRUE,grenada,12.1165,-61.679,Grenada,Caribbean,Americas,LAM,Americas,NA,Southern America,Mid-Atlantic,86,GJ,TG,T,328,GRN,GD,GRD,308,Caribbean,308,GRD,غرينادا,Grenada,grenada,grenada,Granada,Grenade,Гренада,格林纳达,GD,GD,GRD,NA,TRUE
St. Lucia,Saint Lucia,NA,Saint Lucia,56,56,SLU,SLU,56,SLU,56,NA,1979-02-22,NA,NA,NA,1979-02-22,NA,NA,NA,TRUE,FALSE,TRUE,\blucia,13.909444,-60.978893,Saint Lucia,Caribbean,Americas,LAM,Americas,NA,Southern America,Mid-Atlantic,189,ST,TL,T,362,LCA,LC,LCA,662,Caribbean,662,LCA,سانت لوسيا,Saint Lucia,\blucia,\blucia,Santa Lucía,Sainte-Lucie,Сент-Люсия,圣卢西亚,LC,LC,LCA,NA,TRUE
St. Vincent and the Grenadines,Saint Vincent and the Grenadines,NA,Saint Vincent and the Grenadines,57,57,SVG,SVG,57,SVG,57,NA,1979-10-27,NA,NA,NA,1979-10-27,NA,NA,NA,TRUE,FALSE,TRUE,vincent,13.2528179,-61.1971628,Saint Vincent and the Grenadines,Caribbean,Americas,LAM,Americas,NA,Southern America,Mid-Atlantic,191,VC,TV,T,364,VIN,VC,VCT,670,Caribbean,670,VCT,سانت فنسنت وجزر غرينادين,St. Vincent und die Grenadinen,vincent,vincent,San Vicente y las Granadinas,Saint-Vincent-et- les Grenadines,Сент-Винсент и Гренадины,圣文森特和格林纳丁斯,VC,VC,VCT,NA,TRUE
Antigua & Barbuda,Antigua & Barbuda,NA,Antigua & Barbuda,58,58,AAB,AAB,58,AAB,58,NA,1981-11-01,NA,NA,NA,1981-11-01,NA,NA,NA,TRUE,FALSE,TRUE,antigua,32.6671352,-114.5134396,Antigua and Barbuda,Caribbean,Americas,LAM,Americas,NA,Southern America,Mid-Atlantic,8,AC,TA,T,311,ANT,AG,ATG,28,Caribbean,28,ATG,أنتيغوا وبربودا,Antigua und Barbuda,antigua,antigua,Antigua y Barbuda,Antigua-et-Barbuda,Антигуа и Барбуда,安提瓜和巴布达,AG,AG,ATG,28,TRUE
St. Kitts and Nevis,Saint Kitts and Nevis,NA,Saint Kitts and Nevis,60,60,SKN,SKN,60,SKN,60,NA,1983-09-19,NA,NA,NA,1983-09-19,NA,NA,NA,TRUE,FALSE,TRUE,kitts|\bnevis,17.357822,-62.782998,Saint Kitts and Nevis,Caribbean,Americas,LAM,Americas,NA,Southern America,Mid-Atlantic,188,SC,TK,T,361,SKN,KN,KNA,659,Caribbean,659,KNA,سانت كيتس ونيفس,St. Kitts und Nevis,kitts|\bnevis,kitts|\bnevis,Saint Kitts y Nevis,Saint-Kitts-et-Nevis,Сент-Китс и Невис,圣基茨和尼维斯,KN,KN,KNA,NA,TRUE
Mexico,Mexico,Mexico,Mexico,70,70,MEX,MEX,70,MEX,70,MEX,1831-01-01,NA,1822-05-19,NA,1821-07-01,NA,NA,NA,TRUE,TRUE,TRUE,\bmexic,23.634501,-102.552784,Mexico,Central America,Americas,LAM,Americas,NA,Southern America,Mid-Atlantic,138,MX,MM,M,273,MEX,MX,MEX,484,Central America,484,MEX,المكسيك,Mexiko,\bmexik,\bmexic,México,Mexique,Мексика,墨西哥,MX,MX,MEX,484,FALSE
Belize,Belize,NA,Belize,80,80,BLZ,BLZ,80,BLZ,80,NA,1981-09-21,NA,NA,NA,1981-09-21,NA,NA,NA,TRUE,FALSE,TRUE,belize|^(?=.*british).*honduras,17.189877,-88.49765,Belize,Central America,Americas,LAM,Americas,NA,Southern America,Mid-Atlantic,23,BH,MZ,M,339,BIZ,BZ,BLZ,84,Central America,84,BLZ,بليز,Belize,belize|^(?=.*british).*honduras,belize|^(?=.*british).*honduras,Belice,Belize,Белиз,伯利兹,BZ,BZ,BLZ,84,FALSE
Guatemala,Guatemala,Guatemala,Guatemala,90,90,GUA,GUA,90,GUA,90,GUA,1868-01-01,NA,1839-04-30,NA,1840-01-01,NA,NA,NA,TRUE,TRUE,TRUE,guatemala,15.783471,-90.230759,Guatemala,Central America,Americas,LAM,Americas,NA,Southern America,Mid-Atlantic,89,GT,MG,M,258,GUA,GT,GTM,320,Central America,320,GTM,غواتيمالا,Guatemala,guatemala,guatemala,Guatemala,Guatemala,Гватемала,危地马拉,GT,GT,GTM,320,FALSE
Honduras,Honduras,Honduras,Honduras,91,91,HON,HON,91,HON,91,HON,1899-01-01,NA,1839-01-10,NA,1840-01-01,NA,NA,NA,TRUE,TRUE,TRUE,^(?!.*brit).*honduras,15.199999,-86.241905,Honduras,Central America,Americas,LAM,Americas,NA,Southern America,Mid-Atlantic,95,HO,MH,M,268,HON,HN,HND,340,Central America,340,HND,هندوراس,Honduras,^(?!.*brit).*honduras,^(?!.*brit).*honduras,Honduras,Honduras,Гондурас,洪都拉斯,HN,HN,HND,340,FALSE
El Salvador,El Salvador,El Salvador,El Salvador,92,92,SAL,SAL,92,SAL,92,SAL,1875-01-01,NA,1841-02-16,NA,1840-01-01,NA,NA,NA,TRUE,TRUE,TRUE,el.?salvador,13.794185,-88.89653,El Salvador,Central America,Americas,LAM,Americas,NA,Southern America,Mid-Atlantic,60,ES,MS,M,253,ESA,SV,SLV,222,Central America,222,SLV,السلفادور,El Salvador,el.?salvador,el.?salvador,El Salvador,El Salvador,Сальвадор,萨尔瓦多,SV,SV,SLV,222,FALSE
Nicaragua,Nicaragua,Nicaragua,Nicaragua,93,93,NIC,NIC,93,NIC,93,NIC,1900-01-01,NA,1838-04-30,NA,1840-01-01,NA,NA,NA,TRUE,TRUE,TRUE,nicaragua,12.865416,-85.207229,Nicaragua,Central America,Americas,LAM,Americas,NA,Southern America,Mid-Atlantic,157,NU,MN,M,278,NCA,NI,NIC,558,Central America,558,NIC,نيكاراغوا,Nicaragua,nicaragua,nicaragua,Nicaragua,Nicaragua,Никарагуа,尼加拉瓜,NI,NI,NIC,558,FALSE
Costa Rica,Costa Rica,Costa Rica,Costa Rica,94,94,COS,COS,94,COS,94,COS,1920-01-01,NA,1838-07-01,NA,1840-01-01,NA,NA,NA,TRUE,TRUE,TRUE,costa.?rica,9.748917,-83.753428,Costa Rica,Central America,Americas,LAM,Americas,NA,Southern America,Mid-Atlantic,48,CS,MR,M,238,CRC,CR,CRI,188,Central America,188,CRI,كوستاريكا,Costa Rica,costa.?rica,costa.?rica,Costa Rica,Costa Rica,Коста-Рика,哥斯达黎加,CR,CR,CRI,188,FALSE
Panama,Panama,Panama,Panama,95,95,PAN,PAN,95,PAN,95,PAN,1903-11-03,NA,1903-11-03,NA,1903-11-03,NA,NA,NA,TRUE,TRUE,TRUE,panama,8.537981,-80.782127,Panama,Central America,Americas,LAM,Americas,NA,Southern America,Mid-Atlantic,166,PM,MP,M,283,PAN,PA,PAN,591,Central America,591,PAN,بنما,Panama,panama,panama,Panamá,Panama,Панама,巴拿马,PA,PA,PAN,591,FALSE
Colombia,Colombia,Colombia,Colombia,100,100,COL,COL,100,COL,100,COL,1831-01-01,NA,1832-02-29,NA,1830-09-23,NA,NA,NA,TRUE,TRUE,TRUE,^(?!.*\bgr).*\bcolombia,4.570868,-74.297333,Colombia,South America,Americas,LAM,Americas,NA,Southern America,South-Atlantic,44,CO,SK,S,233,COL,CO,COL,170,South America,170,COL,كولومبيا,Kolumbien,kolumbien,colombia,Colombia,Colombie,Колумбия,哥伦比亚,CO,CO,COL,170,FALSE
Venezuela,Venezuela,Venezuela,Venezuela,101,101,VEN,VEN,101,VEN,101,VEN,1841-01-01,NA,1830-09-22,NA,1829-01-01,NA,NA,NA,TRUE,TRUE,TRUE,venezuela,6.42375,-66.58973,"Venezuela, Bolivarian Republic of",South America,Americas,LAM,Americas,NA,Southern America,South-Atlantic,236,VE,SV,S,299,VEN,VE,VEN,862,South America,862,VEN,فنزويلا (جمهورية - البوليفارية),Venezuela,venezuela,venezuela,Venezuela (República Bolivariana de),Venezuela (République bolivarienne du),Венесуэла (Боливарианская Республика),委内瑞拉,VE,VE,VEN,862,FALSE
Guyana,Guyana,Guyana,Guyana,110,110,GUY,GUY,110,GUY,110,GUY,1966-05-26,NA,1966-05-26,NA,1966-05-26,NA,NA,NA,TRUE,TRUE,TRUE,guyana|british.?guiana,4.860416,-58.93018,Guyana,South America,Americas,MAF,Americas,NA,Southern America,South-Atlantic,91,GY,SY,S,336,GUY,GY,GUY,328,South America,328,GUY,غيانا,Guyana,gu(y|i)ana|britisch.?gua(y|i)ana,guyana|british.?guiana,Guyana,Guyana,Гайана,圭亚那,GY,GY,GUY,328,FALSE
Suriname,Surinam,Suriname,Surinam,115,115,SUR,SUR,115,SUR,115,SUR,1975-11-25,NA,1975-11-25,NA,1975-11-25,NA,NA,NA,TRUE,TRUE,TRUE,surinam|dutch.?guiana,3.919305,-56.027783,Suriname,South America,Americas,LAM,Americas,NA,Southern America,South-Atlantic,207,NS,SM,S,366,SUR,SR,SUR,740,South America,740,SUR,سورينام,Surinam,surinam|niederl(a|ä)ndisch.?gua(y|i)ana,surinam|dutch.?guiana,Suriname,Suriname,Суринам,苏里南,SR,SR,SUR,740,FALSE
Ecuador,Ecuador,Ecuador,Ecuador,130,130,ECU,ECU,130,ECU,130,ECU,1854-01-01,NA,1830-05-13,NA,1830-05-13,NA,NA,NA,TRUE,TRUE,TRUE,ecuador,-1.831239,-78.183406,Ecuador,South America,Americas,LAM,Americas,NA,Southern America,South-Atlantic,58,EC,SE,S,248,ECU,EC,ECU,218,South America,218,ECU,إكوادور,Ecuador,ecuador,ecuador,Ecuador,Équateur,Эквадор,厄瓜多尔,EC,EC,ECU,218,FALSE
Peru,Peru,Peru,Peru,135,135,PER,PER,135,PER,135,PER,1839-01-01,NA,1821-07-28,NA,1824-12-09,NA,NA,NA,TRUE,TRUE,TRUE,peru,-9.189967,-75.015152,Peru,South America,Americas,LAM,Americas,NA,Southern America,South-Atlantic,170,PE,SP,S,293,PER,PE,PER,604,South America,604,PER,بيرو,Peru,peru,peru,Perú,Pérou,Перу,秘鲁,PE,PE,PER,604,FALSE
Brazil,Brazil,Brazil,Brazil,140,140,BRA,BRA,140,BRA,140,BRA,1822-09-07,NA,1824-03-25,NA,1822-09-07,NA,NA,NA,TRUE,TRUE,TRUE,brazil,-14.235004,-51.92528,Brazil,South America,Americas,LAM,Americas,NA,Southern America,South-Atlantic,21,BR,S[BDIJNSW],S,223,BRA,BR,BRA,76,South America,76,BRA,البرازيل,Brasilien,brasil,brazil,Brasil,Brésil,Бразилия,巴西,BR,BR,BRA,76,FALSE
Bolivia,Bolivia,Bolivia,Bolivia,145,145,BOL,BOL,145,BOL,145,BOL,1848-01-01,NA,1825-08-06,NA,1825-08-06,NA,NA,NA,TRUE,TRUE,TRUE,bolivia,-16.290154,-63.588653,Bolivia (Plurinational State of),South America,Americas,LAM,Americas,NA,Southern America,South-Atlantic,19,BL,SL,S,218,BOL,BO,BOL,68,South America,68,BOL,بوليفيا (دولة-متعددة القوميات),Bolivien,bolivien,bolivia,Bolivia (Estado Plurinacional de),Bolivie (État plurinational de),Боливия (Многонациональное Государство),玻利维亚,BO,BO,BOL,68,FALSE
Paraguay,Paraguay,Paraguay,Paraguay,150,150,PAR,PAR,150,PAR,150,PAR,1846-01-01,1870-06-20,1811-05-14,NA,1816-01-01,NA,NA,NA,TRUE,TRUE,TRUE,paraguay,-23.442503,-58.443832,Paraguay,South America,Americas,LAM,Americas,NA,Southern America,South-Atlantic,169,PA,SG,S,288,PAR,PY,PRY,600,South America,600,PRY,باراغواي,Paraguay,paraguay,paraguay,Paraguay,Paraguay,Парагвай,巴拉圭,PY,PY,PRY,600,FALSE
Paraguay,Paraguay,Paraguay,Paraguay,150,150,PAR,PAR,150,PAR,150,PAR,1876-06-22,NA,1811-05-14,NA,1816-01-01,NA,NA,NA,TRUE,TRUE,TRUE,paraguay,-23.442503,-58.443832,Paraguay,South America,Americas,LAM,Americas,NA,Southern America,South-Atlantic,169,PA,SG,S,288,PAR,PY,PRY,600,South America,600,PRY,باراغواي,Paraguay,paraguay,paraguay,Paraguay,Paraguay,Парагвай,巴拉圭,PY,PY,PRY,600,FALSE
Chile,Chile,Chile,Chile,155,155,CHL,CHL,155,CHL,155,CHL,1839-01-01,NA,1818-02-12,NA,1818-04-01,NA,NA,NA,TRUE,TRUE,TRUE,\bchile,-35.675147,-71.542969,Chile,South America,Americas,LAM,Americas,NA,Southern America,South-Atlantic,40,CI,S[CH],S,228,CHI,CL,CHL,152,South America,152,CHL,شيلي,Chile,\bchile,\bchile,Chile,Chili,Чили,智利,CL,CL,CHL,152,FALSE
Argentina,Argentina,Argentina,Argentina,160,160,ARG,ARG,160,ARG,160,ARG,1841-01-01,NA,1825-01-23,NA,1816-07-09,NA,NA,NA,TRUE,TRUE,TRUE,argentin,-38.416097,-63.616672,Argentina,South America,Americas,LAM,Americas,NA,Southern America,South-Atlantic,9,AR,SA,S,213,ARG,AR,ARG,32,South America,32,ARG,الأرجنتين,Argentinien,argentin,argentin,Argentina,Argentine,Аргентина,阿根廷,AR,AR,ARG,32,FALSE
Uruguay,Uruguay,Uruguay,Uruguay,165,165,URU,URU,165,URU,165,URU,1882-01-01,NA,1830-05-26,NA,1830-05-26,NA,NA,NA,TRUE,TRUE,TRUE,uruguay,-32.522779,-55.765835,Uruguay,South America,Americas,LAM,Americas,NA,Southern America,South-Atlantic,234,UY,SU,S,298,URU,UY,URY,858,South America,858,URY,أوروغواي,Uruguay,uruguay,uruguay,Uruguay,Uruguay,Уругвай,乌拉圭,UY,UY,URY,858,FALSE
United Kingdom,United Kingdom,United Kingdom,United Kingdom,200,200,UKG,UKG,200,UKG,200,UKG,1816-01-01,NA,1800-01-01,NA,1816-01-01,NA,NA,NA,TRUE,TRUE,TRUE,united.?kingdom|britain|^u\.?k\.?$,55.378051,-3.435973,United Kingdom of Great Britain and Northern Ireland,Northern Europe,Europe,OECD1990,Europe,EU,Eurocontrol,ESRA North-West,229,UK,EG,E,112,GBR,GB,GBR,826,Northern Europe,826,GBR,المملكة المتحدة لبريطانيا العظمى وآيرلندا الشمالية,Großbritannien,gro(ss|ß)britannien|britanien|vereinigtes.?k(ö|o)nigreich|^u\.?k\.?$,united.?kingdom|britain|^u\.?k\.?$,Reino Unido de Gran Bretaña e Irlanda del Norte,Royaume-Uni de Grande-Bretagne et d'Irlande du Nord,Соединенное Королевство Великобритании и Северной Ирландии,大不列颠及北爱尔兰联合王国,UK,GB,GBR,826,FALSE
Ireland,Ireland,Ireland,Ireland,205,205,IRE,IRE,205,IRE,205,IRE,1922-12-06,NA,1921-12-06,NA,1921-12-06,NA,NA,NA,TRUE,TRUE,TRUE,^(?!.*\bn).*ireland,53.41291,-8.24389,Ireland,Northern Europe,Europe,OECD1990,Europe,EU,Eurocontrol,ESRA North-West,104,EI,EI,E,178,IRL,IE,IRL,372,Northern Europe,372,IRL,أيرلندا,Irland,irland,(?<!northern\s)ireland,Irlanda,Irlande,Ирландия,爱尔兰,IE,IE,IRL,372,FALSE
Netherlands,Netherlands,Netherlands,Netherlands,210,210,NTH,NTH,210,NTH,210,NTH,1816-01-01,1940-07-14,1815-06-08,NA,1816-01-01,NA,NA,NA,TRUE,TRUE,TRUE,^(?!.*\bant)(?!.*\bcarib).*netherlands,52.132633,5.291266,Netherlands,Western Europe,Europe,OECD1990,Europe,EU,Eurocontrol,ESRA North-West,150,NL,EH,E,138,NED,NL,NLD,528,Western Europe,528,NLD,هولندا,Niederlande,niederlande,^(?!.*\bant)(?!.*\bcarib).*netherlands,Países Bajos,Pays-Bas,Нидерланды,荷兰,NL,NL,NLD,528,FALSE
Netherlands,Netherlands,Netherlands,Netherlands,210,210,NTH,NTH,210,NTH,210,NTH,1945-06-26,NA,1815-06-08,NA,1816-01-01,NA,NA,NA,TRUE,TRUE,TRUE,^(?!.*\bant)(?!.*\bcarib).*netherlands,52.132633,5.291266,Netherlands,Western Europe,Europe,OECD1990,Europe,EU,Eurocontrol,ESRA North-West,150,NL,EH,E,138,NED,NL,NLD,528,Western Europe,528,NLD,هولندا,Niederlande,niederlande,^(?!.*\bant)(?!.*\bcarib).*netherlands,Países Bajos,Pays-Bas,Нидерланды,荷兰,NL,NL,NLD,528,FALSE
Belgium,Belgium,Belgium,Belgium,211,211,BEL,BEL,211,BEL,211,BEL,1830-12-20,1940-05-28,1830-10-04,NA,1830-10-04,NA,NA,NA,TRUE,TRUE,TRUE,^(?!.*luxem).*belgium,50.503887,4.469936,Belgium,Western Europe,Europe,OECD1990,Europe,EU,Eurocontrol,ESRA North-West,255,BE,EB,E,124,BEL,BE,BEL,56,Western Europe,56,BEL,بلجيكا,Belgien,^(?!.*luxem).*belgien,^(?!.*luxem).*belgium,Bélgica,Belgique,Бельгия,比利时,BE,BE,BEL,56,FALSE
Belgium,Belgium,Belgium,Belgium,211,211,BEL,BEL,211,BEL,211,BEL,1945-06-26,NA,1830-10-04,NA,1830-10-04,NA,NA,NA,TRUE,TRUE,TRUE,^(?!.*luxem).*belgium,50.503887,4.469936,Belgium,Western Europe,Europe,OECD1990,Europe,EU,Eurocontrol,ESRA North-West,255,BE,EB,E,124,BEL,BE,BEL,56,Western Europe,56,BEL,بلجيكا,Belgien,^(?!.*luxem).*belgien,^(?!.*luxem).*belgium,Bélgica,Belgique,Бельгия,比利时,BE,BE,BEL,56,FALSE
Luxembourg,Luxembourg,NA,Luxembourg,212,212,LUX,LUX,212,LUX,212,NA,1920-11-15,1940-05-10,NA,NA,1867-05-11,NA,NA,NA,TRUE,FALSE,TRUE,^(?!.*belg).*luxem,49.815273,6.129583,Luxembourg,Western Europe,Europe,OECD1990,Europe,EU,Eurocontrol,ESRA North-West,256,LU,EL,E,137,LUX,LU,LUX,442,Western Europe,442,LUX,لكسمبرغ,Luxemburg,^(?!.*belg).*luxem,^(?!.*belg).*luxem,Luxemburgo,Luxembourg,Люксембург,卢森堡,LU,LU,LUX,442,FALSE
Luxembourg,Luxembourg,NA,Luxembourg,212,212,LUX,LUX,212,LUX,212,NA,1944-09-10,NA,NA,NA,1867-05-11,NA,NA,NA,TRUE,FALSE,TRUE,^(?!.*belg).*luxem,49.815273,6.129583,Luxembourg,Western Europe,Europe,OECD1990,Europe,EU,Eurocontrol,ESRA North-West,256,LU,EL,E,137,LUX,LU,LUX,442,Western Europe,442,LUX,لكسمبرغ,Luxemburg,^(?!.*belg).*luxem,^(?!.*belg).*luxem,Luxemburgo,Luxembourg,Люксембург,卢森堡,LU,LU,LUX,442,FALSE
France,France,France,France,220,220,FRN,FRN,220,FRN,220,FRN,1816-01-01,1942-11-11,1800-01-01,NA,1816-01-01,NA,NA,NA,TRUE,TRUE,TRUE,^(?!.*\bdep).*france|french.?republic|\bgaul,46.227638,2.213749,France,Western Europe,Europe,OECD1990,Europe,EU,Eurocontrol,ESRA North-West,68,FR,LF,L,132,FRA,FR,FRA,250,Western Europe,250,FRA,فرنسا,Frankreich,frankreich|französische.?republik,^(?!.*\bdep)(?!.*martinique).*france|french.?republic|\bgaul,Francia,France,Франция,法国,FR,FR,FRA,250,FALSE
France,France,France,France,220,220,FRN,FRN,220,FRN,220,FRN,1944-08-25,NA,1800-01-01,NA,1816-01-01,NA,NA,NA,TRUE,TRUE,TRUE,^(?!.*\bdep).*france|french.?republic|\bgaul,46.227638,2.213749,France,Western Europe,Europe,OECD1990,Europe,EU,Eurocontrol,ESRA North-West,68,FR,LF,L,132,FRA,FR,FRA,250,Western Europe,250,FRA,فرنسا,Frankreich,frankreich|französische.?republik,^(?!.*\bdep)(?!.*martinique).*france|french.?republic|\bgaul,Francia,France,Франция,法国,FR,FR,FRA,250,FALSE
Monaco,Monaco,NA,Monaco,221,221,MNC,MNC,221,MNC,221,NA,1993-05-28,NA,NA,NA,1816-01-01,NA,NA,NA,TRUE,FALSE,TRUE,monaco,43.7384176,7.4246158,Monaco,Western Europe,Europe,OECD1990,Europe,NA,Eurocontrol,ESRA North-West,140,MN,LN,L,NA,MON,MC,MCO,492,Western Europe,492,MCO,موناكو,Monaco,monaco,monaco,Mónaco,Monaco,Монако,摩纳哥,MC,MC,MCO,492,TRUE
Liechtenstein,Liechtenstein,NA,Liechtenstein,223,223,LIE,LIE,223,LIE,223,NA,1990-09-18,NA,NA,NA,1816-01-01,NA,NA,NA,TRUE,FALSE,TRUE,liechtenstein|LIECHSTENSTEIN,47.166,9.555373,Liechtenstein,Western Europe,Europe,OECD1990,Europe,EU,Eurocontrol,ESRA North-West,NA,LS,LS,L,NA,LIE,LI,LIE,438,Western Europe,438,LIE,ليختنشتاين,Liechtenstein,liechtenstein,liechtenstein,Liechtenstein,Liechtenstein,Лихтенштейн,列支敦士登,LI,LI,LIE,438,TRUE
Switzerland,Switzerland,Switzerland,Switzerland,225,225,SWZ,SWZ,225,SWZ,225,SWZ,1816-01-01,NA,1848-09-12,NA,1816-01-01,NA,NA,NA,TRUE,TRUE,TRUE,switz|swiss,46.818188,8.227512,Switzerland,Western Europe,Europe,OECD1990,Europe,NA,Eurocontrol,ESRA North-West,211,SZ,LS,L,146,SUI,CH,CHE,756,Western Europe,756,CHE,سويسرا,Schweiz,schweiz,switz|swiss,Suiza,Suisse,Швейцария,瑞士,CH,CH,CHE,756,FALSE
Spain,Spain,Spain,Spain,230,230,SPN,SPN,230,SPN,230,SPN,1816-01-01,NA,1800-01-01,NA,1816-01-01,NA,NA,NA,TRUE,TRUE,TRUE,spain,40.463667,-3.74922,Spain,Southern Europe,Europe,OECD1990,Europe,EU,Eurocontrol,ESRA Mediterranean,203,SP,LE,L,184,ESP,ES,ESP,724,Southern Europe,724,ESP,إسبانيا,Spanien,spanien,spain,España,Espagne,Испания,西班牙,ES,ES,ESP,724,FALSE
Andorra,Andorra,NA,Andorra,232,232,AND,AND,232,AND,232,NA,1993-07-28,NA,NA,NA,1816-01-01,NA,NA,NA,TRUE,FALSE,TRUE,andorra,42.506285,1.521801,Andorra,Southern Europe,Europe,OECD1990,Europe,NA,NA,NA,6,AN,NA,NA,NA,AND,AD,AND,20,Southern Europe,20,ADO,أندورا,Andorra,andorra,andorra,Andorra,Andorre,Андорра,安道尔,AD,AD,AND,20,TRUE
Portugal,Portugal,Portugal,Portugal,235,235,POR,POR,235,POR,235,POR,1816-01-01,NA,1800-01-01,NA,1816-01-01,NA,NA,NA,TRUE,TRUE,TRUE,portugal,39.399872,-8.224454,Portugal,Southern Europe,Europe,OECD1990,Europe,EU,Eurocontrol,ESRA Mediterranean,174,PO,LP,L,182,POR,PT,PRT,620,Southern Europe,620,PRT,البرتغال,Portugal,portugal,portugal,Portugal,Portugal,Португалия,葡萄牙,PT,PT,PRT,620,FALSE
Hanover,Hanover,NA,Hanover,240,240,HAN,HAN,240,HAN,240,NA,1837-06-20,1866-07-26,NA,NA,1816-01-01,1871-01-17,NA,NA,TRUE,FALSE,TRUE,hanover,33.020507,-96.8939572,Hanover,Western Europe,Europe,NA,NA,NA,NA,NA,NA,NA,NA,NA,NA,NA,NA,NA,NA,NA,NA,NA,NA,Hannover,hannover,hanover,NA,NA,NA,NA,NA,NA,NA,NA,FALSE
Bavaria,Bavaria,Bavaria,Bavaria,245,245,BAV,BAV,245,BAV,245,BAV,1816-01-01,1871-01-18,1800-01-01,1871-01-18,1816-01-01,1871-01-17,NA,NA,TRUE,TRUE,TRUE,bavaria,26.5632108,-81.789749,Bavaria,Western Europe,Europe,NA,NA,NA,NA,NA,NA,NA,NA,NA,NA,NA,NA,NA,NA,NA,NA,NA,NA,Bayern,bayern,bavaria,NA,NA,NA,NA,NA,NA,NA,NA,FALSE
Germany,Germany (Prussia),Germany,Germany (Prussia),255,255,GMY,GMY,255,GMY,255,GMY,1816-01-01,1945-05-08,1871-01-19,1945-05-07,1816-01-01,1945-05-07,NA,NA,TRUE,TRUE,TRUE,^(?!.*east).*germany|^(?=.*\bfed.*\brep).*german|prussia,51.165691,10.451526,Germany,Western Europe,Europe,OECD1990,Europe,EU,Eurocontrol,ESRA North-West,79,GM,E[DT],E,134,GER,DE,DEU,276,Western Europe,276,DEU,*ألمانيا,Deutschland,^(?!.*ost).*deutschland|^(?=.*\bbundesrepublik).*deutschland,^(?!.*east).*germany|^(?=.*\bfed.*\brep).*german,Alemania,Allemagne,Германия,德国,DE,DE,DEU,276,FALSE
Germany,Germany (Prussia),Prussia,Germany (Prussia),255,255,GMY,GMY,255,GMY,255,GMY,1816-01-01,1945-05-08,1800-01-01,1871-01-18,1816-01-01,1945-05-07,NA,NA,TRUE,TRUE,TRUE,^(?!.*east).*germany|^(?=.*\bfed.*\brep).*german|prussia,51.165691,10.451526,Germany,Western Europe,Europe,OECD1990,Europe,EU,Eurocontrol,ESRA North-West,79,GM,E[DT],E,134,GER,DE,DEU,276,Western Europe,276,DEU,*ألمانيا,Deutschland,^(?!.*ost).*deutschland|^(?=.*\bbundesrepublik).*deutschland,^(?!.*east).*germany|^(?=.*\bfed.*\brep).*german,Alemania,Allemagne,Германия,德国,DE,DE,DEU,276,FALSE
Germany,German Federal Republic,Prussia,German Federal Republic,260,260,GFR,GFR,255,GMY,255,GMY,1816-01-01,1945-05-08,1800-01-01,1871-01-18,1949-09-21,NA,NA,NA,TRUE,TRUE,TRUE,^(?=.*\bfed.*\brep).*german|^f\.?r\.?g\.?$|^b\.?r\.?d\.?$|^(?=.*west).*germany|bonn.?republic|^(?!\beast).*germany(?!.*east),50.73743,7.0982068,Germany,Western Europe,Europe,OECD1990,Europe,EU,Eurocontrol,ESRA North-West,79,GM,E[DT],E,134,GER,DE,DEU,276,Western Europe,276,DEU,*ألمانيا,Deutschland,^(?!.*ost).*deutschland|^(?=.*\bbundesrepublik).*deutschland,^(?!.*east).*germany|^(?=.*\bfed.*\brep).*german,Alemania,Allemagne,Германия,德国,DE,DE,DEU,276,FALSE
Germany,German Federal Republic,Germany,German Federal Republic,260,260,GFR,GFR,255,GMY,255,GMY,1990-10-03,NA,1990-10-02,NA,1949-09-21,NA,NA,NA,TRUE,TRUE,TRUE,^(?=.*\bfed.*\brep).*german|^f\.?r\.?g\.?$|^b\.?r\.?d\.?$|^(?=.*west).*germany|bonn.?republic|^(?!\beast).*germany(?!.*east),50.73743,7.0982068,Germany,Western Europe,Europe,OECD1990,Europe,EU,Eurocontrol,ESRA North-West,79,GM,E[DT],E,134,GER,DE,DEU,276,Western Europe,276,DEU,*ألمانيا,Deutschland,^(?!.*ost).*deutschland|^(?=.*\bbundesrepublik).*deutschland,^(?!.*east).*germany|^(?=.*\bfed.*\brep).*german,Alemania,Allemagne,Германия,德国,DE,DE,DEU,276,FALSE
Germany,German Federal Republic,Prussia,German Federal Republic,260,260,GFR,GFR,255,GMY,255,GMY,1990-10-03,NA,1800-01-01,1871-01-18,1949-09-21,NA,NA,NA,TRUE,TRUE,TRUE,^(?=.*\bfed.*\brep).*german|^f\.?r\.?g\.?$|^b\.?r\.?d\.?$|^(?=.*west).*germany|bonn.?republic|^(?!\beast).*germany(?!.*east),50.73743,7.0982068,Germany,Western Europe,Europe,OECD1990,Europe,EU,Eurocontrol,ESRA North-West,79,GM,E[DT],E,134,GER,DE,DEU,276,Western Europe,276,DEU,*ألمانيا,Deutschland,^(?!.*ost).*deutschland|^(?=.*\bbundesrepublik).*deutschland,^(?!.*east).*germany|^(?=.*\bfed.*\brep).*german,Alemania,Allemagne,Германия,德国,DE,DE,DEU,276,FALSE
German Federal Republic,German Federal Republic,Germany West,German Federal Republic,260,260,GFR,GFR,260,GFR,260,GFR,1955-05-05,1990-10-02,1945-05-08,1990-10-02,1949-09-21,NA,NA,NA,TRUE,TRUE,TRUE,^(?=.*\bfed.*\brep).*german|^f\.?r\.?g\.?$|^b\.?r\.?d\.?$|^(?=.*west).*germany|bonn.?republic|^(?!\beast).*germany(?!.*east),50.73743,7.0982068,Federal Republic of Germany,Western Europe,Europe,NA,NA,NA,NA,NA,NA,NA,NA,NA,NA,FRG,NA,NA,280,NA,NA,NA,NA,Bundesrepublik Deutschland,^(?=.*\bbundesrepublik).*deutschland|westdeutschland|brd,^(?=.*\bfed.*\brep).*german|(?=.*west).*germany|bonn.?republic,NA,NA,NA,NA,NA,NA,NA,NA,FALSE
German Democratic Republic,German Democratic Republic,Germany East,German Democratic Republic,265,265,GDR,GDR,265,GDR,265,GDR,1954-03-25,1990-10-02,1945-05-08,1990-10-02,1949-10-05,1990-10-02,NA,NA,TRUE,TRUE,TRUE,german.?democratic.?republic|^(d|g)\.?d\.?r\.?$|^(?=.*east).*germany,52.5200066,13.404954,German Democratic Republic,Western Europe,Europe,NA,NA,NA,Eurocontrol,ESRA North-West,NA,NA,ET,E,NA,GDR,DD,DDR,278,NA,NA,NA,NA,Deutsche Demokratische Republik,deutsche.?demokratische.?republik|ostdeutschland|ddr,german.?democratic.?republic|democratic.?republic.*germany|east.germany,NA,NA,NA,NA,NA,NA,NA,NA,FALSE
Baden,Baden,Baden,Baden,267,267,BAD,BAD,267,BAD,267,BAD,1816-01-01,1871-01-18,1819-07-16,1871-01-18,1816-01-01,1871-01-17,NA,NA,TRUE,TRUE,TRUE,baden,38.7182608,-90.2315018,Baden,Western Europe,Europe,NA,NA,NA,NA,NA,NA,NA,NA,NA,NA,NA,NA,NA,NA,NA,NA,NA,NA,Baden,baden,baden,NA,NA,NA,NA,NA,NA,NA,NA,FALSE
Saxony,Saxony,Saxony,Saxony,269,269,SAX,SAX,269,SAX,269,SAX,1816-01-01,1867-04-17,1806-12-11,1871-01-18,1816-01-01,1871-01-17,NA,NA,TRUE,TRUE,TRUE,saxony,34.663911,-92.3496976,Saxony,Western Europe,Europe,NA,NA,NA,NA,NA,NA,NA,NA,NA,NA,NA,NA,NA,NA,NA,NA,NA,NA,Sachsen,sachsen,saxony,NA,NA,NA,NA,NA,NA,NA,NA,FALSE
Wuerttemburg,Wurttemberg,Wuerttemburg,W?rttemberg,271,271,WRT,WRT,271,WRT,271,WRT,1816-01-01,1871-01-18,1800-01-01,1871-01-18,1816-01-01,1871-01-17,NA,NA,TRUE,TRUE,TRUE,w(u|ue|ü)rttemb(u|e)rg|wuttemberg|wurttemberg,48.7758459,9.1829321,Wuerttemburg,Western Europe,Europe,NA,NA,NA,NA,NA,NA,NA,NA,NA,NA,NA,NA,NA,NA,NA,NA,NA,NA,Württemberg,w(ue|ü)rttemberg,w(ue|ü)rttemburg,NA,NA,NA,NA,NA,NA,NA,NA,FALSE
Hesse Electoral,Hesse-Kassel (Electoral),NA,Hesse-Kassel (Electoral),273,273,HSE,HSE,273,HSE,273,NA,1816-01-01,1866-07-26,NA,NA,1816-01-01,1871-01-17,NA,NA,TRUE,FALSE,TRUE,hesse.*lectoral|hesse.*kassel(?!.*ducal),51.3127114,9.4797461,Hesse Electoral,Western Europe,Europe,NA,NA,NA,NA,NA,NA,NA,NA,NA,NA,NA,NA,NA,NA,NA,NA,NA,NA,Kurfürstentum Hessen,kurf(ü|u)rsten.*hessen,hesse.*lectoral,NA,NA,NA,NA,NA,NA,NA,NA,FALSE
Hesse Grand Ducal,Hesse-Darmstadt (Ducal),NA,Hesse-Darmstadt (Ducal),275,275,HSD,HSD,275,HSG,275,NA,1816-01-01,1867-04-17,NA,NA,1816-01-01,1871-01-17,NA,NA,TRUE,FALSE,TRUE,hess.*gran.*ducal|hess.*darms,51.3127114,9.4797461,Hesse Grand Ducal,Western Europe,Europe,NA,NA,NA,NA,NA,NA,NA,NA,NA,NA,NA,NA,NA,NA,NA,NA,NA,NA,Großherzogtum Hessen,gro(ß|ss)herzog.*hessen,hess.*gran.*ducal,NA,NA,NA,NA,NA,NA,NA,NA,FALSE
Mecklenburg Schwerin,Mecklenburg-Schwerin,NA,Mecklenburg-Schwerin,280,280,MEC,MEC,280,MEC,280,NA,1843-01-01,1867-04-17,NA,NA,1816-01-01,1871-01-17,NA,NA,TRUE,FALSE,TRUE,mecklenbur.*schwerin,53.6355022,11.4012499,Mecklenburg Schwerin,Western Europe,Europe,NA,NA,NA,NA,NA,NA,NA,NA,NA,NA,NA,NA,NA,NA,NA,NA,NA,NA,Mecklenburg-Schwerin,mecklenbur.*schwerin,mecklenbur.*schwerin,NA,NA,NA,NA,NA,NA,NA,NA,FALSE
Poland,Poland,Poland,Poland,290,290,POL,POL,290,POL,290,POL,1918-11-03,1939-09-27,1918-11-11,NA,1918-11-11,NA,NA,NA,TRUE,TRUE,TRUE,poland,51.919438,19.145136,Poland,Eastern Europe,Europe,EIT,Europe,EU,Eurocontrol,ESRA East,173,PL,EP,E,964,POL,PL,POL,616,Eastern Europe,616,POL,بولندا,Polen,polen,poland,Polonia,Pologne,Польша,波兰,PL,PL,POL,616,FALSE
Poland,Poland,Poland,Poland,290,290,POL,POL,290,POL,290,POL,1945-06-28,NA,1918-11-11,NA,1918-11-11,NA,NA,NA,TRUE,TRUE,TRUE,poland,51.919438,19.145136,Poland,Eastern Europe,Europe,EIT,Europe,EU,Eurocontrol,ESRA East,173,PL,EP,E,964,POL,PL,POL,616,Eastern Europe,616,POL,بولندا,Polen,polen,poland,Polonia,Pologne,Польша,波兰,PL,PL,POL,616,FALSE
Austria-Hungary,Austria-Hungary,NA,Austria-Hungary,300,300,AUH,AUH,300,AUH,300,NA,1816-01-01,1918-11-12,NA,NA,1816-01-01,1918-11-13,NA,NA,TRUE,FALSE,TRUE,austria.*hungary|austr.*emp,48.2081743,16.3738189,Austria-Hungary,Central Europe,Europe,NA,NA,NA,NA,NA,NA,NA,NA,NA,NA,NA,NA,NA,NA,NA,NA,NA,NA,Österreich-Ungarn,(ö|o)sterreich-ungarn,austria-hungary,NA,NA,NA,NA,NA,NA,NA,NA,FALSE
Austria,Austria,Austria,Austria,305,305,AUS,AUS,305,AUS,305,AUS,1919-09-10,1938-03-13,1800-01-01,NA,1918-11-14,NA,NA,NA,TRUE,TRUE,TRUE,^(?!.*hungary).*austria|\baust(?!ralia).*(?!.*hungar),47.516231,14.550072,Austria,Western Europe,Europe,OECD1990,Europe,EU,Eurocontrol,ESRA North-West,11,AU,LO,L,122,AUT,AT,AUT,40,Western Europe,40,AUT,النمسا,Österreich,^(?!.*ungarn).*(ö|o)sterreich,^(?!.*hungary).*austria|\baustri.*\bemp,Austria,Autriche,Австрия,奥地利,AT,AT,AUT,40,FALSE
Austria,Austria,Austria,Austria,305,305,AUS,AUS,305,AUS,305,AUS,1955-07-27,NA,1800-01-01,NA,1918-11-14,NA,NA,NA,TRUE,TRUE,TRUE,^(?!.*hungary).*austria|\baust(?!ralia).*(?!.*hungar),47.516231,14.550072,Austria,Western Europe,Europe,OECD1990,Europe,EU,Eurocontrol,ESRA North-West,11,AU,LO,L,122,AUT,AT,AUT,40,Western Europe,40,AUT,النمسا,Österreich,^(?!.*ungarn).*(ö|o)sterreich,^(?!.*hungary).*austria|\baustri.*\bemp,Austria,Autriche,Австрия,奥地利,AT,AT,AUT,40,FALSE
Hungary,Hungary,Hungary,Hungary,310,310,HUN,HUN,310,HUN,310,HUN,1918-11-16,NA,1867-05-29,NA,1918-11-03,NA,NA,NA,TRUE,TRUE,TRUE,^(?!.*austr).*hungary,47.162494,19.503304,Hungary,Eastern Europe,Europe,EIT,Europe,EU,Eurocontrol,ESRA East,97,HU,LH,L,944,HUN,HU,HUN,348,Eastern Europe,348,HUN,هنغاريا,Ungarn,^(?!.*(ö|o)sterreich).*ungarn,^(?!.*austr).*hungary,Hungría,Hongrie,Венгрия,匈牙利,HU,HU,HUN,348,FALSE
Czechoslovakia,Czechoslovakia,Czechoslovakia,Czechoslovakia,315,315,CZE,CZE,315,CZE,315,CZE,1918-10-28,1939-03-15,1918-10-28,1992-12-31,1918-11-11,1992-12-31,NA,NA,TRUE,TRUE,TRUE,czechoslovakia|CZECH REP,50.0755381,14.4378005,Czechoslovakia,Eastern Europe,Europe,NA,NA,NA,NA,NA,NA,NA,NA,NA,934,TCH,CS,CSK,200,NA,NA,NA,NA,Tschechoslowakei,tschechoslowakei|^csr$,czechoslovakia,NA,NA,NA,NA,NA,NA,NA,NA,FALSE
Czechoslovakia,Czechoslovakia,Czechoslovakia,Czechoslovakia,315,315,CZE,CZE,315,CZE,315,CZE,1945-05-10,1992-12-31,1918-10-28,1992-12-31,1918-11-11,1992-12-31,NA,NA,TRUE,TRUE,TRUE,czechoslovakia|CZECH REP,50.0755381,14.4378005,Czechoslovakia,Eastern Europe,Europe,NA,NA,NA,NA,NA,NA,NA,NA,NA,934,TCH,CS,CSK,200,NA,NA,NA,NA,Tschechoslowakei,tschechoslowakei|^csr$,czechoslovakia,NA,NA,NA,NA,NA,NA,NA,NA,FALSE
Czech Republic,Czech Republic,Czech Republic,Czech Republic,316,316,CZR,CZR,316,CZR,316,CZR,1993-01-01,NA,1993-01-01,NA,1993-01-01,NA,NA,NA,TRUE,TRUE,TRUE,^(?=.*rep).*czech|czechia|bohemia,49.817492,15.472962,Czech Republic,Eastern Europe,Europe,EIT,Europe,EU,Eurocontrol,ESRA East,167,EZ,LK,L,935,CZE,CZ,CZE,203,Eastern Europe,203,CZE,الجمهورية التشيكية,Tschechische Republik,^(?!.*slowak)tschechi.*,^(?=.*rep).*czech|czechia|bohemia,República Checa,République tchèque,Чешская Республика,捷克共和国,CZ,CZ,CZE,203,FALSE
Slovakia,Slovakia,Slovak Republic,Slovakia,317,317,SLO,SLO,317,SLO,317,SLO,1993-01-01,NA,1993-01-01,NA,1993-01-01,NA,NA,NA,TRUE,TRUE,TRUE,^(?!.*cze).*slovak,48.669026,19.699024,Slovakia,Eastern Europe,Europe,EIT,Europe,EU,Eurocontrol,ESRA East,199,LO,LZ,L,936,SVK,SK,SVK,703,Eastern Europe,703,SVK,سلوفاكيا,Slowakei,^(?!.*tsch).*slowakei,^(?!.*cze).*slovak,Eslovaquia,Slovaquie,Словакия,斯洛伐克,SK,SK,SVK,703,FALSE
Italy,Italy/Sardinia,Sardinia,Italy/Sardinia,325,325,ITA,ITA,325,ITA,324,SAR,1816-01-01,NA,1815-06-08,1861-03-16,1816-01-01,NA,NA,NA,TRUE,TRUE,TRUE,italy|sardinia,40.1208752,9.0128926,Italy,Southern Europe,Europe,OECD1990,Europe,EU,Eurocontrol,ESRA Mediterranean,106,IT,LI,L,136,ITA,IT,ITA,380,Southern Europe,380,ITA,إيطاليا,Italien,italien,italy,Italia,Italie,Италия,意大利,IT,IT,ITA,380,FALSE
Italy,Italy/Sardinia,Italy,Italy/Sardinia,325,325,ITA,ITA,325,ITA,325,ITA,1816-01-01,NA,1861-03-17,NA,1816-01-01,NA,NA,NA,TRUE,TRUE,TRUE,italy|sardinia,40.1208752,9.0128926,Italy,Southern Europe,Europe,OECD1990,Europe,EU,Eurocontrol,ESRA Mediterranean,106,IT,LI,L,136,ITA,IT,ITA,380,Southern Europe,380,ITA,إيطاليا,Italien,italien,italy,Italia,Italie,Италия,意大利,IT,IT,ITA,380,FALSE
Papal States,Papal States,Papal States,Papal States,327,327,PAP,PAP,327,PAP,327,PAP,1816-01-01,1860-11-05,1815-06-08,1870-10-02,1816-01-01,1870-09-22,NA,NA,TRUE,TRUE,TRUE,holy.?see|vatican|papal.?st,41.902916,12.453389,Holy See (Vatican City State),Southern Europe,Europe,OECD1990,Europe,NA,NA,NA,NA,VT,NA,NA,NA,NA,VA,VAT,336,Southern Europe,336,VAT,NA,Vatikanstaat,vatikan,holy.?see|vatican|papal.?st,NA,NA,NA,NA,VA,NA,NA,NA,FALSE
Two Sicilies,Sicily (Two Sicilies),Two Sicilies,Two Sicilies,329,329,SIC,SIC,329,SIC,329,SIC,1816-01-01,1861-02-13,1816-01-01,1860-10-22,1816-01-01,1861-03-16,NA,NA,TRUE,TRUE,TRUE,two.?sicilies|SICILY,-33.8143653,18.6936505,Two Sicilies,Southern Europe,Europe,NA,NA,NA,NA,NA,NA,NA,NA,NA,NA,NA,NA,NA,NA,NA,NA,NA,NA,Königreich beider Sizilien,sizilien,two.?sicilies,NA,NA,NA,NA,NA,NA,NA,NA,FALSE
San Marino,San Marino,NA,San Marino,331,331,SNM,SNM,331,SNM,331,NA,1992-03-02,NA,NA,NA,1816-01-01,NA,NA,NA,TRUE,FALSE,TRUE,san.?marino,43.94236,12.457777,San Marino,Southern Europe,Europe,OECD1990,Europe,NA,NA,NA,192,SM,NA,NA,135,SMR,SM,SMR,674,Southern Europe,674,SMR,سان مارينو,San Marino,san.?marino,san.?marino,San Marino,Saint-Marin,Сан-Марино,圣马力诺,SM,SM,SMR,NA,TRUE
Modena,Modena,Modena,Modena,332,332,MOD,MOD,332,MOD,332,MOD,1842-01-01,1860-03-15,1815-06-08,1860-03-13,1816-01-01,1861-03-16,NA,NA,TRUE,TRUE,TRUE,modena,20.6925426,-103.387818,Modena,Southern Europe,Europe,NA,NA,NA,NA,NA,NA,NA,NA,NA,NA,NA,NA,NA,NA,NA,NA,NA,NA,Modena,modena,modena,NA,NA,NA,NA,NA,NA,NA,NA,FALSE
Parma,Parma,Parma,Parma,335,335,PMA,PMA,335,PMA,335,PMA,1851-01-01,1860-03-15,1815-06-08,1860-03-13,1816-01-01,1861-03-16,NA,NA,TRUE,TRUE,TRUE,parma,37.2210163,-121.8689106,Parma,Southern Europe,Europe,NA,NA,NA,NA,NA,NA,NA,NA,NA,NA,NA,NA,NA,NA,NA,NA,NA,NA,Parma,parma,parma,NA,NA,NA,NA,NA,NA,NA,NA,FALSE
Tuscany,Tuscany,Tuscany,Tuscany,337,337,TUS,TUS,337,TUS,337,TUS,1816-01-01,1860-03-15,1815-06-08,1860-03-13,1816-01-01,1861-03-16,NA,NA,TRUE,TRUE,TRUE,tuscany,35.3329639,-97.536104,Tuscany,Southern Europe,Europe,NA,NA,NA,NA,NA,NA,NA,NA,NA,NA,NA,NA,NA,NA,NA,NA,NA,NA,Toskana,toskana,tuscany,NA,NA,NA,NA,NA,NA,NA,NA,FALSE
Malta,Malta,NA,Malta,338,338,MLT,MLT,338,MLT,338,NA,1964-09-21,NA,NA,NA,1964-09-21,NA,NA,NA,TRUE,FALSE,TRUE,\bmalta,35.937496,14.375416,Malta,Southern Europe,Europe,EIT,Europe,EU,Eurocontrol,ESRA Mediterranean,134,MT,LM,L,181,MLT,MT,MLT,470,Southern Europe,470,MLT,مالطة,Malta,\bmalta,\bmalta,Malta,Malte,Мальта,马耳他,MT,MT,MLT,470,FALSE
Albania,Albania,Albania,Albania,339,339,ALB,ALB,339,ALB,339,ALB,1914-01-01,1939-04-07,1914-09-04,NA,1913-01-01,NA,NA,NA,TRUE,TRUE,TRUE,albania,41.153332,20.168331,Albania,Southern Europe,Europe,EIT,Europe,NA,Eurocontrol,ESRA East,3,AL,LA,L,914,ALB,AL,ALB,8,Southern Europe,8,ALB,ألبانيا,Albanien,albanien,albania,Albania,Albanie,Албания,阿尔巴尼亚,AL,AL,ALB,8,FALSE
Albania,Albania,Albania,Albania,339,339,ALB,ALB,339,ALB,339,ALB,1944-11-17,NA,1914-09-04,NA,1913-01-01,NA,NA,NA,TRUE,TRUE,TRUE,albania,41.153332,20.168331,Albania,Southern Europe,Europe,EIT,Europe,NA,Eurocontrol,ESRA East,3,AL,LA,L,914,ALB,AL,ALB,8,Southern Europe,8,ALB,ألبانيا,Albanien,albanien,albania,Albania,Albanie,Албания,阿尔巴尼亚,AL,AL,ALB,8,FALSE
Montenegro,Montenegro,Montenegro,Montenegro,341,341,MNG,MNG,341,MNG,348,MNT,2006-06-12,NA,2006-06-03,NA,2006-06-03,NA,NA,NA,TRUE,TRUE,TRUE,^(?!.*serbia).*montenegro,42.708678,19.374389999999998,Montenegro,Southern Europe,Europe,EIT,Europe,NA,Eurocontrol,ESRA East,273,MJ,LY,L,943,MNE,ME,MNE,499,Southern Europe,499,MNE,الجبل الأسود,Montenegro,^(?!.*serbien).*montenegro,^(?!.*serbia).*montenegro,Montenegro,Monténégro,Черногория,黑山共和国,ME,ME,MNE,912,FALSE
Macedonia,Macedonia (Former Yugoslav Republic of),Macedonia,Macedonia (Former Yugoslav Republic of),343,343,MAC,MAC,343,MAC,343,MAC,1993-04-08,NA,1991-09-17,NA,1991-11-20,NA,NA,NA,TRUE,TRUE,TRUE,macedonia|^f\.?y\.?r\.?o\.?m\.?$,41.608635,21.745275,The former Yugoslav Republic of Macedonia,Southern Europe,Europe,EIT,Europe,NA,Eurocontrol,ESRA East,154,MK,LW,L,962,MKD,MK,MKD,807,Southern Europe,807,MKD,جمهورية مقدونيا اليوغوسلافية السابقة*,Mazedonien,mazedonien|fyrom,macedonia|fyrom,ex República Yugoslava de Macedonia,Ex-République yougoslave de Macédoine,Бывшая югославская Республика Македония,前南斯拉夫的马其顿共和国,MK,MK,MKD,807,FALSE
Croatia,Croatia,Croatia,Croatia,344,344,CRO,CRO,344,CRO,344,CRO,1992-01-15,NA,1991-06-25,NA,1992-04-27,NA,NA,NA,TRUE,TRUE,TRUE,croatia,45.1,15.2,Croatia,Southern Europe,Europe,EIT,Europe,EU,Eurocontrol,ESRA East,98,HR,LD,L,960,CRO,HR,HRV,191,Southern Europe,191,HRV,كرواتيا,Kroatien,kroatien,croatia,Croacia,Croatie,Хорватия,克罗地亚,HR,HR,HRV,191,FALSE
Yugoslavia,Serbia,Serbia,Serbia,340,340,SER,SER,345,YUG,342,SER,1878-07-13,1941-04-20,1830-08-15,1920-12-31,1878-07-13,1915-10-01,NA,NA,TRUE,TRUE,TRUE,^(?!.*monte).*serbia|^(?=.*yugo).*serbia,44.016521,21.005859,Serbia,Southern Europe,Europe,EIT,Europe,NA,Eurocontrol,ESRA East,272,RI,LY,L,942,SRB,RS,SRB,688,Southern Europe,688,SRB,صربيا,Serbien,^(?!.*monte).*serbien,^(?!.*monte).*serbia,Serbia,Serbie,Сербия,塞尔维亚共和国,RS,RS,SRB,911,FALSE
Yugoslavia,Serbia,Serbia,Serbia,340,340,SER,SER,345,YUG,342,SER,1878-07-13,1941-04-20,1830-08-15,1920-12-31,1878-07-13,1915-10-01,NA,NA,TRUE,TRUE,TRUE,^(?!.*monte).*serbia|^(?=.*yugo).*serbia,44.016521,21.005859,Yugoslavia,Southern Europe,Europe,NA,NA,NA,NA,NA,NA,NA,NA,NA,188,YUG,YU,YUG,NA,NA,NA,YUG,NA,Jugoslawien,jugoslawien,yugoslavia,NA,NA,NA,NA,NA,NA,NA,NA,FALSE
Yugoslavia,Yugoslavia,Yugoslavia,Yugoslavia,345,345,YUG,YUG,345,YUG,345,YUG,1878-07-13,1941-04-20,1921-01-01,1991-07-01,1918-12-01,2006-06-04,NA,NA,TRUE,TRUE,TRUE,yugoslavia|serbia,44.49,20.28,Serbia,Southern Europe,Europe,EIT,Europe,NA,Eurocontrol,ESRA East,272,RI,LY,L,942,SRB,RS,SRB,688,Southern Europe,688,SRB,صربيا,Serbien,^(?!.*monte).*serbien,^(?!.*monte).*serbia,Serbia,Serbie,Сербия,塞尔维亚共和国,RS,RS,SRB,911,FALSE
Yugoslavia,Yugoslavia,Yugoslavia,Yugoslavia,345,345,YUG,YUG,345,YUG,345,YUG,1878-07-13,1941-04-20,1921-01-01,1991-07-01,1918-12-01,2006-06-04,NA,NA,TRUE,TRUE,TRUE,yugoslavia|serbia,44.49,20.28,Yugoslavia,Southern Europe,Europe,NA,NA,NA,NA,NA,NA,NA,NA,NA,188,YUG,YU,YUG,NA,NA,NA,YUG,NA,Jugoslawien,jugoslawien,yugoslavia,NA,NA,NA,NA,NA,NA,NA,NA,FALSE
Yugoslavia,Serbia,Serbia,Serbia,340,340,SER,SER,345,YUG,342,SER,1944-10-20,NA,2006-06-03,NA,2006-06-05,NA,NA,NA,TRUE,TRUE,TRUE,^(?!.*monte).*serbia|^(?=.*yugo).*serbia,44.016521,21.005859,Serbia,Southern Europe,Europe,EIT,Europe,NA,Eurocontrol,ESRA East,272,RI,LY,L,942,SRB,RS,SRB,688,Southern Europe,688,SRB,صربيا,Serbien,^(?!.*monte).*serbien,^(?!.*monte).*serbia,Serbia,Serbie,Сербия,塞尔维亚共和国,RS,RS,SRB,911,FALSE
Yugoslavia,Serbia,Serbia,Serbia,340,340,SER,SER,345,YUG,342,SER,1944-10-20,NA,2006-06-03,NA,2006-06-05,NA,NA,NA,TRUE,TRUE,TRUE,^(?!.*monte).*serbia|^(?=.*yugo).*serbia,44.016521,21.005859,Yugoslavia,Southern Europe,Europe,NA,NA,NA,NA,NA,NA,NA,NA,NA,188,YUG,YU,YUG,NA,NA,NA,YUG,NA,Jugoslawien,jugoslawien,yugoslavia,NA,NA,NA,NA,NA,NA,NA,NA,FALSE
Yugoslavia,Yugoslavia,Yugoslavia,Yugoslavia,345,345,YUG,YUG,345,YUG,345,YUG,1944-10-20,NA,1921-01-01,1991-07-01,1918-12-01,2006-06-04,NA,NA,TRUE,TRUE,TRUE,yugoslavia|serbia,44.49,20.28,Serbia,Southern Europe,Europe,EIT,Europe,NA,Eurocontrol,ESRA East,272,RI,LY,L,942,SRB,RS,SRB,688,Southern Europe,688,SRB,صربيا,Serbien,^(?!.*monte).*serbien,^(?!.*monte).*serbia,Serbia,Serbie,Сербия,塞尔维亚共和国,RS,RS,SRB,911,FALSE
Yugoslavia,Yugoslavia,Yugoslavia,Yugoslavia,345,345,YUG,YUG,345,YUG,345,YUG,1944-10-20,NA,1921-01-01,1991-07-01,1918-12-01,2006-06-04,NA,NA,TRUE,TRUE,TRUE,yugoslavia|serbia,44.49,20.28,Yugoslavia,Southern Europe,Europe,NA,NA,NA,NA,NA,NA,NA,NA,NA,188,YUG,YU,YUG,NA,NA,NA,YUG,NA,Jugoslawien,jugoslawien,yugoslavia,NA,NA,NA,NA,NA,NA,NA,NA,FALSE
Yugoslavia,Yugoslavia,Serbia and Montenegro,Yugoslavia,345,345,YUG,YUG,345,YUG,347,YGS,1944-10-20,NA,2003-03-11,2006-06-02,1918-12-01,2006-06-04,NA,NA,TRUE,TRUE,TRUE,yugoslavia|serbia,44.49,20.28,Serbia,Southern Europe,Europe,EIT,Europe,NA,Eurocontrol,ESRA East,272,RI,LY,L,942,SRB,RS,SRB,688,Southern Europe,688,SRB,صربيا,Serbien,^(?!.*monte).*serbien,^(?!.*monte).*serbia,Serbia,Serbie,Сербия,塞尔维亚共和国,RS,RS,SRB,911,FALSE
Yugoslavia,Yugoslavia,Serbia and Montenegro,Yugoslavia,345,345,YUG,YUG,345,YUG,347,YGS,1944-10-20,NA,2003-03-11,2006-06-02,1918-12-01,2006-06-04,NA,NA,TRUE,TRUE,TRUE,yugoslavia|serbia,44.49,20.28,Yugoslavia,Southern Europe,Europe,NA,NA,NA,NA,NA,NA,NA,NA,NA,188,YUG,YU,YUG,NA,NA,NA,YUG,NA,Jugoslawien,jugoslawien,yugoslavia,NA,NA,NA,NA,NA,NA,NA,NA,FALSE
Yugoslavia,Yugoslavia,Yugoslavia,Yugoslavia,345,345,YUG,YUG,345,YUG,347,YGS,1944-10-20,NA,1991-07-01,2003-03-11,1918-12-01,2006-06-04,NA,NA,TRUE,TRUE,TRUE,yugoslavia|serbia,44.49,20.28,Serbia,Southern Europe,Europe,EIT,Europe,NA,Eurocontrol,ESRA East,272,RI,LY,L,942,SRB,RS,SRB,688,Southern Europe,688,SRB,صربيا,Serbien,^(?!.*monte).*serbien,^(?!.*monte).*serbia,Serbia,Serbie,Сербия,塞尔维亚共和国,RS,RS,SRB,911,FALSE
Yugoslavia,Yugoslavia,Yugoslavia,Yugoslavia,345,345,YUG,YUG,345,YUG,347,YGS,1944-10-20,NA,1991-07-01,2003-03-11,1918-12-01,2006-06-04,NA,NA,TRUE,TRUE,TRUE,yugoslavia|serbia,44.49,20.28,Yugoslavia,Southern Europe,Europe,NA,NA,NA,NA,NA,NA,NA,NA,NA,188,YUG,YU,YUG,NA,NA,NA,YUG,NA,Jugoslawien,jugoslawien,yugoslavia,NA,NA,NA,NA,NA,NA,NA,NA,FALSE
Bosnia and Herzegovina,Bosnia-Herzegovina,Bosnia,Bosnia-Herzegovina,346,346,BOS,BOS,346,BOS,346,BOS,1992-04-07,NA,1992-04-05,NA,1992-04-27,NA,NA,NA,TRUE,TRUE,TRUE,herzegovina|bosnia,43.915886,17.679076,Bosnia and Herzegovina,Southern Europe,Europe,EIT,Europe,NA,Eurocontrol,ESRA East,80,BK,LQ,L,963,BIH,BA,BIH,70,Southern Europe,70,BIH,البوسنة والهرسك*,Bosnien und Herzegowina,herzegowina|bosnien,herzegovina|bosnia,Bosnia y Herzegovina,Bosnie-Herzégovine,Босния и Герцеговина,波斯尼亚和黑塞哥维那,BA,BA,BIH,70,FALSE
Kosovo,Kosovo,Kosovo,Kosovo,347,347,KOS,KOS,347,KOS,341,KOS,2008-02-20,NA,2008-02-17,NA,2008-02-17,NA,NA,NA,TRUE,TRUE,TRUE,kosovo,42.6026359,20.902977,Kosovo,Southern Europe,Europe,NA,NA,NA,NA,NA,NA,KV,NA,NA,967,NA,NA,NA,NA,NA,NA,KSV,NA,Kosovo,kosovo,kosovo,NA,NA,NA,NA,XK,XK,KSV,915,FALSE
Slovenia,Slovenia,Slovenia,Slovenia,349,349,SLV,SLV,349,SLV,349,SLV,1992-01-15,NA,1991-06-25,NA,1992-04-27,NA,NA,NA,TRUE,TRUE,TRUE,slovenia,46.151241,14.995463,Slovenia,Southern Europe,Europe,EIT,Europe,EU,Eurocontrol,ESRA East,198,SI,LJ,L,961,SLO,SI,SVN,705,Southern Europe,705,SVN,سلوفينيا,Slowenien,slowenien,slovenia,Eslovenia,Slovénie,Словения,斯洛文尼亚,SI,SI,SVN,705,FALSE
Greece,Greece,Greece,Greece,350,350,GRC,GRC,350,GRC,350,GRC,1828-01-01,1941-04-23,1827-05-17,NA,1828-04-25,NA,NA,NA,TRUE,TRUE,TRUE,greece|hellenic|hellas,39.074208,21.824312,Greece,Southern Europe,Europe,OECD1990,Europe,EU,Eurocontrol,ESRA Mediterranean,84,GR,LG,L,174,GRE,GR,GRC,300,Southern Europe,300,GRC,اليونان,Griechenland,griechenland|hellenic|hellas,greece|hellenic|hellas,Grecia,Grèce,Греция,希腊,EL,GR,GRC,300,FALSE
Greece,Greece,Greece,Greece,350,350,GRC,GRC,350,GRC,350,GRC,1944-10-13,NA,1827-05-17,NA,1828-04-25,NA,NA,NA,TRUE,TRUE,TRUE,greece|hellenic|hellas,39.074208,21.824312,Greece,Southern Europe,Europe,OECD1990,Europe,EU,Eurocontrol,ESRA Mediterranean,84,GR,LG,L,174,GRE,GR,GRC,300,Southern Europe,300,GRC,اليونان,Griechenland,griechenland|hellenic|hellas,greece|hellenic|hellas,Grecia,Grèce,Греция,希腊,EL,GR,GRC,300,FALSE
Cyprus,Cyprus,Cyprus,Cyprus,352,352,CYP,CYP,352,CYP,352,CYP,1960-08-16,NA,1960-08-16,NA,1960-08-16,NA,NA,NA,TRUE,TRUE,TRUE,^(?!.*\bn).*cyprus,35.126413,33.429859,Cyprus,Western Asia,Asia,EIT,Asia,EU,Eurocontrol,ESRA Mediterranean,50,CY,LC,L,423,CYP,CY,CYP,196,Western Asia,196,CYP,قبرص,Zypern,zypern,cyprus,Chipre,Chypre,Кипр,塞浦路斯,CY,CY,CYP,196,FALSE
Bulgaria,Bulgaria,Bulgaria,Bulgaria,355,355,BUL,BUL,355,BUL,355,BUL,1908-10-05,NA,1879-04-29,NA,1878-03-03,NA,NA,NA,TRUE,TRUE,TRUE,bulgaria,42.733883,25.48583,Bulgaria,Eastern Europe,Europe,EIT,Europe,EU,Eurocontrol,ESRA East,27,BU,LB,L,918,BUL,BG,BGR,100,Eastern Europe,100,BGR,بلغاريا,Bulgarien,bulgarien,bulgaria,Bulgaria,Bulgarie,Болгария,保加利亚,BG,BG,BGR,100,FALSE
Moldova,Moldova,Moldova,Moldova,359,359,MLD,MLD,359,MLD,359,MLD,1991-12-26,NA,1991-08-27,NA,1991-08-27,NA,NA,NA,TRUE,TRUE,TRUE,moldov|b(a|e)ssarabia,47.411631,28.369885,Republic of Moldova,Eastern Europe,Europe,EIT,Europe,NA,Eurocontrol,ESRA East,146,MD,LU,L,921,MDA,MD,MDA,498,Eastern Europe,498,MDA,جمهورية مولدوفا,Republik Moldau,moldau|moldov|b(a|e)ssarabia,moldov|b(a|e)ssarabia,República de Moldova,République de Moldova,Республика Молдова,摩尔多瓦共和国,MD,MD,MDA,498,FALSE
Romania,Romania,Romania,Rumania,360,360,RUM,RUM,360,ROM,360,RUM,1878-07-13,NA,1859-01-24,NA,1878-07-13,NA,NA,NA,TRUE,TRUE,TRUE,r(o|u|ou)mania,45.943161,24.96676,Romania,Eastern Europe,Europe,EIT,Europe,EU,Eurocontrol,ESRA East,183,RO,LR,L,968,ROU,RO,ROU,642,Eastern Europe,642,ROM,رومانيا,Rumänien,rum(a|ä)nien,r(o|u|ou)mania,Rumania,Roumanie,Румыния,罗马尼亚,RO,RO,ROU,642,FALSE
Russia,Russia (Soviet Union),USSR,Russia (Soviet Union),365,365,RUS,RUS,365,RUS,364,USR,1816-01-01,NA,1922-12-30,1991-12-31,1816-01-01,NA,NA,NA,TRUE,TRUE,TRUE,\brussia|soviet.?union|u\.?s\.?s\.?r|socialist.?republics,61.52401,105.318756,Russian Federation,Eastern Europe,Europe,EIT,Europe,NA,Russia,Asia/Pacific,185,RS,U[^ABDGKMT],U,922,RUS,RU,RUS,643,Eastern Europe,643,RUS,الاتحاد الروسي,Russische Föderation,\brussland|russ.*föderation|sowjet.?union|u\.?s\.?s\.?r|sowjet.?republik|udssr,\brussia|soviet.?union|u\.?s\.?s\.?r|socialist.?republics,Federación de Rusia,Fédération de Russie,Российская Федерация,俄罗斯联邦,RU,RU,RUS,643,FALSE
Russia,Russia (Soviet Union),Russia,Russia (Soviet Union),365,365,RUS,RUS,365,RUS,365,RUS,1816-01-01,NA,1992-01-01,NA,1816-01-01,NA,NA,NA,TRUE,TRUE,TRUE,\brussia|soviet.?union|u\.?s\.?s\.?r|socialist.?republics,61.52401,105.318756,Russian Federation,Eastern Europe,Europe,EIT,Europe,NA,Russia,Asia/Pacific,185,RS,U[^ABDGKMT],U,922,RUS,RU,RUS,643,Eastern Europe,643,RUS,الاتحاد الروسي,Russische Föderation,\brussland|russ.*föderation|sowjet.?union|u\.?s\.?s\.?r|sowjet.?republik|udssr,\brussia|soviet.?union|u\.?s\.?s\.?r|socialist.?republics,Federación de Rusia,Fédération de Russie,Российская Федерация,俄罗斯联邦,RU,RU,RUS,643,FALSE
Russia,Russia (Soviet Union),Russia,Russia (Soviet Union),365,365,RUS,RUS,365,RUS,365,RUS,1816-01-01,NA,1800-01-01,1922-12-29,1816-01-01,NA,NA,NA,TRUE,TRUE,TRUE,\brussia|soviet.?union|u\.?s\.?s\.?r|socialist.?republics,61.52401,105.318756,Russian Federation,Eastern Europe,Europe,EIT,Europe,NA,Russia,Asia/Pacific,185,RS,U[^ABDGKMT],U,922,RUS,RU,RUS,643,Eastern Europe,643,RUS,الاتحاد الروسي,Russische Föderation,\brussland|russ.*föderation|sowjet.?union|u\.?s\.?s\.?r|sowjet.?republik|udssr,\brussia|soviet.?union|u\.?s\.?s\.?r|socialist.?republics,Federación de Rusia,Fédération de Russie,Российская Федерация,俄罗斯联邦,RU,RU,RUS,643,FALSE
Estonia,Estonia,Estonia,Estonia,366,366,EST,EST,366,EST,366,EST,1918-02-24,1940-06-16,1917-04-12,1940-06-16,1918-11-11,1940-06-01,NA,NA,TRUE,TRUE,TRUE,estonia,58.595272,25.013607,Estonia,Northern Europe,Europe,EIT,Europe,EU,Eurocontrol,Other Europe,63,EN,EE,E,939,EST,EE,EST,233,Northern Europe,233,EST,إستونيا,Estland,estland,estonia,Estonia,Estonie,Эстония,爱沙尼亚,EE,EE,EST,233,FALSE
Estonia,Estonia,Estonia,Estonia,366,366,EST,EST,366,EST,366,EST,1991-09-06,NA,1991-09-06,NA,1991-09-06,NA,NA,NA,TRUE,TRUE,TRUE,estonia,58.595272,25.013607,Estonia,Northern Europe,Europe,EIT,Europe,EU,Eurocontrol,Other Europe,63,EN,EE,E,939,EST,EE,EST,233,Northern Europe,233,EST,إستونيا,Estland,estland,estonia,Estonia,Estonie,Эстония,爱沙尼亚,EE,EE,EST,233,FALSE
Latvia,Latvia,Latvia,Latvia,367,367,LAT,LAT,367,LAT,367,LAT,1918-11-18,1940-06-16,1920-02-01,1940-06-17,1918-11-11,1940-06-01,NA,NA,TRUE,TRUE,TRUE,latvia,56.879635,24.603189,Latvia,Northern Europe,Europe,EIT,Europe,EU,Eurocontrol,Other Europe,119,LG,EV,E,941,LAT,LV,LVA,428,Northern Europe,428,LVA,لاتفيا,Lettland,lettland,latvia,Letonia,Lettonie,Латвия,拉脱维亚,LV,LV,LVA,428,FALSE
Latvia,Latvia,Latvia,Latvia,367,367,LAT,LAT,367,LAT,367,LAT,1991-09-06,NA,1991-09-06,NA,1991-09-06,NA,NA,NA,TRUE,TRUE,TRUE,latvia,56.879635,24.603189,Latvia,Northern Europe,Europe,EIT,Europe,EU,Eurocontrol,Other Europe,119,LG,EV,E,941,LAT,LV,LVA,428,Northern Europe,428,LVA,لاتفيا,Lettland,lettland,latvia,Letonia,Lettonie,Латвия,拉脱维亚,LV,LV,LVA,428,FALSE
Lithuania,Lithuania,Lithuania,Lithuania,368,368,LIT,LIT,368,LIT,368,LIT,1918-02-16,1940-06-15,1918-11-11,1940-08-03,1918-02-16,1940-06-01,NA,NA,TRUE,TRUE,TRUE,lithuania,55.169438,23.881275,Lithuania,Northern Europe,Europe,EIT,Europe,EU,Eurocontrol,Other Europe,126,LH,EY,E,946,LTU,LT,LTU,440,Northern Europe,440,LTU,ليتوانيا,Litauen,litauen,lithuania,Lituania,Lituanie,Литва,立陶宛,LT,LT,LTU,440,FALSE
Lithuania,Lithuania,Lithuania,Lithuania,368,368,LIT,LIT,368,LIT,368,LIT,1991-09-06,NA,1991-09-06,NA,1991-09-06,NA,NA,NA,TRUE,TRUE,TRUE,lithuania,55.169438,23.881275,Lithuania,Northern Europe,Europe,EIT,Europe,EU,Eurocontrol,Other Europe,126,LH,EY,E,946,LTU,LT,LTU,440,Northern Europe,440,LTU,ليتوانيا,Litauen,litauen,lithuania,Lituania,Lituanie,Литва,立陶宛,LT,LT,LTU,440,FALSE
Ukraine,Ukraine,Ukraine,Ukraine,369,369,UKR,UKR,369,UKR,369,UKR,1991-12-26,NA,1991-12-01,NA,1991-12-01,NA,NA,NA,TRUE,TRUE,TRUE,ukrain,48.379433,31.16558,Ukraine,Eastern Europe,Europe,EIT,Europe,NA,Eurocontrol,ESRA East,230,UP,UK,U,926,UKR,UA,UKR,804,Eastern Europe,804,UKR,أوكرانيا,Ukraine,ukrain,ukrain,Ucrania,Ukraine,Украина,乌克兰,UA,UA,UKR,804,FALSE
Belarus,Belarus (Byelorussia),Belarus,Belarus (Byelorussia),370,370,BLR,BLR,370,BLR,370,BLR,1991-12-26,NA,1991-08-25,NA,1991-08-25,NA,NA,NA,TRUE,TRUE,TRUE,belarus|byelo,53.709807,27.953389,Belarus,Eastern Europe,Europe,EIT,Europe,NA,Asia,Other Europe,57,BO,UM,U,913,BLR,BY,BLR,112,Eastern Europe,112,BLR,بيلاروس*,Weißrussland,wei(ss|ß)russland|belarus|byelo,belarus|byelo,Belarús,Bélarus,Беларусь,白俄罗斯,BY,BY,BLR,112,FALSE
Armenia,Armenia,Armenia,Armenia,371,371,ARM,ARM,371,ARM,371,ARM,1991-12-26,NA,1991-09-23,NA,1991-12-21,NA,NA,NA,TRUE,TRUE,TRUE,armenia,40.069099,45.038189,Armenia,Western Asia,Asia,EIT,Asia,NA,Eurocontrol,Other Europe,1,AM,UD,U,911,ARM,AM,ARM,51,Western Asia,51,ARM,أرمينيا,Armenien,armenien,armenia,Armenia,Arménie,Армения,亚美尼亚,AM,AM,ARM,51,FALSE
Georgia,Georgia,Georgia,Georgia,372,372,GRG,GRG,372,GRG,372,GRG,1991-12-26,NA,1991-04-09,NA,1991-09-06,NA,NA,NA,TRUE,TRUE,TRUE,^(?!.*south).*georgia,42.315407,43.356892,Georgia,Western Asia,Asia,EIT,Asia,NA,Eurocontrol,Other Europe,73,GG,UG,U,915,GEO,GE,GEO,268,Western Asia,268,GEO,جورجيا,Georgien,^(?!.*süd).*georgien,^(?!.*south).*georgia,Georgia,Géorgie,Грузия,格鲁吉亚,GE,GE,GEO,268,FALSE
Azerbaijan,Azerbaijan,Azerbaijan,Azerbaijan,373,373,AZE,AZE,373,AZE,373,AZE,1991-12-26,NA,1991-08-30,NA,1991-12-21,NA,NA,NA,TRUE,TRUE,TRUE,azerbaijan,40.143105,47.576927,Azerbaijan,Western Asia,Asia,EIT,Asia,NA,Asia,Other Europe,52,AJ,UB,U,912,AZE,AZ,AZE,31,Western Asia,31,AZE,أذربيجان,Aserbaidschan,aserbaidsch,azerbaijan,Azerbaiyán,Azerbaïdjan,Азербайджан,阿塞拜疆,AZ,AZ,AZE,31,FALSE
Finland,Finland,Finland,Finland,375,375,FIN,FIN,375,FIN,375,FIN,1917-12-06,NA,1917-12-06,NA,1917-12-06,NA,NA,NA,TRUE,TRUE,TRUE,finland,61.92411,25.748151,Finland,Northern Europe,Europe,OECD1990,Europe,EU,Eurocontrol,ESRA North-West,67,FI,EF,E,172,FIN,FI,FIN,246,Northern Europe,246,FIN,فنلندا,Finnland,finnland,finland,Finlandia,Finlande,Финляндия,芬兰,FI,FI,FIN,246,FALSE
Sweden,Sweden,Sweden,Sweden,380,380,SWD,SWD,380,SWD,380,SWD,1816-01-01,NA,1800-01-01,NA,1816-01-01,NA,NA,NA,TRUE,TRUE,TRUE,sweden,60.128161,18.643501,Sweden,Northern Europe,Europe,OECD1990,Europe,EU,Eurocontrol,ESRA North-West,210,SW,ES,E,144,SWE,SE,SWE,752,Northern Europe,752,SWE,السويد,Schweden,schweden,sweden,Suecia,Suède,Швеция,瑞典,SE,SE,SWE,752,FALSE
Norway,Norway,Norway,Norway,385,385,NOR,NOR,385,NOR,385,NOR,1905-06-07,1940-04-30,1814-05-17,NA,1905-08-26,NA,NA,NA,TRUE,TRUE,TRUE,norway,60.472024,8.468946,Norway,Northern Europe,Europe,MAF,Europe,NA,Eurocontrol,ESRA North-West,162,NO,EN,E,142,NOR,NO,NOR,578,Northern Europe,578,NOR,النرويج,Norwegen,norwegen,norway,Noruega,Norvège,Норвегия,挪威,NO,NO,NOR,578,FALSE
Norway,Norway,Norway,Norway,385,385,NOR,NOR,385,NOR,385,NOR,1945-05-07,NA,1814-05-17,NA,1905-08-26,NA,NA,NA,TRUE,TRUE,TRUE,norway,60.472024,8.468946,Norway,Northern Europe,Europe,MAF,Europe,NA,Eurocontrol,ESRA North-West,162,NO,EN,E,142,NOR,NO,NOR,578,Northern Europe,578,NOR,النرويج,Norwegen,norwegen,norway,Noruega,Norvège,Норвегия,挪威,NO,NO,NOR,578,FALSE
Denmark,Denmark,Denmark,Denmark,390,390,DEN,DEN,390,DEN,390,DEN,1816-01-01,1940-04-09,1800-01-01,NA,1816-01-01,NA,NA,NA,TRUE,TRUE,TRUE,denmark,56.26392,9.501785,Denmark,Northern Europe,Europe,OECD1990,Europe,EU,Eurocontrol,ESRA North-West,54,DA,EK,E,128,DEN,DK,DNK,208,Northern Europe,208,DNK,الدانمرك,Dänemark,d(a|ae|ä)nemark,denmark,Dinamarca,Danemark,Дания,丹麦,DK,DK,DNK,208,FALSE
Denmark,Denmark,Denmark,Denmark,390,390,DEN,DEN,390,DEN,390,DEN,1945-05-07,NA,1800-01-01,NA,1816-01-01,NA,NA,NA,TRUE,TRUE,TRUE,denmark,56.26392,9.501785,Denmark,Northern Europe,Europe,OECD1990,Europe,EU,Eurocontrol,ESRA North-West,54,DA,EK,E,128,DEN,DK,DNK,208,Northern Europe,208,DNK,الدانمرك,Dänemark,d(a|ae|ä)nemark,denmark,Dinamarca,Danemark,Дания,丹麦,DK,DK,DNK,208,FALSE
Iceland,Iceland,NA,Iceland,395,395,ICE,ICE,395,ICE,395,NA,1944-06-17,NA,NA,NA,1944-06-17,NA,NA,NA,TRUE,FALSE,TRUE,iceland,64.963051,-19.020835,Iceland,Northern Europe,Europe,OECD1990,Europe,NA,Northern America,Other Europe,99,IC,BI,B,176,ISL,IS,ISL,352,Northern Europe,352,ISL,آيسلندا,Island,^island,iceland,Islandia,Islande,Исландия,冰岛,IS,IS,ISL,352,FALSE
Cape Verde,Cape Verde,Cape Verde,Cape Verde,402,402,CAP,CAP,402,CAP,402,CAP,1975-07-05,NA,1975-07-05,NA,1975-07-05,NA,NA,NA,TRUE,TRUE,TRUE,verde,15.120142,-23.6051721,Cabo Verde,Western Africa,Africa,MAF,Africa,NA,Africa,Southern Africa,35,CV,GV,G,624,CPV,CV,CPV,132,Western Africa,132,CPV,الرأس الأخضر,Cabo Verde,verde,verde,Cabo Verde,Cabo Verde (République de),Кабо-Верде,佛得角,CV,CV,CPV,132,FALSE
Sao Tome and Principe,Sao Tome and Principe,NA,S?o Tom? and Principe,403,403,STP,STP,403,STP,403,NA,1975-07-12,NA,NA,NA,1975-07-12,NA,NA,NA,TRUE,FALSE,TRUE,\bs(a|ã)o.?tom(e|é),0.18636,6.613081,Sao Tome and Principe,Middle Africa,Africa,MAF,Africa,NA,Africa,Southern Africa,193,TP,FP,F,716,STP,ST,STP,678,Middle Africa,678,STP,سان تومي وبرينسيبي,Sao Tome und Principe,\bs(a|ã)o.?tom(e|é),\bs(a|ã)o.?tom(e|é),Santo Tomé y Príncipe,Sao Tomé-et-Principe,Сан-Томе и Принсипи,圣多美和普林西比,ST,ST,STP,NA,TRUE
Guinea-Bissau,Guinea-Bissau,Guinea-Bissau,Guinea-Bissau,404,404,GNB,GNB,404,GNB,404,GNB,1974-09-10,NA,1974-09-10,NA,1974-09-10,NA,NA,NA,TRUE,TRUE,TRUE,bissau|^(?=.*portu).*guinea|GUINEA-BISS,11.803749,-15.180413,Guinea Bissau,Western Africa,Africa,MAF,Africa,NA,Africa,Southern Africa,175,PU,GG,G,654,GBS,GW,GNB,624,Western Africa,624,GNB,غينيا-بيساو,Guinea-Bissau,bissau|^(?=.*portu).*guinea,bissau|^(?=.*portu).*guinea,Guinea Bissau,Guinée Bissau,Гвинея-Бисау,几内亚比绍,GW,GW,GNB,624,FALSE
Equatorial Guinea,Equatorial Guinea,Equatorial Guinea,Equatorial Guinea,411,411,EQG,EQG,411,EQG,411,EQG,1968-10-12,NA,1968-08-12,NA,1968-10-12,NA,NA,NA,TRUE,TRUE,TRUE,guine.*eq|eq.*guine|^(?=.*span).*guinea|EQUATORIAL G,1.650801,10.267895,Equatorial Guinea,Middle Africa,Africa,MAF,Africa,NA,Africa,Southern Africa,61,EK,FG,F,642,GEQ,GQ,GNQ,226,Middle Africa,226,GNQ,غينيا الإستوائية,Äquatorialguinea,(a|ä)quatorialguinea|^(?=.*span).*guinea,guine.*eq|eq.*guine|^(?=.*span).*guinea,Guinea Ecuatorial,Guinée équatoriale,Экваториальная Гвинея,赤道几内亚,GQ,GQ,GNQ,226,FALSE
Gambia,Gambia,Gambia,Gambia,420,420,GAM,GAM,420,GAM,420,GAM,1965-02-18,NA,1965-02-18,NA,1965-02-18,NA,NA,NA,TRUE,TRUE,TRUE,gambia,13.443182,-15.310139,Gambia (Islamic Republic of the),Western Africa,Africa,MAF,Africa,NA,Africa,Southern Africa,75,GA,GB,G,648,GAM,GM,GMB,270,Western Africa,270,GMB,غامبيا,Gambia,gambia,gambia,Gambia,Gambie (République islamique de),Гамбия,冈比亚,GM,GM,GMB,270,FALSE
Mali,Mali,Mali,Mali,432,432,MLI,MLI,432,MLI,432,MLI,1960-06-20,NA,1960-09-22,NA,1960-09-22,NA,NA,NA,TRUE,TRUE,TRUE,\bmali\b,17.570692,-3.996166,Mali,Western Africa,Africa,MAF,Africa,NA,Africa,Southern Africa,133,ML,GA,G,678,MLI,ML,MLI,466,Western Africa,466,MLI,مالي,Mali,\bmali\b,\bmali\b,Malí,Mali,Мали,马里,ML,ML,MLI,466,FALSE
Senegal,Senegal,Senegal,Senegal,433,433,SEN,SEN,433,SEN,433,SEN,1960-08-20,NA,1960-04-04,NA,1960-04-04,NA,NA,NA,TRUE,TRUE,TRUE,senegal,14.497401,-14.452362,Senegal,Western Africa,Africa,MAF,Africa,NA,NA,NA,195,SG,NA,NA,722,SEN,SN,SEN,686,Western Africa,686,SEN,السنغال,Senegal,senegal,senegal,Senegal,Sénégal,Сенегал,塞内加尔,SN,SN,SEN,686,FALSE
Benin,Benin,Benin,Benin,434,434,BEN,BEN,434,BEN,434,BEN,1960-08-01,NA,1960-08-01,NA,1960-08-01,NA,NA,NA,TRUE,TRUE,TRUE,benin|dahome,9.30769,2.315834,Benin,Western Africa,Africa,MAF,Africa,NA,Africa,Southern Africa,53,BN,DB,D,638,BEN,BJ,BEN,204,Western Africa,204,BEN,بنن,Benin,benin|dahome,benin|dahome,Benin,Bénin,Бенин,贝宁,BJ,BJ,BEN,204,FALSE
Mauritania,Mauritania,Mauritania,Mauritania,435,435,MAA,MAA,435,MAA,435,MAA,1960-11-28,NA,1960-11-28,NA,1960-11-28,NA,NA,NA,TRUE,TRUE,TRUE,mauritania,21.00789,-10.940835,Mauritania,Western Africa,Africa,MAF,Africa,NA,Africa,Southern Africa,136,MR,GQ,G,682,MTN,MR,MRT,478,Western Africa,478,MRT,موريتانيا,Mauretanien,mauretanien,mauritania,Mauritania,Mauritanie,Мавритания,毛里塔尼亚,MR,MR,MRT,478,FALSE
Niger,Niger,Niger,Niger,436,436,NIR,NIR,436,NIR,436,NIR,1960-10-03,NA,1960-08-03,NA,1960-08-03,NA,NA,NA,TRUE,TRUE,TRUE,\bniger(?!ia),17.607789,8.081666,Niger,Western Africa,Africa,MAF,Africa,NA,Africa,Southern Africa,158,NG,DR,D,692,NIG,NE,NER,562,Western Africa,562,NER,النيجر,Niger,\bniger(?!ia),\bniger(?!ia),Niger,Niger,Нигер,尼日尔,NE,NE,NER,562,FALSE
Ivory Coast,Cote D'Ivoire,Ivory Coast,Cote D?Ivoire,437,437,CDI,CDI,437,CDI,437,IVO,1960-08-07,NA,1960-08-07,NA,1960-08-07,NA,NA,NA,TRUE,TRUE,TRUE,ivoire|ivory,7.539989,-5.54708,Côte D'Ivoire,Western Africa,Africa,MAF,Africa,NA,Africa,Southern Africa,107,IV,DI,D,662,CIV,CI,CIV,384,Western Africa,384,CIV,كوت ديفوار,Elfenbeinküste,elfenbein|ivoire|ivory,ivoire|ivory,Côte d'Ivoire,Côte D'Ivoire,Кот-д'Ивуар,科特迪瓦,CI,CI,CIV,384,FALSE
Guinea,Guinea,Guinea,Guinea,438,438,GUI,GUI,438,GUI,438,GUI,1958-10-02,NA,1958-10-02,NA,1958-10-02,NA,NA,NA,TRUE,TRUE,TRUE,^(?!.*eq)(?!.*span)(?!.*bissau)(?!.*portu)(?!.*new)(?!.*papua n).*guinea(?!-biss),9.945587,-9.696645,Guinea,Western Africa,Africa,MAF,Africa,NA,Africa,Southern Africa,90,GV,GU,G,656,GUI,GN,GIN,324,Western Africa,324,GIN,غينيا,Guinea,^(?!.*Äquatorial)(?!.*span)(?!.*bissau)(?!.*portu)(?!.*neu).*guinea,^(?!.*eq)(?!.*span)(?!.*bissau)(?!.*portu)(?!.*new).*guinea,Guinea,Guinée,Гвинея,几内亚,GN,GN,GIN,324,FALSE
Burkina Faso,Burkina Faso (Upper Volta),Burkina Faso,Burkina Faso (Upper Volta),439,439,BFO,BFO,439,BFO,439,BFO,1960-08-05,NA,1960-08-05,NA,1960-08-05,NA,NA,NA,TRUE,TRUE,TRUE,burkina|\bfaso|upper.?volta,12.238333,-1.561593,Burkina Faso,Western Africa,Africa,MAF,Africa,NA,Africa,Southern Africa,233,UV,DF,D,748,BUR,BF,BFA,854,Western Africa,854,BFA,بوركينا فاسو,Burkina Faso,burkina|\bfaso|upper.?volta,burkina|\bfaso|upper.?volta,Burkina Faso,Burkina Faso,Буркина-Фасо,布基纳法索,BF,BF,BFA,854,FALSE
Liberia,Liberia,Liberia,Liberia,450,450,LBR,LBR,450,LBR,450,LBR,1920-06-30,NA,1847-07-26,NA,1847-07-26,NA,NA,NA,TRUE,TRUE,TRUE,liberia,6.428055,-9.429499,Liberia,Western Africa,Africa,MAF,Africa,NA,Africa,Southern Africa,123,LI,GL,G,668,LBR,LR,LBR,430,Western Africa,430,LBR,ليبريا,Liberia,liberia,liberia,Liberia,Libéria,Либерия,利比里亚,LR,LR,LBR,430,FALSE
Sierra Leone,Sierra Leone,Sierra Leone,Sierra Leone,451,451,SIE,SIE,451,SIE,451,SIE,1961-04-27,NA,1961-04-27,NA,1961-04-27,NA,NA,NA,TRUE,TRUE,TRUE,sierra,8.460555,-11.779889,Sierra Leone,Western Africa,Africa,MAF,Africa,NA,Africa,Southern Africa,197,SL,GF,G,724,SLE,SL,SLE,694,Western Africa,694,SLE,سيراليون,Sierra Leone,sierra,sierra,Sierra Leona,Sierra Leone,Сьерра-Леоне,塞拉利昂,SL,SL,SLE,694,FALSE
Ghana,Ghana,Ghana,Ghana,452,452,GHA,GHA,452,GHA,452,GHA,1957-03-06,NA,1960-07-01,NA,1957-03-06,NA,NA,NA,TRUE,TRUE,TRUE,ghana|gold.?coast,7.946527,-1.023194,Ghana,Western Africa,Africa,MAF,Africa,NA,Africa,Southern Africa,81,GH,DG,D,652,GHA,GH,GHA,288,Western Africa,288,GHA,غانا,Ghana,ghana|gold.?küste,ghana|gold.?coast,Ghana,Ghana,Гана,加纳,GH,GH,GHA,288,FALSE
Togo,Togo,Togo,Togo,461,461,TOG,TOG,461,TOG,461,TOG,1960-04-27,NA,1960-04-27,NA,1960-04-27,NA,NA,NA,TRUE,TRUE,TRUE,togo,8.619543,0.824782,Togo,Western Africa,Africa,MAF,Africa,NA,Africa,Southern Africa,217,TO,DX,D,742,TOG,TG,TGO,768,Western Africa,768,TGO,توغو,Togo,togo,togo,Togo,Togo,Того,多哥,TG,TG,TGO,768,FALSE
Cameroon,Cameroon,Cameroon,Cameroon,471,471,CAO,CAO,471,CAO,471,CAO,1960-01-01,NA,1960-01-01,NA,1960-01-01,NA,NA,NA,TRUE,TRUE,TRUE,cameroon,7.369722,12.354722,Cameroon,Middle Africa,Africa,MAF,Africa,NA,Africa,Southern Africa,32,CM,FK,F,622,CMR,CM,CMR,120,Middle Africa,120,CMR,الكاميرون,Kamerun,kamerun,cameroon,Camerún,Cameroun,Камерун,喀麦隆,CM,CM,CMR,120,FALSE
Nigeria,Nigeria,Nigeria,Nigeria,475,475,NIG,NIG,475,NIG,475,NIG,1960-10-01,NA,1960-10-01,NA,1960-10-01,NA,NA,NA,TRUE,TRUE,TRUE,nigeria,9.081999,8.675277,Nigeria,Western Africa,Africa,MAF,Africa,NA,Africa,Southern Africa,159,NI,DN,D,694,NGR,NG,NGA,566,Western Africa,566,NGA,نيجيريا,Nigeria,nigeria,nigeria,Nigeria,Nigéria,Нигерия,尼日利亚,NG,NG,NGA,566,FALSE
Gabon,Gabon,Gabon,Gabon,481,481,GAB,GAB,481,GAB,481,GAB,1960-08-17,NA,1960-08-17,NA,1960-08-17,NA,NA,NA,TRUE,TRUE,TRUE,gabon,-0.803689,11.609444,Gabon,Middle Africa,Africa,MAF,Africa,NA,Africa,Southern Africa,74,GB,FO,F,646,GAB,GA,GAB,266,Middle Africa,266,GAB,غابون,Gabun,gabun,gabon,Gabón,Gabon,Габон,加蓬,GA,GA,GAB,NA,FALSE
Central African Republic,Central African Republic,Central African Republic,Central African Republic,482,482,CEN,CEN,482,CEN,482,CEN,1960-08-13,NA,1960-08-13,NA,1960-08-13,NA,NA,NA,TRUE,TRUE,TRUE,\bcen.*\baf|^c\.?a\.?r\.?$,6.611111,20.939444,Central African Republic,Middle Africa,Africa,MAF,Africa,NA,Africa,Southern Africa,37,CT,FE,F,626,CAF,CF,CAF,140,Middle Africa,140,CAF,جمهورية أفريقيا الوسطى,Zentralafrikanische Republik,\bzentralafrikanische.republik,\bcentral.african.republic,República Centroafricana,République centrafricaine,Центральноафриканская Республика,中非共和国,CF,CF,CAF,NA,FALSE
Chad,Chad,Chad,Chad,483,483,CHA,CHA,483,CHA,483,CHA,1960-08-11,NA,1960-08-11,NA,1960-08-11,NA,NA,NA,TRUE,TRUE,TRUE,\bchad,15.454166,18.732207,Chad,Middle Africa,Africa,MAF,Africa,NA,Africa,Southern Africa,39,CD,FT,F,628,CHA,TD,TCD,148,Middle Africa,148,TCD,تشاد,Tschad,\btschad,\bchad,Chad,Tchad,Чад,乍得,TD,TD,TCD,148,FALSE
Congo,Congo,Congo Brazzaville,Congo,484,484,CON,CON,484,CON,484,CON,1960-08-15,NA,1960-08-15,NA,1960-08-15,NA,NA,NA,TRUE,TRUE,TRUE,"^(?!.*\bdem)(?!.*\bdr)(?!.*kinshasa)(?!.*zaire)(?!.*belg)(?!.*l\w{1,2}opoldville)(?!.*free).*\bcongo",-0.228021,15.827659,Congo,Middle Africa,Africa,MAF,Africa,NA,Africa,Southern Africa,46,CF,FC,F,634,CGO,CG,COG,178,Middle Africa,178,COG,الكونغو,Kongo,^(?!.*\bdem)(?!.*\bdr)(?!.*kinshasa)(?!.*zaire)(?!.*belg)(?!.*l.opoldville)(?!.*free).*\bkongo,^(?!.*\bdem)(?!.*\bd[\.]?r)(?!.*kinshasa)(?!.*zaire)(?!.*belg)(?!.*l.opoldville)(?!.*free).*\bcongo,Congo,Congo,Конго,刚果,CG,CG,COG,NA,FALSE
Democratic Republic of the Congo,"Congo, Democratic Republic of (Zaire)",Congo Kinshasa,"Congo, Democratic Republic of (Zaire)",490,490,DRC,DRC,490,DRC,490,ZAI,1960-06-30,NA,1960-06-30,NA,1960-06-30,NA,NA,NA,TRUE,TRUE,TRUE,"\bdem.*congo|congo.*\bdem|congo.*\bdr|\bdr.*congo|\bd\.?r\.?c|\bd\.?r\.?o\.?c|\br\.?d\.?c|belgian.?congo|congo.?free.?state|kinshasa|zaire|l\w{1,2}opoldville",-4.038333,21.758664,Democratic Republic of the Congo,Middle Africa,Africa,MAF,Africa,NA,Africa,Southern Africa,250,CG,FZ,F,636,COD,CD,COD,180,Middle Africa,180,ZAR,جمهورية الكونغو الديمقراطية,Demokratische Republik Kongo,\bdem.*kongo|kongo.*\bdem|kongo.*\bdr|\bdr.*kongo|belgien.?kongo|kongo.?free.?state|kinshasa|zaire|l.opoldville|drc|droc|rdc,\bdem.*congo|congo.*\bdem|congo.*\bd[\.]?r|\bd[\.]?r.*congo|belgian.?congo|congo.?free.?state|kinshasa|zaire|l.opoldville|drc|droc|rdc,República Democrática del Congo,République démocratique du Congo,Демократическая Республика Конго,刚果民主共和国,CD,CD,COD,180,FALSE
Uganda,Uganda,Uganda,Uganda,500,500,UGA,UGA,500,UGA,500,UGA,1962-10-09,NA,1962-10-09,NA,1962-10-09,NA,NA,NA,TRUE,TRUE,TRUE,uganda,1.373333,32.290275,Uganda,Eastern Africa,Africa,MAF,Africa,NA,Africa,Southern Africa,226,UG,HU,H,746,UGA,UG,UGA,800,Eastern Africa,800,UGA,أوغندا,Uganda,uganda,uganda,Uganda,Ouganda,Уганда,乌干达,UG,UG,UGA,800,FALSE
Kenya,Kenya,Kenya,Kenya,501,501,KEN,KEN,501,KEN,501,KEN,1963-12-12,NA,1963-12-12,NA,1963-12-12,NA,NA,NA,TRUE,TRUE,TRUE,kenya|british.?east.?africa|east.?africa.?prot,-0.023559,37.906193,Kenya,Eastern Africa,Africa,MAF,Africa,NA,Africa,Asia/Pacific,114,KE,HK,H,664,KEN,KE,KEN,404,Eastern Africa,404,KEN,كينيا,Kenia,kenia|britisch.?ost.?afrika|protektorat.?ostafrika,kenya|british.?east.?africa|east.?africa.?prot,Kenya,Kenya,Кения,肯尼亚,KE,KE,KEN,404,FALSE
Tanzania,Tanzania/Tanganyika,Tanzania,Tanzania/Tanganyika,510,510,TAZ,TAZ,510,TAZ,510,TAZ,1961-12-09,NA,1961-12-09,NA,1961-12-09,NA,NA,NA,TRUE,TRUE,TRUE,tanzania,-6.369028,34.888822,United Republic of Tanzania,Eastern Africa,Africa,MAF,Africa,NA,Africa,Southern Africa,215,TZ,HT,H,738,TAN,TZ,TZA,834,Eastern Africa,834,TZA,جمهورية تنزانيا المتحدة*,Tansania,tansania,tanzania,República Unida de Tanzanía,République-Unie de Tanzanie,Объединенная Республика Танзания,坦桑尼亚联合共和国,TZ,TZ,TZA,834,FALSE
Zanzibar,Zanzibar,NA,Zanzibar,511,511,ZAN,ZAN,511,ZAN,511,NA,1963-12-19,1964-04-26,NA,NA,1963-12-19,1964-04-26,NA,NA,TRUE,FALSE,TRUE,zanz,36.1012175,-115.2705475,Zanzibar,Eastern Africa,Africa,MAF,NA,NA,NA,NA,NA,NA,NA,NA,NA,NA,NA,EAZ,NA,NA,NA,NA,NA,Sansibar,sansibar,zanzibar,NA,NA,NA,NA,NA,NA,NA,NA,FALSE
Burundi,Burundi,Burundi,Burundi,516,516,BUI,BUI,516,BUI,516,BUI,1962-07-01,NA,1962-07-01,NA,1962-07-01,NA,NA,NA,TRUE,TRUE,TRUE,burundi,-3.373056,29.918886,Burundi,Eastern Africa,Africa,MAF,Africa,NA,Africa,Southern Africa,29,BY,HB,H,618,BDI,BI,BDI,108,Eastern Africa,108,BDI,بوروندي,Burundi,burundi,burundi,Burundi,Burundi,Бурунди,布隆迪,BI,BI,BDI,108,FALSE
Rwanda,Rwanda,Rwanda,Rwanda,517,517,RWA,RWA,517,RWA,517,RWA,1962-07-01,NA,1961-07-01,NA,1962-01-07,NA,NA,NA,TRUE,TRUE,TRUE,rwanda,-1.940278,29.873888,Rwanda,Eastern Africa,Africa,MAF,Africa,NA,Africa,Southern Africa,184,RW,HR,H,714,RWA,RW,RWA,646,Eastern Africa,646,RWA,رواندا,Ruanda,r(u|w)anda,rwanda,Rwanda,Rwanda,Руанда,卢旺达,RW,RW,RWA,646,FALSE
Somalia,Somalia,Somalia,Somalia,520,520,SOM,SOM,520,SOM,520,SOM,1960-07-01,NA,1960-07-01,NA,1960-07-01,NA,NA,NA,TRUE,TRUE,TRUE,somalia,5.152149,46.199616,Somalia,Eastern Africa,Africa,MAF,Africa,NA,Africa,Southern Africa,201,SO,HC,H,726,SOM,SO,SOM,706,Eastern Africa,706,SOM,الصومال,Somalia,somali,somali,Somalia,Somalie,Сомали,索马里,SO,SO,SOM,706,FALSE
Djibouti,Djibouti,Djibouti,Djibouti,522,522,DJI,DJI,522,DJI,522,DJI,1977-06-27,NA,1977-06-27,NA,1977-06-27,NA,NA,NA,TRUE,TRUE,TRUE,djibouti,11.825138,42.590275,Djibouti,Eastern Africa,Africa,MAF,Africa,NA,Africa,Southern Africa,72,DJ,HD,H,611,DJI,DJ,DJI,262,Eastern Africa,262,DJI,جيبوتي,Dschibuti,dschibuti,djibouti,Djibouti,Djibouti,Джибути,吉布提,DJ,DJ,DJI,NA,FALSE
Ethiopia,Ethiopia,Ethiopia,Ethiopia,530,530,ETH,ETH,530,ETH,530,ETH,1898-01-01,1936-05-05,1855-02-11,1993-05-23,1855-02-11,NA,NA,NA,TRUE,TRUE,TRUE,ethiopia|abyssinia,9.145,40.489673,Ethiopia,Eastern Africa,Africa,MAF,Africa,NA,Africa,Southern Africa,238,ET,HA,H,644,ETH,ET,ETH,231,Eastern Africa,231,ETH,إثيوبيا,Äthiopien,.?th(i|)opien|abyssinia,ethiopia|abyssinia,Etiopía,Éthiopie,Эфиопия,埃塞俄比亚,ET,ET,ETH,231,FALSE
Ethiopia,Ethiopia,Ethiopia,Ethiopia,530,530,ETH,ETH,530,ETH,529,ETI,1941-05-05,NA,1993-05-24,NA,1855-02-11,NA,NA,NA,TRUE,TRUE,TRUE,ethiopia|abyssinia,9.145,40.489673,Ethiopia,Eastern Africa,Africa,MAF,Africa,NA,Africa,Southern Africa,238,ET,HA,H,644,ETH,ET,ETH,231,Eastern Africa,231,ETH,إثيوبيا,Äthiopien,.?th(i|)opien|abyssinia,ethiopia|abyssinia,Etiopía,Éthiopie,Эфиопия,埃塞俄比亚,ET,ET,ETH,231,FALSE
Ethiopia,Ethiopia,Ethiopia,Ethiopia,530,530,ETH,ETH,530,ETH,530,ETH,1941-05-05,NA,1855-02-11,1993-05-23,1855-02-11,NA,NA,NA,TRUE,TRUE,TRUE,ethiopia|abyssinia,9.145,40.489673,Ethiopia,Eastern Africa,Africa,MAF,Africa,NA,Africa,Southern Africa,238,ET,HA,H,644,ETH,ET,ETH,231,Eastern Africa,231,ETH,إثيوبيا,Äthiopien,.?th(i|)opien|abyssinia,ethiopia|abyssinia,Etiopía,Éthiopie,Эфиопия,埃塞俄比亚,ET,ET,ETH,231,FALSE
Eritrea,Eritrea,Eritrea,Eritrea,531,531,ERI,ERI,531,ERI,531,ERI,1993-05-24,NA,1993-05-24,NA,1993-05-24,NA,NA,NA,TRUE,TRUE,TRUE,eritrea,15.179384,39.782334,Eritrea,Eastern Africa,Africa,MAF,Africa,NA,Africa,Southern Africa,178,ER,HH,H,643,ERI,ER,ERI,232,Eastern Africa,232,ERI,إريتريا,Eritrea,eritrea,eritrea,Eritrea,Érythrée,Эритрея,厄立特里亚,ER,ER,ERI,232,FALSE
Angola,Angola,Angola,Angola,540,540,ANG,ANG,540,ANG,540,ANG,1975-11-11,NA,1975-11-11,NA,1975-11-11,NA,NA,NA,TRUE,TRUE,TRUE,angola,-11.202692,17.873887,Angola,Middle Africa,Africa,MAF,Africa,NA,Africa,Southern-Africa,7,AO,FN,F,614,ANG,AO,AGO,24,Middle Africa,24,AGO,أنغولا,Angola,angola,angola,Angola,Angola,Ангола,安哥拉,AO,AO,AGO,24,FALSE
Mozambique,Mozambique,Mozambique,Mozambique,541,541,MZM,MZM,541,MZM,541,MZM,1975-06-25,NA,1975-06-25,NA,1975-06-25,NA,NA,NA,TRUE,TRUE,TRUE,mozambique,-18.665695,35.529562,Mozambique,Eastern Africa,Africa,MAF,Africa,NA,Africa,Southern Africa,144,MZ,FQ,F,688,MOZ,MZ,MOZ,508,Eastern Africa,508,MOZ,موزامبيق,Mosambik,mosambik,mozambique,Mozambique,Mozambique,Мозамбик,莫桑比克,MZ,MZ,MOZ,508,FALSE
Zambia,Zambia,Zambia,Zambia,551,551,ZAM,ZAM,551,ZAM,551,ZAM,1964-10-24,NA,1964-10-24,NA,1964-10-24,NA,NA,NA,TRUE,TRUE,TRUE,zambia|northern.?rhodesia,-13.133897,27.849332,Zambia,Eastern Africa,Africa,MAF,Africa,NA,Africa,Southern Africa,251,ZA,FL,F,754,ZAM,ZM,ZMB,894,Eastern Africa,894,ZMB,زامبيا,Sambia,sambia|nord.?rhodesien,zambia|northern.?rhodesia,Zambia,Zambie,Замбия,赞比亚,ZM,ZM,ZMB,894,FALSE
Zimbabwe,Zimbabwe (Rhodesia),Zimbabwe,Zimbabwe (Rhodesia),552,552,ZIM,ZIM,552,ZIM,552,ZIM,1965-11-11,NA,1970-04-18,NA,1965-11-11,NA,NA,NA,TRUE,TRUE,TRUE,zimbabwe|^(?!.*northern).*rhodesia,-19.015438,29.154857,Zimbabwe,Eastern Africa,Africa,MAF,Africa,NA,Africa,Southern Africa,181,ZI,FV,F,698,ZIM,ZW,ZWE,716,Eastern Africa,716,ZWE,زمبابوي,Simbabwe,(z|s)imbabwe|^(?!.*nord).*rhodesien,zimbabwe|^(?!.*northern).*rhodesia,Zimbabwe,Zimbabwe,Зимбабве,津巴布韦,ZW,ZW,ZWE,716,FALSE
Malawi,Malawi,Malawi,Malawi,553,553,MAW,MAW,553,MAW,553,MAW,1964-07-06,NA,1964-07-06,NA,1964-07-06,NA,NA,NA,TRUE,TRUE,TRUE,malawi|nyasa,-13.254308,34.301525,Malawi,Eastern Africa,Africa,MAF,Africa,NA,Africa,Southern Africa,130,MI,FW,F,676,MAW,MW,MWI,454,Eastern Africa,454,MWI,ملاوي,Malawi,malawi|nyasa,malawi|nyasa,Malawi,Malawi,Малави,马拉维,MW,MW,MWI,454,FALSE
South Africa,South Africa,South Africa,South Africa,560,560,SAF,SAF,560,SAF,560,SAF,1920-01-10,NA,1910-05-31,NA,1910-05-31,NA,NA,NA,TRUE,TRUE,TRUE,\bs\w*.?africa,-30.559482,22.937506,South Africa,Southern Africa,Africa,MAF,Africa,NA,Africa,Southern Africa,202,SF,FA,F,199,RSA,ZA,ZAF,710,Southern Africa,710,ZAF,جنوب أفريقيا,Südafrika,\bs(ü|u)d*.?afrika,south.africa|s\\..?africa,Sudáfrica,Afrique du Sud,Южная Африка,南非,ZA,ZA,ZAF,710,FALSE
Namibia,Namibia,Namibia,Namibia,565,565,NAM,NAM,565,NAM,565,NAM,1990-03-21,NA,1990-03-21,NA,1990-03-21,NA,NA,NA,TRUE,TRUE,TRUE,namibia,-22.95764,18.49041,Namibia,Southern Africa,Africa,MAF,Africa,NA,Africa,Southern Africa,147,WA,FY,F,728,NAM,NA,NAM,516,Southern Africa,516,NAM,ناميبيا,Namibia,namibia,namibia,Namibia,Namibie,Намибия,纳米比亚,NA,NA,NAM,516,FALSE
Lesotho,Lesotho,Lesotho,Lesotho,570,570,LES,LES,570,LES,570,LES,1966-10-04,NA,1966-10-04,NA,1966-10-04,NA,NA,NA,TRUE,TRUE,TRUE,lesotho|basuto,-29.609988,28.233608,Lesotho,Southern Africa,Africa,MAF,Africa,NA,Africa,Southern Africa,122,LT,FX,F,666,LES,LS,LSO,426,Southern Africa,426,LSO,ليسوتو,Lesotho,lesotho|basuto,lesotho|basuto,Lesotho,Lesotho,Лесото,莱索托,LS,LS,LSO,426,FALSE
Botswana,Botswana,Botswana,Botswana,571,571,BOT,BOT,571,BOT,571,BOT,1966-09-30,NA,1966-09-30,NA,1966-09-30,NA,NA,NA,TRUE,TRUE,TRUE,botswana|bechuana,-22.328474,24.684866,Botswana,Southern Africa,Africa,MAF,Africa,NA,Africa,Southern Africa,20,BC,FB,F,616,BOT,BW,BWA,72,Southern Africa,72,BWA,بوتسوانا,Botswana,bots(w|u)ana|bechuana,botswana|bechuana,Botswana,Botswana,Ботсвана,博茨瓦纳,BW,BW,BWA,72,FALSE
Swaziland,Swaziland,Swaziland,Swaziland,572,572,SWA,SWA,572,SWA,572,SWA,1968-09-06,NA,1968-09-06,NA,1968-09-06,NA,NA,NA,TRUE,TRUE,TRUE,swaziland|eswatini,-26.522503,31.465866,Swaziland,Southern Africa,Africa,MAF,Africa,NA,Africa,Southern Africa,209,WZ,FD,F,734,SWZ,SZ,SWZ,748,Southern Africa,748,SWZ,سوازيلند,Swasiland,swasiland,swaziland,Swazilandia,Swaziland,Свазиленд,斯威士兰,SZ,SZ,SWZ,NA,FALSE
Madagascar,Madagascar (Malagasy),Madagascar,Madagascar (Malagasy),580,580,MAG,MAG,580,MAG,580,MAG,1960-06-26,NA,1960-06-26,NA,1816-01-01,1896-08-05,NA,NA,TRUE,TRUE,TRUE,madagascar|malagasy,-18.766947,46.869107,Madagascar,Eastern Africa,Africa,MAF,Africa,NA,Africa,Southern Africa,129,MA,FM,F,674,MAD,MG,MDG,450,Eastern Africa,450,MDG,مدغشقر,Madagaskar,madagaskar|malagasy,madagascar|malagasy,Madagascar,Madagascar,Мадагаскар,马达加斯加,MG,MG,MDG,450,FALSE
Madagascar,Madagascar (Malagasy),Madagascar,Madagascar,580,580,MAG,MAG,580,MAG,580,MAG,1960-06-26,NA,1960-06-26,NA,1960-06-26,NA,NA,NA,TRUE,TRUE,TRUE,madagascar|malagasy,-18.766947,46.869107,Madagascar,Eastern Africa,Africa,MAF,Africa,NA,Africa,Southern Africa,129,MA,FM,F,674,MAD,MG,MDG,450,Eastern Africa,450,MDG,مدغشقر,Madagaskar,madagaskar|malagasy,madagascar|malagasy,Madagascar,Madagascar,Мадагаскар,马达加斯加,MG,MG,MDG,450,FALSE
Comoros,Comoros,Comoros,Comoros,581,581,COM,COM,581,COM,581,COM,1975-12-31,NA,1975-07-06,NA,1975-07-06,NA,NA,NA,TRUE,TRUE,TRUE,comoro,-11.6455,43.3333,Comoros,Eastern Africa,Africa,MAF,Africa,NA,Africa,Southern Africa,45,CN,FM,F,632,COM,KM,COM,174,Eastern Africa,174,COM,جزر القمر,Komoren,komoren,comoro,Comoras,Comores,Коморские Острова,科摩罗,KM,KM,COM,NA,FALSE
Mauritius,Mauritius,Mauritius,Mauritius,590,590,MAS,MAS,590,MAS,590,MAS,1968-03-12,NA,1968-03-12,NA,1968-03-12,NA,NA,NA,TRUE,TRUE,TRUE,mauritius,-20.348404,57.552152,Mauritius,Eastern Africa,Africa,MAF,Africa,NA,Africa,Southern Africa,137,MP,FI,F,684,MRI,MU,MUS,480,Eastern Africa,480,MUS,موريشيوس,Mauritius,mauritius,mauritius,Mauricio,Maurice,Маврикий,毛里求斯,MU,MU,MUS,480,FALSE
Seychelles,Seychelles,NA,Seychelles,591,591,SEY,SEY,591,SEY,591,NA,1976-06-29,NA,NA,NA,1976-06-29,NA,NA,NA,TRUE,FALSE,TRUE,seychell,-4.679574,55.491977,Seychelles,Eastern Africa,Africa,MAF,Africa,NA,Africa,Southern Africa,196,SE,FS,F,718,SEY,SC,SYC,690,Eastern Africa,690,SYC,سيشيل,Seychellen,seychell,seychell,Seychelles,Seychelles,Сейшельские Острова,塞舌尔,SC,SC,SYC,690,TRUE
Morocco,Morocco,Morocco,Morocco,600,600,MOR,MOR,600,MOR,600,MOR,1847-01-01,1912-03-30,1800-01-01,1912-03-20,1816-01-01,1904-01-01,NA,NA,TRUE,TRUE,TRUE,morocco|\bmaroc,31.791702,-7.09262,Morocco,Northern Africa,Africa,MAF,Africa,NA,Africa,North-Africa,143,MO,GM,G,686,MAR,MA,MAR,504,Northern Africa,504,MAR,المغرب,Marokko,marokko|\bmaroc,morocco|\bmaroc,Marruecos,Maroc,Марокко,摩洛哥,MA,MA,MAR,504,FALSE
Morocco,Morocco,Morocco,Morocco,600,600,MOR,MOR,600,MOR,600,MOR,1956-03-02,NA,1956-03-02,NA,1956-03-02,NA,NA,NA,TRUE,TRUE,TRUE,morocco|\bmaroc,31.791702,-7.09262,Morocco,Northern Africa,Africa,MAF,Africa,NA,Africa,North-Africa,143,MO,GM,G,686,MAR,MA,MAR,504,Northern Africa,504,MAR,المغرب,Marokko,marokko|\bmaroc,morocco|\bmaroc,Marruecos,Maroc,Марокко,摩洛哥,MA,MA,MAR,504,FALSE
Algeria,Algeria,Algeria,Algeria,615,615,ALG,ALG,615,ALG,615,ALG,1962-07-05,NA,1962-07-05,NA,1962-07-05,NA,NA,NA,TRUE,TRUE,TRUE,algeria,28.033886,1.659626,Algeria,Northern Africa,Africa,MAF,Africa,NA,Africa,North-Africa,4,AG,DA,D,612,ALG,DZ,DZA,12,Northern Africa,12,DZA,الجزائر,Algerien,algerien,algeria,Argelia,Algérie,Алжир,阿尔及利亚,DZ,DZ,DZA,12,FALSE
Tunisia,Tunisia,Tunisia,Tunisia,616,616,TUN,TUN,616,TUN,616,TUN,1956-03-20,NA,1959-06-01,NA,1956-01-01,NA,NA,NA,TRUE,TRUE,TRUE,tunisia,33.886917,9.537499,Tunisia,Northern Africa,Africa,MAF,Africa,NA,Africa,North-Africa,222,TS,DT,D,744,TUN,TN,TUN,788,Northern Africa,788,TUN,تونس,Tunesien,tunesien,tunisia,Túnez,Tunisie,Тунис,突尼斯,TN,TN,TUN,788,FALSE
Libya,Libya,Libya,Libya,620,620,LIB,LIB,620,LIB,620,LIB,1951-12-24,NA,1951-12-24,NA,1951-12-24,NA,NA,NA,TRUE,TRUE,TRUE,libya,26.3351,17.228331,Libya,Northern Africa,Africa,MAF,Africa,NA,Africa,North-Africa,124,LY,HL,H,672,LBA,LY,LBY,434,Northern Africa,434,LBY,ليبيا,Libyen,libyen,libya,Libia,Libye,Ливия,利比亚,LY,LY,LBY,434,FALSE
Sudan,Sudan,Sudan,Sudan,625,625,SUD,SUD,625,SUD,625,SUD,1956-01-01,NA,1956-01-01,2011-07-08,1956-01-01,NA,NA,NA,TRUE,TRUE,TRUE,^(?!.*\bs(?!u)).*sudan,12.862807,30.217636,Sudan,Northern Africa,Africa,MAF,Africa,NA,Africa,Southern Africa,276,SU,HS,H,732,SUD,SD,SDN,736,Northern Africa,729,SDN,السودان,Sudan,^(?!süd).?sudan,^(?!.*\bs(?!u)).*sudan,Sudán,Soudan,Судан,苏丹,SD,SD,SDN,736,FALSE
Sudan,Sudan,(North) Sudan,Sudan,625,625,SUD,SUD,625,SUD,626,SDN,1956-01-01,NA,2011-07-09,NA,1956-01-01,NA,NA,NA,TRUE,TRUE,TRUE,^(?!.*\bs(?!u)).*sudan,12.862807,30.217636,Sudan,Northern Africa,Africa,MAF,Africa,NA,Africa,Southern Africa,276,SU,HS,H,732,SUD,SD,SDN,736,Northern Africa,729,SDN,السودان,Sudan,^(?!süd).?sudan,^(?!.*\bs(?!u)).*sudan,Sudán,Soudan,Судан,苏丹,SD,SD,SDN,736,FALSE
South Sudan,South Sudan,South Sudan,South Sudan,626,626,SSD,SSD,626,SSD,525,SSU,2011-07-09,NA,2011-07-09,2015-12-14,2011-07-09,NA,NA,NA,TRUE,TRUE,TRUE,"\bs\w*.?sudan|sudan, south",6.8769919,31.3069788,South Sudan,Northern Africa,Africa,MAF,Africa,NA,Africa,Southern Africa,277,OD,HS,H,733,NA,SS,SSD,728,Northern Africa,728,SSD,جمهورية جنوب السودان,Südsudan,^s(ü|u)d.?sudan,\bs\w*.?sudan,Sudán del Sur,Soudan du Sud,Южный Судан,南苏丹,SS,SS,SSD,NA,FALSE
South Sudan,South Sudan,South Sudan,South Sudan,626,626,SSD,SSD,626,SSD,525,SSU,2011-07-09,NA,2013-12-15,NA,2011-07-09,NA,NA,NA,TRUE,TRUE,TRUE,"\bs\w*.?sudan|sudan, south",6.8769919,31.3069788,South Sudan,Northern Africa,Africa,MAF,Africa,NA,Africa,Southern Africa,277,OD,HS,H,733,NA,SS,SSD,728,Northern Africa,728,SSD,جمهورية جنوب السودان,Südsudan,^s(ü|u)d.?sudan,\bs\w*.?sudan,Sudán del Sur,Soudan du Sud,Южный Судан,南苏丹,SS,SS,SSD,NA,FALSE
Iran,Iran (Persia),Iran,Iran (Persia),630,630,IRN,IRN,630,IRN,630,IRN,1855-01-01,NA,1800-01-01,NA,1816-01-01,NA,NA,NA,TRUE,TRUE,TRUE,\biran|persia,32.427908,53.688046,Iran (Islamic Republic of),Southern Asia,Asia,MAF,Asia,NA,Middle East,Middle-East,102,IR,OI,O,429,IRI,IR,IRN,364,Southern Asia,364,IRN,إيران (جمهورية - إسلامية),Iran,\biran|persia,\biran|persia,Irán (República Islámica del),Iran (République islamique d'),Иран (Исламская Республика),伊朗伊斯兰共和国,IR,IR,IRN,364,FALSE
Turkey,Turkey (Ottoman Empire),Turkey,Turkey (Ottoman Empire),640,640,TUR,TUR,640,TUR,640,TUR,1816-01-01,NA,1800-01-01,NA,1816-01-01,NA,NA,NA,TRUE,TRUE,TRUE,turkey|ottoman|türkiye,38.963745,35.243322,Turkey,Western Asia,Asia,OECD1990,Asia,NA,Eurocontrol,ESRA Mediterranean,223,TU,LT,L,186,TUR,TR,TUR,792,Western Asia,792,TUR,تركيا,Türkei,türkei,turkey,Turquía,Turquie,Турция,土耳其,TR,TR,TUR,792,FALSE
Iraq,Iraq,Iraq,Iraq,645,645,IRQ,IRQ,645,IRQ,645,IRQ,1932-10-03,NA,1924-07-10,NA,1932-10-03,NA,NA,NA,TRUE,TRUE,TRUE,\biraq|mesopotamia,33.223191,43.679291,Iraq,Western Asia,Asia,MAF,Asia,NA,Middle East,Middle-East,103,IZ,OR,O,433,IRQ,IQ,IRQ,368,Western Asia,368,IRQ,العراق,Irak,\birak|mesopotamia,\biraq|mesopotamia,Iraq,Iraq,Ирак,伊拉克,IQ,IQ,IRQ,368,FALSE
Egypt,Egypt,Egypt,Egypt,651,651,EGY,EGY,651,EGY,651,EGY,1937-05-26,NA,1922-03-01,NA,1922-02-28,NA,NA,NA,TRUE,TRUE,TRUE,egypt,26.820553,30.802498,Egypt,Northern Africa,Africa,MAF,Africa,NA,Middle East,North-Africa,59,EG,HE,H,469,EGY,EG,EGY,818,Northern Africa,818,EGY,مصر,Ägypten,(ä|a)gypten,egypt,Egipto,Égypte,Египет,埃及,EG,EG,EGY,818,FALSE
Syria,Syria,Syria,Syria,652,652,SYR,SYR,652,SYR,652,SYR,1946-04-17,1958-02-01,1944-07-01,NA,1946-01-01,NA,NA,NA,TRUE,TRUE,TRUE,syria,34.802075,38.996815,Syrian Arab Republic,Western Asia,Asia,MAF,Asia,NA,Middle East,Middle-East,212,SY,OS,O,463,SYR,SY,SYR,760,Western Asia,760,SYR,الجمهورية العربية السورية,Syrische Arabische Republik,syrien|syrisch,syria,República Árabe Siria,République arabe syrienne,Сирийская Арабская Республика,阿拉伯叙利亚共和国,SY,SY,SYR,760,FALSE
Syria,Syria,Syria,Syria,652,652,SYR,SYR,652,SYR,652,SYR,1961-09-29,NA,1944-07-01,NA,1946-01-01,NA,NA,NA,TRUE,TRUE,TRUE,syria,34.802075,38.996815,Syrian Arab Republic,Western Asia,Asia,MAF,Asia,NA,Middle East,Middle-East,212,SY,OS,O,463,SYR,SY,SYR,760,Western Asia,760,SYR,الجمهورية العربية السورية,Syrische Arabische Republik,syrien|syrisch,syria,República Árabe Siria,République arabe syrienne,Сирийская Арабская Республика,阿拉伯叙利亚共和国,SY,SY,SYR,760,FALSE
Lebanon,Lebanon,Lebanon,Lebanon,660,660,LEB,LEB,660,LEB,660,LEB,1946-03-10,NA,1943-11-22,NA,1944-11-22,NA,NA,NA,TRUE,TRUE,TRUE,lebanon,33.854721,35.862285,Lebanon,Western Asia,Asia,MAF,Asia,NA,Middle East,Middle-East,121,LE,OL,O,446,LIB,LB,LBN,422,Western Asia,422,LBN,لبنان,Libanon,libanon,lebanon,Líbano,Liban,Ливан,黎巴嫩,LB,LB,LBN,422,FALSE
Jordan,Jordan,Jordan,Jordan,663,663,JOR,JOR,663,JOR,663,JOR,1946-03-22,NA,1946-05-25,NA,1946-05-25,NA,NA,NA,TRUE,TRUE,TRUE,jordan,30.585164,36.238414,Jordan,Western Asia,Asia,MAF,Asia,NA,Middle East,Middle-East,112,JO,OJ,O,439,JOR,JO,JOR,400,Western Asia,400,JOR,الأردن,Jordanien,jordan,jordan,Jordania,Jordanie,Иордания,约旦,JO,JO,JOR,400,FALSE
Israel,Israel,Israel,Israel,666,666,ISR,ISR,666,ISR,666,ISR,1948-05-14,NA,1948-05-14,NA,1948-05-14,NA,NA,NA,TRUE,TRUE,TRUE,israel(?!.+occupied),31.046051,34.851612,Israel,Western Asia,Asia,MAF,Asia,NA,Middle East,Middle-East,105,IS,LL,L,436,ISR,IL,ISR,376,Western Asia,376,ISR,إسرائيل,Israel,israel,israel,Israel,Israël,Израиль,以色列,IL,IL,ISR,376,FALSE
Saudi Arabia,Saudi Arabia,Saudi Arabia,Saudi Arabia,670,670,SAU,SAU,670,SAU,670,SAU,1927-05-20,NA,1926-01-16,NA,1932-09-23,NA,NA,NA,TRUE,TRUE,TRUE,\bsa\w*.?arabia,23.885942,45.079162,Saudi Arabia,Western Asia,Asia,MAF,Asia,NA,Middle East,Middle-East,194,SA,OE,O,456,KSA,SA,SAU,682,Western Asia,682,SAU,المملكة العربية السعودية,Saudi Arabien,\bsa\w*.?arabien|saudi,\bsa\w*.?arabia,Arabia Saudita,Arabie saoudite,Саудовская Аравия,沙特阿拉伯,SA,SA,SAU,682,FALSE
Yemen Arab Republic,Yemen (Arab Republic of Yemen),Yemen North,Yemen (Arab Republic of Yemen),678,678,YEM,YEM,678,YAR,678,YAR,1926-09-02,1990-05-21,1918-10-30,1990-05-21,1918-10-30,NA,NA,NA,TRUE,TRUE,TRUE,^(?!.*arab)(?!.*north)(?!.*sana)(?!.*peo)(?!.*dem)(?!.*south)(?!.*aden)(?!.*\bp\.?d\.?r).*yemen,15.552727,48.516388,Yemen Arab Republic,Western Asia,Asia,NA,NA,NA,NA,NA,NA,NA,NA,NA,NA,YAR,NA,NA,NA,NA,NA,NA,NA,Jemenitische Arabische Republik,^(?=.*arab).*jemen|^(?=.*nord).*jemen|^(?=.*sana).*jemen,^(?=.*arab).*yemen|^(?=.*north).*yemen|^(?=.*sana).*yemen,NA,NA,NA,NA,NA,NA,NA,NA,FALSE
Yemen Arab Republic,Yemen (Arab Republic of Yemen),Yemen North,Yemen (Arab Republic of Yemen),678,678,YEM,YEM,678,YAR,678,YAR,1926-09-02,1990-05-21,1918-10-30,1990-05-21,1918-10-30,NA,NA,NA,TRUE,TRUE,TRUE,^(?=.*arab).*yemen|^(?=.*north).*yemen|^(?=.*sana).*yemen,15.552727,48.516388,Yemen Arab Republic,Western Asia,Asia,NA,NA,NA,NA,NA,NA,NA,NA,NA,NA,YAR,NA,NA,NA,NA,NA,NA,NA,Jemenitische Arabische Republik,^(?=.*arab).*jemen|^(?=.*nord).*jemen|^(?=.*sana).*jemen,^(?=.*arab).*yemen|^(?=.*north).*yemen|^(?=.*sana).*yemen,NA,NA,NA,NA,NA,NA,NA,NA,FALSE
Yemen,Yemen (Arab Republic of Yemen),Yemen,Yemen (Arab Republic of Yemen),678,678,YEM,YEM,679,YEM,679,YEM,1990-05-22,NA,1990-05-22,NA,1918-10-30,NA,NA,NA,TRUE,TRUE,TRUE,^(?!.*arab)(?!.*north)(?!.*sana)(?!.*peo)(?!.*dem)(?!.*south)(?!.*aden)(?!.*\bp\.?d\.?r).*yemen,15.552727,48.516388,Yemen,Western Asia,Asia,MAF,Asia,NA,Middle East,Middle-East,249,YM,OY,O,474,YEM,YE,YEM,887,Western Asia,887,YEM,اليمن,Jemen,^(?!.*arab)(?!.*nord)(?!.*sana)(?!.*peo)(?!.*dem)(?!.*süd)(?!.*aden)(?!.*\bp\.?d\.?r).*jemen,^(?!.*arab)(?!.*north)(?!.*sana)(?!.*peo)(?!.*dem)(?!.*south)(?!.*aden)(?!.*\bp\.?d\.?r).*yemen,Yemen,Yémen,Йемен,也门,YE,YE,YEM,887,FALSE
Yemen,Yemen (Arab Republic of Yemen),Yemen,Yemen (Arab Republic of Yemen),678,678,YEM,YEM,679,YEM,679,YEM,1990-05-22,NA,1990-05-22,NA,1918-10-30,NA,NA,NA,TRUE,TRUE,TRUE,^(?=.*arab).*yemen|^(?=.*north).*yemen|^(?=.*sana).*yemen,15.552727,48.516388,Yemen,Western Asia,Asia,MAF,Asia,NA,Middle East,Middle-East,249,YM,OY,O,474,YEM,YE,YEM,887,Western Asia,887,YEM,اليمن,Jemen,^(?!.*arab)(?!.*nord)(?!.*sana)(?!.*peo)(?!.*dem)(?!.*süd)(?!.*aden)(?!.*\bp\.?d\.?r).*jemen,^(?!.*arab)(?!.*north)(?!.*sana)(?!.*peo)(?!.*dem)(?!.*south)(?!.*aden)(?!.*\bp\.?d\.?r).*yemen,Yemen,Yémen,Йемен,也门,YE,YE,YEM,887,FALSE
Yemen People's Republic,"Yemen, People's Republic of",Yemen South,"Yemen, People's Republic of",680,680,YPR,YPR,680,YPR,680,YPR,1967-11-30,1990-05-21,1967-11-30,1990-05-21,1967-11-30,1990-05-21,NA,NA,TRUE,TRUE,TRUE,^(?=.*peo).*yemen|^(?!.*rep)(?=.*dem).*yemen|^(?=.*south).*yemen|^(?=.*aden).*yemen|^(?=.*\bp\.?d\.?r).*yemen,12.8,45.033333,Yemen People's Republic,Western Asia,Asia,NA,NA,NA,NA,NA,NA,NA,NA,NA,NA,YMD,YD,YMD,720,NA,NA,NA,NA,Demokratische Volksrepublik Jemen,^(?=.*volk).*jemen|^(?!.*rep)(?=.*dem).*jemen|^(?=.*süd).*jemen|^(?=.*aden).*jemen|^(?=.*\bp\.?d\.?r).*jemen,^(?=.*peo).*yemen|^(?!.*rep)(?=.*dem).*yemen|^(?=.*south).*yemen|^(?=.*aden).*yemen|^(?=.*\bp\.?d\.?r).*yemen,NA,NA,NA,NA,NA,NA,NA,NA,FALSE
Kuwait,Kuwait,Kuwait,Kuwait,690,690,KUW,KUW,690,KUW,690,KUW,1961-06-19,NA,1963-01-29,NA,1961-06-19,NA,NA,NA,TRUE,TRUE,TRUE,kuwait,29.31166,47.481766,Kuwait,Western Asia,Asia,MAF,Asia,NA,Middle East,Middle-East,118,KU,OK,O,443,KUW,KW,KWT,414,Western Asia,414,KWT,الكويت,Kuwait,kuwait,kuwait,Kuwait,Koweït,Кувейт,科威特,KW,KW,KWT,414,FALSE
Bahrain,Bahrain,Bahrain,Bahrain,692,692,BAH,BAH,692,BAH,692,BAH,1971-08-15,NA,1971-08-15,NA,1971-08-15,NA,NA,NA,TRUE,TRUE,TRUE,bahrain,26.0667,50.5577,Bahrain,Western Asia,Asia,MAF,Asia,NA,Middle East,Middle-East,13,BA,OB,O,419,BRN,BH,BHR,48,Western Asia,48,BHR,البحرين,Bahrain,bahrain,bahrain,Bahrein,Bahreïn,Бахрейн,巴林,BH,BH,BHR,48,FALSE
Qatar,Qatar,Qatar,Qatar,694,694,QAT,QAT,694,QAT,694,QAT,1971-09-03,NA,1971-09-03,NA,1971-09-03,NA,NA,NA,TRUE,TRUE,TRUE,qatar,25.354826,51.183884,Qatar,Western Asia,Asia,MAF,Asia,NA,Middle East,Middle-East,179,QA,OT,O,453,QAT,QA,QAT,634,Western Asia,634,QAT,قطر,Katar,(q|k)atar,qatar,Qatar,Qatar,Катар,卡塔尔,QA,QA,QAT,634,FALSE
United Arab Emirates,United Arab Emirates,United Arab Emirates,United Arab Emirates,696,696,UAE,UAE,696,UAE,696,UAE,1971-12-02,NA,1971-12-02,NA,1971-12-02,NA,NA,NA,TRUE,TRUE,TRUE,emirates|^u\.?a\.?e\.?$|united.?arab.?e,23.424076,53.847818,United Arab Emirates,Western Asia,Asia,MAF,Asia,NA,Middle East,Middle-East,225,AE,OM,O,466,UAE,AE,ARE,784,Western Asia,784,ARE,الإمارات العربية المتحدة,Vereinigte Arabische Emirate,arabische.?emirate,emirates|^u\.?a\.?e\.?$|united.?arab.?em,Emiratos Árabes Unidos,Émirats arabes unis,Объединенные Арабские Эмираты,阿拉伯联合酋长国,AE,AE,ARE,784,FALSE
Oman,Oman,Oman,Oman,698,698,OMA,OMA,698,OMA,698,OMA,1971-10-07,NA,1800-01-01,NA,1816-01-01,NA,NA,NA,TRUE,TRUE,TRUE,\boman|trucial,21.512583,55.923255,Oman,Western Asia,Asia,NA,Asia,NA,Middle East,Middle-East,221,MU,OO,O,449,OMA,OM,OMN,512,Western Asia,512,OMN,عمان,Oman,\boman|trucial,\boman|trucial,Omán,Oman,Оман,阿曼,OM,OM,OMN,512,FALSE
Afghanistan,Afghanistan,Afghanistan,Afghanistan,700,700,AFG,AFG,700,AFG,700,AFG,1919-08-08,NA,1800-01-01,NA,1919-05-01,NA,NA,NA,TRUE,TRUE,TRUE,afghan,33.93911,67.709953,Afghanistan,Southern Asia,Asia,ASIA,Asia,NA,Asia,Asia/Pacific,2,AF,OA,O,512,AFG,AF,AFG,4,Southern Asia,4,AFG,أفغانستان,Afghanistan,afghan,afghan,Afganistán,Afghanistan,Афганистан,阿富汗,AF,AF,AFG,4,FALSE
Turkmenistan,Turkmenistan,Turkmenistan,Turkmenistan,701,701,TKM,TKM,701,TKM,701,TKM,1991-12-26,NA,1991-10-27,NA,1991-10-27,NA,NA,NA,TRUE,TRUE,TRUE,turkmen,38.969719,59.556278,Turkmenistan,Central Asia,Asia,EIT,Asia,NA,Asia,Asia/Pacific,213,TX,UT,U,925,TKM,TM,TKM,795,Central Asia,795,TKM,تركمانستان,Turkmenistan,turkmen,turkmen,Turkmenistán,Turkménistan,Туркменистан,土库曼斯坦,TM,TM,TKM,795,FALSE
Tajikistan,Tajikistan,Tajikistan,Tajikistan,702,702,TAJ,TAJ,702,TAJ,702,TAJ,1991-12-26,NA,1991-09-09,NA,1991-09-09,NA,NA,NA,TRUE,TRUE,TRUE,tajik,38.861034,71.276093,Tajikistan,Central Asia,Asia,EIT,Asia,NA,Asia,Asia/Pacific,208,TI,UT,U,923,TJK,TJ,TJK,762,Central Asia,762,TJK,طاجيكستان,Tadschikistan,tadschikistan,tajik,Tayikistán,Tadjikistan,Таджикистан,塔吉克斯坦,TJ,TJ,TJK,762,FALSE
Kyrgyzstan,Kyrgyz Republic,Kyrgyzstan,Kyrgyz Republic,703,703,KYR,KYR,703,KYR,703,KYR,1991-12-26,NA,1991-08-31,NA,1991-08-31,NA,NA,NA,TRUE,TRUE,TRUE,kyrgyz|kirghiz,41.20438,74.766098,Kyrgyzstan,Central Asia,Asia,EIT,Asia,NA,Asia,Asia/Pacific,113,KG,UA,U,917,KGZ,KG,KGZ,417,Central Asia,417,KGZ,قيرغيزستان,Kirgisistan,kirgisistan|kirghiz,kyrgyz|kirghiz,Kirguistán,Kirghizistan,Кыргызстан,吉尔吉斯斯坦,KG,KG,KGZ,417,FALSE
Uzbekistan,Uzbekistan,Uzbekistan,Uzbekistan,704,704,UZB,UZB,704,UZB,704,UZB,1991-12-26,NA,1991-08-31,NA,1991-08-31,NA,NA,NA,TRUE,TRUE,TRUE,uzbek,41.377491,64.585262,Uzbekistan,Central Asia,Asia,EIT,Asia,NA,Asia,Asia/Pacific,235,UZ,UT,U,927,UZB,UZ,UZB,860,Central Asia,860,UZB,أوزبكستان,Usbekistan,usbek,uzbek,Uzbekistán,Ouzbékistan,Узбекистан,乌兹别克斯坦,UZ,UZ,UZB,860,FALSE
Kazakhstan,Kazakhstan,Kazakhstan,Kazakhstan,705,705,KZK,KZK,705,KZK,705,KZK,1991-12-26,NA,1991-12-16,NA,1991-12-16,NA,NA,NA,TRUE,TRUE,TRUE,kazak,48.019573,66.923684,Kazakhstan,Central Asia,Asia,EIT,Asia,NA,Asia,Asia/Pacific,108,KZ,UA,U,916,KAZ,KZ,KAZ,398,Central Asia,398,KAZ,كازاخستان,Kasachstan,kasach,kazak,Kazajstán,Kazakhstan,Казахстан,哈萨克斯坦,KZ,KZ,KAZ,398,FALSE
China,China,China,China,710,710,CHN,CHN,710,CHN,710,CHN,1860-10-25,NA,1800-01-01,NA,1816-01-01,NA,NA,NA,TRUE,TRUE,TRUE,^(?!.*\bmac)(?!.*\bhong)(?!.*\btai).*china|^p\.?r\.?c\.?$,35.86166,104.195397,China,Eastern Asia,Asia,ASIA,Asia,NA,China,Asia/Pacific,351,CH,Z,Z,924,CHN,CN,CHN,156,Eastern Asia,156,CHN,الصين,China,^(?!.*\bmac)(?!.*\bhong)(?!.*\btai)(?!.*\brep).*china|^(?=.*Volksrepublik).*china,^(?!.*\bmac)(?!.*\bhong)(?!.*\btai)(?!.*\brep).*china|^(?=.*peo)(?=.*rep).*china,China,Chine,Китай,中国,CN,CN,CHN,156,FALSE
Mongolia,Mongolia,Mongolia,Mongolia,712,712,MON,MON,712,MON,712,MON,1921-03-13,NA,1924-10-26,NA,1921-03-13,NA,NA,NA,TRUE,TRUE,TRUE,mongolia,46.862496,103.846656,Mongolia,Eastern Asia,Asia,ASIA,Asia,NA,Asia,Asia/Pacific,141,MG,ZM,Z,948,MGL,MN,MNG,496,Eastern Asia,496,MNG,منغوليا,Mongolei,mongolei,mongolia,Mongolia,Mongolie,Монголия,蒙古,MN,MN,MNG,496,FALSE
Taiwan,Taiwan,Taiwan,Taiwan,713,713,TAW,TAW,713,TAW,713,TAW,1949-12-08,NA,1949-10-01,NA,1949-12-08,NA,NA,NA,TRUE,TRUE,TRUE,taiwan|taipei|formosa,23.69781,120.960515,"Taiwan, Province of China",Eastern Asia,Asia,ASIA,Asia,NA,Asia,Asia/Pacific,214,TW,RC,R,528,TPE,TW,TWN,158,Eastern Asia,NA,TWN,NA,Taiwan,taiwan|taipei|formosa,taiwan|taipei|formosa|^(?!.*peo)(?=.*rep).*china,NA,NA,NA,NA,TW,TW,TWN,158,FALSE
Korea,Korea,Korea,Korea,730,730,KOR,KOR,730,KOR,730,KOR,1887-01-01,1905-11-17,1800-01-01,1910-08-22,1816-01-01,1910-08-22,NA,NA,TRUE,TRUE,TRUE,korea,35.907757,127.766922,Korea,Eastern Asia,Asia,ASIA,NA,NA,NA,NA,NA,NA,NA,NA,NA,NA,NA,NA,NA,NA,NA,NA,NA,NA,NA,NA,NA,NA,NA,NA,NA,NA,NA,NA,FALSE
North Korea,"Korea, People's Republic of",Korea North,"Korea, People's Republic of",731,731,PRK,PRK,731,PRK,731,PRK,1948-09-09,NA,1948-05-01,NA,1948-09-09,NA,NA,NA,TRUE,TRUE,TRUE,^(?=.*dem).*\bkorea|^(?=.*peo).*\bkorea|^(?=.*nor).*\bkorea|\bd\.?p\.?r\.?k,40.339852,127.510093,Democratic People's Republic of Korea,Eastern Asia,Asia,ASIA,Asia,NA,Asia,Asia/Pacific,116,KN,ZK,Z,NA,PRK,KP,PRK,408,Eastern Asia,408,PRK,جمهورية كوريا الشعبية الديمقراطية,"Korea, Demokratische Volksrepublik",^(?=.*demokrat).*korea|^(?=.*Volk).*korea|^(?=.*nord).*korea|dprk,^(?=.*democrat|people|north|d.*p.*.r).*\bkorea|dprk|korea.*(d.*p.*r),República Popular Democrática de Corea,République populaire démocratique de Corée,Корейская Народно-Демократическая Республика,朝鲜民主主义人民共和国,KP,KP,PRK,408,FALSE
South Korea,"Korea, Republic of",Korea South,"Korea, Republic of",732,732,ROK,ROK,732,ROK,732,ROK,1949-06-29,NA,1948-08-15,NA,1948-08-15,NA,NA,NA,TRUE,TRUE,TRUE,^(?!.*dem)(?!.*peo)(?!.*nor).*\bkorea|\br\.?o\.?k\b,35.907757,127.766922,Republic of Korea,Eastern Asia,Asia,NA,Asia,NA,Asia,Asia/Pacific,117,KS,RK,R,542,KOR,KR,KOR,410,Eastern Asia,410,KOR,جمهورية كوريا,"Korea, Republik von",^(?!.*demokrat)(?!.*volk)(?!.*nord).*korea,^(?!.*d.*p.*r)(?!.*democrat)(?!.*people)(?!.*north).*\bkorea(?!.*d.*p.*r),República de Corea,République de Corée,Республика Корея,大韩民国,KR,KR,KOR,410,FALSE
Japan,Japan,Japan,Japan,740,740,JPN,JPN,740,JPN,740,JPN,1860-01-01,1945-08-14,1800-01-01,NA,1816-01-01,NA,NA,NA,TRUE,TRUE,TRUE,japan,36.204824,138.252924,Japan,Eastern Asia,Asia,OECD1990,Asia,NA,Asia,Asia/Pacific,110,JA,R[JO],R,158,JPN,JP,JPN,392,Eastern Asia,392,JPN,اليابان,Japan,japan,japan,Japón,Japon,Япония,日本,JP,JP,JPN,392,FALSE
Japan,Japan,Japan,Japan,740,740,JPN,JPN,740,JPN,740,JPN,1952-04-28,NA,1800-01-01,NA,1816-01-01,NA,NA,NA,TRUE,TRUE,TRUE,japan,36.204824,138.252924,Japan,Eastern Asia,Asia,OECD1990,Asia,NA,Asia,Asia/Pacific,110,JA,R[JO],R,158,JPN,JP,JPN,392,Eastern Asia,392,JPN,اليابان,Japan,japan,japan,Japón,Japon,Япония,日本,JP,JP,JPN,392,FALSE
India,India,India,India,750,750,IND,IND,750,IND,750,IND,1947-08-15,NA,1950-01-26,NA,1947-08-15,NA,NA,NA,TRUE,TRUE,TRUE,india(?!.*ocea)(?!.*kashmir),20.593684,78.96288,India,Southern Asia,Asia,ASIA,Asia,NA,Asia,Asia/Pacific,100,IN,V[AEIO],V,534,IND,IN,IND,356,Southern Asia,356,IND,الهند,Indien,indien(?!.*ocea),india(?!.*ocea),India,Inde,Индия,印度,IN,IN,IND,356,FALSE
Bhutan,Bhutan,Bhutan,Bhutan,760,760,BHU,BHU,760,BHU,760,BHU,1971-09-21,NA,1907-12-17,NA,1949-01-01,NA,NA,NA,TRUE,TRUE,TRUE,bhutan,27.514162,90.433601,Bhutan,Southern Asia,Asia,ASIA,Asia,NA,Asia,Asia/Pacific,18,BT,VQ,V,514,BHU,BT,BTN,64,Southern Asia,64,BTN,بوتان,Bhutan,bhutan,bhutan,Bhután,Bhoutan,Бутан,不丹,BT,BT,BTN,64,FALSE
Pakistan,Pakistan,Pakistan,Pakistan,770,770,PAK,PAK,770,PAK,769,PKS,1947-08-14,NA,1947-08-14,1971-12-31,1947-08-14,NA,NA,NA,TRUE,TRUE,TRUE,^(?!.*east).*paki?stan(?!.*kashmir),30.375321,69.345116,Pakistan,Southern Asia,Asia,ASIA,Asia,NA,Asia,Asia/Pacific,165,PK,OP,O,564,PAK,PK,PAK,586,Southern Asia,586,PAK,باكستان,Pakistan,^(?!.*ost).*paki?stan,^(?!.*east).*paki?stan,Pakistán,Pakistan,Пакистан,巴基斯坦,PK,PK,PAK,586,FALSE
Pakistan,Pakistan,Pakistan,Pakistan,770,770,PAK,PAK,770,PAK,770,PAK,1947-08-14,NA,1972-01-01,NA,1947-08-14,NA,NA,NA,TRUE,TRUE,TRUE,^(?!.*east).*paki?stan(?!.*kashmir),30.375321,69.345116,Pakistan,Southern Asia,Asia,ASIA,Asia,NA,Asia,Asia/Pacific,165,PK,OP,O,564,PAK,PK,PAK,586,Southern Asia,586,PAK,باكستان,Pakistan,^(?!.*ost).*paki?stan,^(?!.*east).*paki?stan,Pakistán,Pakistan,Пакистан,巴基斯坦,PK,PK,PAK,586,FALSE
Bangladesh,Bangladesh,Bangladesh,Bangladesh,771,771,BNG,BNG,771,BNG,771,BNG,1971-12-16,NA,1972-04-18,NA,1971-12-16,NA,NA,NA,TRUE,TRUE,TRUE,bangladesh|^(?=.*east).*paki?stan,23.684994,90.356331,Bangladesh,Southern Asia,Asia,ASIA,Asia,NA,Asia,Asia/Pacific,16,BG,VG,V,513,BAN,BD,BGD,50,Southern Asia,50,BGD,بنغلاديش,Bangladesch,bangladesch|^(?=.*ost).*paki?stan,bangladesh|^(?=.*east).*paki?stan,Bangladesh,Bangladesh,Бангладеш,孟加拉国,BD,BD,BGD,50,FALSE
Myanmar,Myanmar (Burma),Myanmar (Burma),Myanmar (Burma),775,775,MYA,MYA,775,MYA,775,MYA,1948-01-04,NA,1948-01-04,NA,1948-01-04,NA,NA,NA,TRUE,TRUE,TRUE,myanmar|burma,21.913965,95.956223,Myanmar,South-Eastern Asia,Asia,ASIA,Asia,NA,Asia,Asia/Pacific,28,BM,VY,V,518,MYA,MM,MMR,104,South-Eastern Asia,104,MMR,ميانمار,Myanmar,myanmar|burma,myanmar|burma,Myanmar,Myanmar,Мьянма,缅甸,MM,MM,MMR,104,FALSE
Sri Lanka,Sri Lanka (Ceylon),Sri Lanka,Sri Lanka (Ceylon),780,780,SRI,SRI,780,SRI,780,SRI,1948-02-04,NA,1948-02-04,NA,1948-02-04,NA,NA,NA,TRUE,TRUE,TRUE,sri.?lanka|ceylon,7.873054,80.771797,Sri Lanka,Southern Asia,Asia,ASIA,Asia,NA,Asia,Asia/Pacific,38,CE,VC,V,524,SRI,LK,LKA,144,Southern Asia,144,LKA,سري لانكا,Sri Lanka,sri.?lanka|ceylon,sri.?lanka|ceylon,Sri Lanka,Sri Lanka,Шри-Ланка,斯里兰卡,LK,LK,LKA,144,FALSE
Maldives,Maldives,NA,Maldives,781,781,MAD,MAD,781,MAD,781,NA,1965-07-26,NA,NA,NA,1965-05-26,NA,NA,NA,TRUE,FALSE,TRUE,maldive,1.977247,73.5361034,Maldives,Southern Asia,Asia,ASIA,Asia,NA,Asia,Asia/Pacific,132,MV,VR,V,556,MDV,MV,MDV,462,Southern Asia,462,MDV,ملديف,Malediven,malediven,maldive,Maldivas,Maldives,Мальдивские Острова,马尔代夫,MV,MV,MDV,NA,FALSE
Nepal,Nepal,Nepal,Nepal,790,790,NEP,NEP,790,NEP,790,NEP,1920-01-01,NA,1800-01-01,NA,1816-01-01,NA,NA,NA,TRUE,TRUE,TRUE,nepal,28.394857,84.124008,Nepal,Southern Asia,Asia,ASIA,Asia,NA,Asia,Asia/Pacific,149,NP,VN,V,558,NEP,NP,NPL,524,Southern Asia,524,NPL,نيبال,Nepal,nepal,nepal,Nepal,Népal,Непал,尼泊尔,NP,NP,NPL,524,FALSE
Thailand,Thailand,Thailand,Thailand,800,800,THI,THI,800,THI,800,THI,1887-01-01,NA,1800-01-01,NA,1816-01-01,NA,NA,NA,TRUE,TRUE,TRUE,thailand|\bsiam,15.870032,100.992541,Thailand,South-Eastern Asia,Asia,ASIA,Asia,NA,Asia,Asia/Pacific,216,TH,VT,V,578,THA,TH,THA,764,South-Eastern Asia,764,THA,تايلند,Thailand,thailand|\bsiam,thailand|\bsiam,Tailandia,Thaïlande,Таиланд,泰国,TH,TH,THA,764,FALSE
Cambodia,Cambodia (Kampuchea),Cambodia,Cambodia (Kampuchea),811,811,CAM,CAM,811,CAM,811,CAM,1953-11-09,NA,1953-11-09,NA,1953-11-09,NA,NA,NA,TRUE,TRUE,TRUE,cambodia|kampuchea|khmer|^p\.?r\.?k\.?$,12.565679,104.990963,Cambodia,South-Eastern Asia,Asia,ASIA,Asia,NA,Asia,Asia/Pacific,115,CB,VD,V,522,CAM,KH,KHM,116,South-Eastern Asia,116,KHM,كمبوديا,Kambodscha,kambodscha|kampuchea|khmer,cambodia|kampuchea|khmer,Camboya,Cambodge,Камбоджа,柬埔寨,KH,KH,KHM,116,FALSE
Laos,Laos,Laos,Laos,812,812,LAO,LAO,812,LAO,812,LAO,1953-10-23,NA,1954-10-22,NA,1954-05-01,NA,NA,NA,TRUE,TRUE,TRUE,\blaos?\b,19.85627,102.495496,Lao People's Democratic Republic,South-Eastern Asia,Asia,ASIA,Asia,NA,Asia,Asia/Pacific,120,LA,VL,V,544,LAO,LA,LAO,418,South-Eastern Asia,418,LAO,جمهورية لاو الديمقراطية الشعبية,Demokratische Volksrepublik Laos,\blaos?\b,\blaos?\b,República Democrática Popular Lao,République démocratique populaire lao,Лаосская Народно-Демократическая Республика,老挝人民民主共和国,LA,LA,LAO,418,FALSE
Vietnam,"Vietnam, Democratic Republic of",Vietnam North,"Vietnam, Democratic Republic of",816,816,DRV,DRV,816,DRV,816,DRV,1954-07-21,NA,1954-05-07,1976-07-01,1954-05-01,NA,NA,NA,TRUE,TRUE,TRUE,^(?!.*republic)(?!.*south).*viet.?nam(?!.*south)(?!.*s$)|^(?=.*socialist)(?!.*south).*viet.?nam(?!.*south)|(?!.*south).*viet.?nam.*(?=.*socialist)|viet.?nam.*(?=.*democr)|(?=.*democr).*viet.?nam,21.0277644,105.8341598,Viet Nam,South-Eastern Asia,Asia,ASIA,Asia,NA,Asia,Asia/Pacific,237,VM,VV,V,582,VIE,VN,VNM,704,South-Eastern Asia,704,VNM,فييت نام,Vietnam,^(?!.*republik).*viet.?nam|^(?=.*sozialist).*viet.?nam,^(?!.*republic).*viet.?nam|^(?=.*socialist).*viet.?nam,Viet Nam,Viet Nam,Вьетнам,越南,VN,VN,VNM,704,FALSE
Vietnam,"Vietnam, Democratic Republic of",Vietnam,"Vietnam, Democratic Republic of",816,816,DRV,DRV,816,DRV,818,VIE,1954-07-21,NA,1976-07-02,NA,1954-05-01,NA,NA,NA,TRUE,TRUE,TRUE,^(?!.*republic)(?!.*south).*viet.?nam(?!.*south)(?!.*s$)|^(?=.*socialist)(?!.*south).*viet.?nam(?!.*south)|(?!.*south).*viet.?nam.*(?=.*socialist)|viet.?nam.*(?=.*democr)|(?=.*democr).*viet.?nam,21.0277644,105.8341598,Viet Nam,South-Eastern Asia,Asia,ASIA,Asia,NA,Asia,Asia/Pacific,237,VM,VV,V,582,VIE,VN,VNM,704,South-Eastern Asia,704,VNM,فييت نام,Vietnam,^(?!.*republik).*viet.?nam|^(?=.*sozialist).*viet.?nam,^(?!.*republic).*viet.?nam|^(?=.*socialist).*viet.?nam,Viet Nam,Viet Nam,Вьетнам,越南,VN,VN,VNM,704,FALSE
Republic of Vietnam,"Vietnam, Republic of",Vietnam South,"Vietnam, Republic of",817,817,RVN,RVN,817,RVN,817,RVN,1954-06-04,1975-04-30,1955-10-26,1975-12-31,1954-05-01,1975-04-30,NA,NA,TRUE,TRUE,TRUE,^(south.*viet.?nam)|(viet.?nam?.*south)|(viet.?nam?(?!.*socialist).*republic)|^(?!.*democratic).*republic of vie.?tnam,10.8230989,106.6296638,Republic of Vietnam,South-Eastern Asia,Asia,NA,NA,NA,NA,NA,NA,NA,NA,NA,NA,VNM,NA,NA,714,NA,NA,NA,NA,NA,NA,NA,NA,NA,NA,NA,NA,NA,NA,NA,FALSE
Malaysia,Malaysia,Malaysia,Malaysia,820,820,MAL,MAL,820,MAL,820,MAL,1957-08-31,NA,1957-08-31,NA,1957-08-31,NA,NA,NA,TRUE,TRUE,TRUE,malaysia,4.210484,101.975766,Malaysia,South-Eastern Asia,Asia,MAF,Asia,NA,Asia,Asia/Pacific,131,MY,W[BM],W,548,MAS,MY,MYS,458,South-Eastern Asia,458,MYS,ماليزيا,Malaysia,malaysia,malaysia,Malasia,Malaisie,Малайзия,马来西亚,MY,MY,MYS,458,FALSE
Singapore,Singapore,Singapore,Singapore,830,830,SIN,SIN,830,SIN,830,SIN,1965-08-09,NA,1959-06-05,NA,1965-08-09,NA,NA,NA,TRUE,TRUE,TRUE,singapore,1.352083,103.819836,Singapore,South-Eastern Asia,Asia,ASIA,Asia,NA,Asia,Asia/Pacific,200,SN,WS,W,576,SIN,SG,SGP,702,South-Eastern Asia,702,SGP,سنغافورة,Singapur,singapur,singapore,Singapur,Singapour,Сингапур,新加坡,SG,SG,SGP,702,FALSE
Brunei,Brunei,NA,Brunei,835,835,BRU,BRU,835,BRU,835,NA,1984-01-01,NA,NA,NA,1984-01-01,NA,NA,NA,TRUE,FALSE,TRUE,brunei,4.535277,114.727669,Brunei Darussalam,South-Eastern Asia,Asia,ASIA,Asia,NA,Asia,Asia/Pacific,26,BX,WB,W,516,BRU,BN,BRN,96,South-Eastern Asia,96,BRN,بروني دار السلام,Brunei Darussalam,brunei,brunei,Brunei Darussalam,Brunei Darussalam,Бруней-Даруссалам,文莱达鲁萨兰国,BN,BN,BRN,NA,FALSE
Philippines,Philippines,Philippines,Philippines,840,840,PHI,PHI,840,PHI,840,PHI,1946-07-04,NA,1935-11-24,NA,1946-07-04,NA,NA,NA,TRUE,TRUE,TRUE,philippines,12.879721,121.774017,Philippines,South-Eastern Asia,Asia,ASIA,Asia,NA,Asia,Asia/Pacific,171,RP,RP,R,566,PHI,PH,PHL,608,South-Eastern Asia,608,PHL,الفلبين,Philippinen,philippinen,philippines,Filipinas,Philippines,Филиппины,菲律宾,PH,PH,PHL,608,FALSE
Indonesia,Indonesia,Indonesia,Indonesia,850,850,INS,INS,850,INS,850,INS,1949-12-27,NA,1945-08-17,NA,1945-08-17,NA,NA,NA,TRUE,TRUE,TRUE,indonesia,-0.789275,113.921327,Indonesia,South-Eastern Asia,Asia,ASIA,Asia,NA,Asia,Asia/Pacific,101,ID,W[AIQR],W,536,INA,ID,IDN,360,South-Eastern Asia,360,IDN,إندونيسيا,Indonesien,indonesien,indonesia,Indonesia,Indonésie,Индонезия,印度尼西亚,ID,ID,IDN,360,FALSE
East Timor,East Timor,East Timor,East Timor,860,860,ETM,ETM,860,ETM,860,ETM,2002-09-27,NA,2002-05-20,NA,2002-05-20,NA,NA,NA,TRUE,TRUE,TRUE,^(?=.*leste).*timor|^(?=.*east).*timor,-8.874217,125.727539,Timor-Leste,South-Eastern Asia,Asia,ASIA,Asia,NA,Asia,Asia/Pacific,176,TT,WP,W,537,TLS,TL,TLS,626,South-Eastern Asia,626,TMP,تيمور- ليشتي,Timor-Leste,^(?=.*leste).*timor|^(?=.*ost).*timor,^(?=.*leste).*timor|^(?=.*east).*timor,Timor-Leste,Timor-Leste,Тимор-Лешти,东帝汶,TL,TL,TLS,626,FALSE
Australia,Australia,Australia,Australia,900,900,AUL,AUL,900,AUL,900,AUL,1920-01-10,NA,1901-01-01,NA,1901-01-01,NA,NA,NA,TRUE,TRUE,TRUE,australia,-25.274398,133.775136,Australia,Australia and New Zealand,Oceania,OECD1990,Oceania,NA,Asia,Asia/Pacific,10,AS,Y,Y,193,AUS,AU,AUS,36,Australia and New Zealand,36,AUS,أستراليا,Australien,australien,australia,Australia,Australie,Австралия,澳大利亚,AU,AU,AUS,36,FALSE
Papua New Guinea,Papua New Guinea,Papua New Guinea,Papua New Guinea,910,910,PNG,PNG,910,PNG,910,PNG,1975-09-16,NA,1975-09-16,NA,1975-09-16,NA,NA,NA,TRUE,TRUE,TRUE,^(?!.*\bwest).*papua|\bp.*\bn.*\bguin.*|^p\.?n\.?g\.?$|new.?guinea|PAPUA N.GUINEA,-6.314993,143.95555,Papua New Guinea,Melanesia,Oceania,ASIA,Oceania,NA,Asia,Asia/Pacific,168,PP,AY,A,853,PNG,PG,PNG,598,Melanesia,598,PNG,بابوا غينيا الجديدة,Papua-Neuguinea,papua|neu.?guinea,papua|new.?guinea,Papua Nueva Guinea,Papouasie-Nouvelle-Guinée,Папуа-Новая Гвинея,巴布亚新几内亚,PG,PG,PNG,598,FALSE
New Zealand,New Zealand,New Zealand,New Zealand,920,920,NEW,NEW,920,NEW,920,NEW,1920-01-10,NA,1857-07-01,NA,1907-09-01,NA,NA,NA,TRUE,TRUE,TRUE,new.?zealand,-40.900557,174.885971,New Zealand,Australia and New Zealand,Oceania,OECD1990,Oceania,NA,Asia,Asia/Pacific,156,NZ,NZ,N,196,NZL,NZ,NZL,554,Australia and New Zealand,554,NZL,نيوزيلندا,Neuseeland,neuseeland,new.?zealand,Nueva Zelandia,Nouvelle-Zélande,Новая Зеландия,新西兰,NZ,NZ,NZL,554,FALSE
Vanuatu,Vanuatu,NA,Vanuatu,935,935,VAN,VAN,935,VAN,935,NA,1981-09-15,NA,NA,NA,1980-06-30,NA,NA,NA,TRUE,FALSE,TRUE,vanuatu|new.?hebrides,-15.376706,166.959158,Vanuatu,Melanesia,Oceania,ASIA,Oceania,NA,Asia,Asia/Pacific,155,NH,NV,N,846,VAN,VU,VUT,548,Melanesia,548,VUT,فانواتو,Vanuatu,vanuatu|neue.?hebriden,vanuatu|new.?hebrides,Vanuatu,Vanuatu,Вануату,瓦努阿图,VU,VU,VUT,NA,TRUE
Solomon Islands,Solomon Islands,Solomon Islands,Solomon Islands,940,940,SOL,SOL,940,SOL,940,SOL,1978-07-07,NA,1978-07-07,NA,1978-07-07,NA,NA,NA,TRUE,TRUE,TRUE,solomon,-9.64571,160.156194,Solomon Islands,Melanesia,Oceania,ASIA,Oceania,NA,Asia,Asia/Pacific,25,BP,AG,A,813,SOL,SB,SLB,90,Melanesia,90,SLB,جزر سليمان,Salomon-Inseln,salomon,solomon,Islas Salomón,Îles Salomon,Соломоновы Острова,所罗门群岛,SB,SB,SLB,NA,FALSE
Kiribati,Kiribati,NA,Kiribati,970,970,KBI,KBI,946,KIR,946,NA,1999-09-14,NA,NA,NA,1979-07-12,NA,NA,NA,TRUE,FALSE,TRUE,kiribati,1.8709185,-157.3626011,Kiribati,Micronesia,Oceania,ASIA,Oceania,NA,Asia,Asia/Pacific,83,KR,NG,N,826,KIR,KI,KIR,296,Micronesia,296,KIR,كيريباس,Kiribati,kiribati,kiribati,Kiribati,Kiribati,Кирибати,基里巴斯共和国,KI,KI,KIR,NA,TRUE
Tuvalu,Tuvalu,NA,Tuvalu,973,973,TUV,TUV,947,TUV,947,NA,2000-09-05,NA,NA,NA,1978-10-01,NA,NA,NA,TRUE,FALSE,TRUE,tuvalu,-7.4784418,178.6799214,Tuvalu,Polynesia,Oceania,ASIA,Oceania,NA,Asia,Asia/Pacific,227,TV,NG,N,NA,TUV,TV,TUV,798,Polynesia,798,TUV,توفالو,Tuvalu,tuvalu,tuvalu,Tuvalu,Tuvalu,Тувалу,图瓦卢,TV,TV,TUV,NA,TRUE
Fiji,Fiji,Fiji,Fiji,950,950,FJI,FJI,950,FIJ,950,FJI,1970-10-10,NA,1970-10-10,NA,1970-10-10,NA,NA,NA,TRUE,TRUE,TRUE,fiji,-17.713371,178.065032,Fiji,Melanesia,Oceania,ASIA,Oceania,NA,Asia,Asia/Pacific,66,FJ,NF,N,819,FIJ,FJ,FJI,242,Melanesia,242,FJI,فيجي,Fidschi,fiji|fidschi,fiji,Fiji,Fidji,Фиджи,斐济,FJ,FJ,FJI,NA,FALSE
Tonga,Tonga,NA,Tonga,972,972,TON,TON,955,TON,955,NA,1999-09-14,NA,NA,NA,1970-06-04,NA,NA,NA,TRUE,FALSE,TRUE,tonga,-21.178986,-175.198242,Tonga,Polynesia,Oceania,MAF,Oceania,NA,Asia,Asia/Pacific,219,TN,NF,N,866,TGA,TO,TON,776,Polynesia,776,TON,تونغا,Tonga,tonga,tonga,Tonga,Tonga,Тонга,汤加,TO,TO,TON,NA,TRUE
Nauru,Nauru,NA,Nauru,971,971,NAU,NAU,970,NAU,970,NA,1999-09-14,NA,NA,NA,1968-12-31,NA,NA,NA,TRUE,FALSE,TRUE,nauru,-0.522778,166.931503,Nauru,Micronesia,Oceania,ASIA,Oceania,NA,Asia,Asia/Pacific,148,NR,AN,A,836,NRU,NR,NRU,520,Micronesia,520,NRU,ناورو,Nauru,nauru,nauru,Nauru,Nauru,Науру,瑙鲁,NR,NR,NRU,NA,TRUE
Marshall Islands,Marshall Islands,NA,Marshall Islands,983,983,MSI,MSI,983,MSI,983,NA,1991-09-17,NA,NA,NA,1986-10-21,NA,NA,NA,TRUE,FALSE,TRUE,marshall,6.0683936,171.989379,Marshall Islands,Micronesia,Oceania,ASIA,Oceania,NA,Asia,Asia/Pacific,127,RM,PK,P,867,MHL,MH,MHL,584,Micronesia,584,MHL,جزر مارشال,Marshallinseln,marshall,marshall,Islas Marshall,Îles Marshall,Маршалловы Острова,马绍尔群岛,MH,MH,MHL,NA,TRUE
Palau,Palau,NA,Palau,986,986,PAL,PAL,986,PAL,986,NA,1994-12-15,NA,NA,NA,1994-10-01,NA,NA,NA,TRUE,FALSE,TRUE,palau,7.51498,134.58252,Palau,Micronesia,Oceania,ASIA,Oceania,NA,Asia,Asia/Pacific,180,PS,PT,P,565,PLW,PW,PLW,585,Micronesia,585,PLW,بالاو,Palau,palau,palau,Palau,Palaos,Палау,帕劳,PW,PW,PLW,NA,TRUE
Federated States of Micronesia,Federated States of Micronesia,NA,Federated States of Micronesia,987,987,FSM,FSM,987,FSM,987,NA,1991-09-17,NA,NA,NA,1986-11-03,NA,NA,NA,TRUE,FALSE,TRUE,micronesia,6.8874813,158.2150717,Micronesia (Federated States of),Micronesia,Oceania,ASIA,Oceania,NA,Asia,Asia/Pacific,145,FM,PT,P,868,FSM,FM,FSM,583,Micronesia,583,FSM,ميكرونيزيا (ولايات ــ الموحدة),Mikronesien,mikronesien,fed.*micronesia|micronesia.*fed,Micronesia (Estados Federados de),Micronésie (États fédérés de),Микронезия (Федеративные Штаты),密克罗尼西亚联邦,FM,FM,FSM,NA,TRUE
Samoa,Samoa/Western Samoa,NA,Samoa/Western Samoa,990,990,WSM,WSM,990,WSM,990,NA,1976-12-15,NA,NA,NA,1962-01-01,NA,NA,NA,TRUE,FALSE,TRUE,^(?!.*amer).*samoa,-13.759029,-172.104629,Samoa,Polynesia,Oceania,ASIA,Oceania,NA,Asia,Asia/Pacific,244,WS,NS,N,862,SAM,WS,WSM,882,Polynesia,882,WSM,ساموا,Samoa,^(?!.*amer).*samoa,^(?!.*amer).*samoa,Samoa,Samoa,Самоа,萨摩亚,WS,WS,WSM,NA,TRUE
NA,Aland Islands,NA,NA,NA,NA,NA,NA,NA,NA,NA,NA,NA,NA,NA,NA,NA,NA,NA,NA,FALSE,FALSE,FALSE,\b\wland,60.1785247,19.9156105,Aland Islands,Northern Europe,Europe,OECD1990,Europe,NA,Eurocontrol,ESRA North-West,NA,NA,EF,E,NA,NA,AX,ALA,248,Northern Europe,248,ALA,NA,Aland Islands,\baland,\b\wland,NA,NA,NA,NA,NA,NA,NA,NA,NA
NA,American Samoa,NA,NA,NA,NA,NA,NA,NA,NA,NA,NA,NA,NA,NA,NA,NA,NA,NA,NA,FALSE,FALSE,FALSE,^(?=.*americ).*samoa,-14.270972,-170.132217,American Samoa,Polynesia,Oceania,ASIA,Oceania,NA,Asia,Asia/Pacific,NA,AQ,NS,N,859,ASA,AS,ASM,16,Polynesia,16,ASM,NA,Amerikanisch-Samoa,^(?=.*amerik).*samoa,^(?=.*americ).*samoa,NA,NA,NA,NA,AS,AS,ASM,16,NA
NA,Anguilla,NA,NA,NA,NA,NA,NA,NA,NA,NA,NA,NA,NA,NA,NA,NA,NA,NA,NA,FALSE,FALSE,FALSE,anguill?a,18.220554,-63.06861499999999,Anguilla,Caribbean,Americas,LAM,Americas,NA,Southern America,Mid-Atlantic,NA,AV,TQ,T,312,AIA,AI,AIA,660,Caribbean,660,AIA,NA,Anguilla,anguill?a,anguill?a,NA,NA,NA,NA,AI,NA,NA,NA,NA
NA,Antarctica,NA,NA,NA,NA,NA,NA,NA,NA,NA,NA,NA,NA,NA,NA,NA,NA,NA,NA,FALSE,FALSE,FALSE,antarctica,-82.862752,135,Antarctica,NA,NA,LAM,NA,NA,Asia,Asia/Pacific,NA,AY,N,N,NA,NA,AQ,ATA,10,NA,NA,ATA,NA,Antarktis,antarktis,antarctica,NA,NA,NA,NA,AQ,NA,NA,NA,NA
NA,Aruba,NA,NA,NA,NA,NA,NA,NA,NA,NA,NA,NA,NA,NA,NA,NA,NA,NA,NA,FALSE,FALSE,FALSE,^(?!.*bonaire).*\baruba,12.52111,-69.968338,Aruba,Caribbean,Americas,LAM,Americas,NA,Southern America,Mid-Atlantic,NA,AA,TN,T,314,ARU,AW,ABW,533,Caribbean,533,ABW,NA,Aruba,^(?!.*bonaire).*\baruba,^(?!.*bonaire).*\baruba,NA,NA,NA,NA,AW,AW,ABW,NA,NA
NA,Bermuda,NA,NA,NA,NA,NA,NA,NA,NA,NA,NA,NA,NA,NA,NA,NA,NA,NA,NA,FALSE,FALSE,FALSE,bermuda,32.3078,-64.7505,Bermuda,Northern America,Americas,LAM,Americas,NA,Southern America,Mid-Atlantic,NA,NA,TX,T,319,BER,BM,BMU,60,Northern America,60,BMU,NA,Bermuda,bermuda,bermuda,NA,NA,NA,NA,BM,BM,BMU,60,NA
NA,"Bonaire, Sint Eustatius and Saba",NA,NA,NA,NA,NA,NA,NA,NA,NA,NA,NA,NA,NA,NA,NA,NA,NA,NA,FALSE,FALSE,FALSE,^(?=.*bonaire).*eustatius|^(?=.*carib).*netherlands|\bbes.?islands,12.1783611,-68.2385339,"Bonaire, Sint Eustatius and Saba",Caribbean,Americas,NA,Americas,NA,Southern America,Mid-Atlantic,NA,NA,TN,T,NA,NA,BQ,BES,535,Caribbean,535,NA,NA,"Bonaire, Sint Eustatius und Saba",^(?=.*bonaire).*eustatius|^(?=.*karib).*niederlande|\bbes.?inseln,^(?=.*bonaire).*eustatius|^(?=.*carib).*netherlands|\bbes.?islands,NA,NA,NA,NA,BQ,NA,NA,NA,NA
NA,Bouvet Island,NA,NA,NA,NA,NA,NA,NA,NA,NA,NA,NA,NA,NA,NA,NA,NA,NA,NA,FALSE,FALSE,FALSE,bouvet,-54.4207915,3.3464497,Bouvet Island,NA,NA,LAM,NA,NA,NA,NA,NA,NA,NA,NA,NA,NA,BV,BVT,74,NA,NA,BVT,NA,Bouvet Island,bouvet,bouvet,NA,NA,NA,NA,BV,NA,NA,NA,NA
NA,British Indian Ocean Territory,NA,NA,NA,NA,NA,NA,NA,NA,NA,NA,NA,NA,NA,NA,NA,NA,NA,NA,FALSE,FALSE,FALSE,british.?indian.?ocean,-6.3431940000000004,71.876519,British Indian Ocean Territory,NA,NA,ASIA,NA,NA,NA,NA,NA,NA,NA,NA,NA,NA,IO,IOT,86,NA,NA,IOT,NA,Britisches Territorium im Indischen Ozean,britisches.territorium.im.indischen.ozean,british.?indian.?ocean,NA,NA,NA,NA,IO,NA,NA,NA,NA
NA,Cayman Islands,NA,NA,NA,NA,NA,NA,NA,NA,NA,NA,NA,NA,NA,NA,NA,NA,NA,NA,FALSE,FALSE,FALSE,cayman,19.3133,-81.2546,Cayman Islands,Caribbean,Americas,LAM,Americas,NA,Southern America,Mid-Atlantic,NA,CJ,MW,M,377,CAY,KY,CYM,136,Caribbean,136,CYM,NA,Cayman Inseln,cayman,cayman,NA,NA,NA,NA,KY,KY,CYM,NA,NA
NA,Christmas Island,NA,NA,NA,NA,NA,NA,NA,NA,NA,NA,NA,NA,NA,NA,NA,NA,NA,NA,FALSE,FALSE,FALSE,christmas,-10.447525,105.690449,Christmas Island,NA,Oceania,ASIA,Oceania,NA,Asia,Asia/Pacific,NA,CX,Y,Y,NA,NA,CX,CXR,162,NA,NA,CXR,NA,Weihnachtsinsel,weihnachtsinsel,christmas,NA,NA,NA,NA,CX,NA,NA,NA,NA
NA,Cocos (Keeling) Islands,NA,NA,NA,NA,NA,NA,NA,NA,NA,NA,NA,NA,NA,NA,NA,NA,NA,NA,FALSE,FALSE,FALSE,\bcocos|keeling,-12.164165,96.870956,Cocos (Keeling) Islands,NA,NA,ASIA,NA,NA,Asia,Asia/Pacific,NA,NA,Y,Y,NA,NA,CC,CCK,166,NA,NA,CCK,NA,Kokosinseln (Keelinginseln),\bkokos|keeling,\bcocos|keeling,NA,NA,NA,NA,CC,NA,NA,NA,NA
NA,Cook Islands,NA,NA,NA,NA,NA,NA,NA,NA,NA,NA,NA,NA,NA,NA,NA,NA,NA,NA,FALSE,FALSE,FALSE,\bcook,-21.236736,-159.777671,Cook Islands,Polynesia,Oceania,ASIA,Oceania,NA,Asia,Asia/Pacific,47,CW,NC,N,815,COK,CK,COK,184,Polynesia,184,COK,NA,Cookinseln,\bcook,\bcook,NA,NA,NA,NA,CK,NA,NA,184,NA
NA,Curacao,NA,NA,NA,NA,NA,NA,NA,NA,NA,NA,NA,NA,NA,NA,NA,NA,NA,NA,FALSE,FALSE,FALSE,^(?!.*bonaire).*\bcura(c|ç)ao,12.16957,-68.99002,Curacao,Caribbean,Americas,LAM,Americas,NA,Southern America,Mid-Atlantic,NA,UC,TN,T,354,NA,CW,CUW,531,Caribbean,531,CUW,NA,Curacao,^(?!.*bonaire).*\bcura(c|ç)ao,^(?!.*bonaire).*\bcura(c|ç)ao,NA,NA,NA,NA,CW,CW,CUW,NA,NA
NA,Falkland Islands (Malvinas),NA,NA,NA,NA,NA,NA,NA,NA,NA,NA,NA,NA,NA,NA,NA,NA,NA,NA,FALSE,FALSE,FALSE,falkland|malvinas,-51.796253,-59.523613,Falkland Islands (Malvinas),South America,Americas,LAM,Americas,NA,Southern America,South-Atlantic,NA,FK,SF,S,323,NA,FK,FLK,238,South America,238,FLK,NA,Falklandinseln (Malvinas),falkland|malvinas,falkland|malvinas,NA,NA,NA,NA,FK,NA,NA,NA,NA
NA,Faroe Islands,NA,NA,NA,NA,NA,NA,NA,NA,NA,NA,NA,NA,NA,NA,NA,NA,NA,NA,FALSE,FALSE,FALSE,faroe|faeroe,61.89263500000001,-6.9118061,Faroe Islands,Northern Europe,Europe,OECD1990,Europe,NA,Eurocontrol,ESRA North-West,64,FO,EK,E,816,NA,FO,FRO,234,Northern Europe,234,FRO,NA,Färöer Inseln,f(a|ä)r(o|ö|oe)er,faroe|faeroe,NA,NA,NA,NA,FO,FO,FRO,NA,NA
NA,French Guiana,NA,NA,NA,NA,NA,NA,NA,NA,NA,NA,NA,NA,NA,NA,NA,NA,NA,NA,FALSE,FALSE,FALSE,^(?=.*french).*guiana,3.933889,-53.125782,French Guiana,South America,Americas,LAM,Americas,NA,Southern America,South-Atlantic,NA,FG,SO,S,333,NA,GF,GUF,254,South America,254,GUF,NA,Französisch-Guayana,französisch.?guayana,^(?=.*french).*guiana,NA,NA,NA,NA,NA,NA,NA,NA,NA
NA,French Polynesia,NA,NA,NA,NA,NA,NA,NA,NA,NA,NA,NA,NA,NA,NA,NA,NA,NA,NA,FALSE,FALSE,FALSE,french.?polynesia|tahiti,-17.679742,-149.406843,French Polynesia,Polynesia,Oceania,ASIA,Oceania,NA,Asia,Asia/Pacific,NA,FP,NT,N,887,NA,PF,PYF,258,Polynesia,258,PYF,NA,Französisch Polynesien,französisch.?polynesien|tahiti,french.?polynesia|tahiti,NA,NA,NA,NA,PF,PF,PYF,NA,NA
NA,French Southern Territories,NA,NA,NA,NA,NA,NA,NA,NA,NA,NA,NA,NA,NA,NA,NA,NA,NA,NA,FALSE,FALSE,FALSE,french.?southern,-49.280366,69.3485571,French Southern Territories,NA,NA,LAM,NA,NA,NA,NA,NA,NA,NA,NA,NA,NA,TF,ATF,260,NA,NA,ATF,NA,Französische Südgebiete,französische.?südgebiete,french.?southern,NA,NA,NA,NA,TF,NA,NA,NA,NA
NA,Gibraltar,NA,NA,NA,NA,NA,NA,NA,NA,NA,NA,NA,NA,NA,NA,NA,NA,NA,NA,FALSE,FALSE,FALSE,gibraltar,36.140751,-5.353585,Gibraltar,Southern Europe,Europe,OECD1990,Europe,NA,Eurocontrol,Other Europe,NA,GI,LX,L,823,NA,GI,GIB,292,Southern Europe,292,GIB,NA,Gibraltar,gibraltar,gibraltar,NA,NA,NA,NA,GI,GI,GIB,292,NA
NA,Greenland,NA,NA,NA,NA,NA,NA,NA,NA,NA,NA,NA,NA,NA,NA,NA,NA,NA,NA,FALSE,FALSE,FALSE,greenland,71.706936,-42.604303,Greenland,Northern America,Americas,OECD1990,Americas,NA,Northern America,Other Europe,NA,GL,BG,B,326,NA,GL,GRL,304,Northern America,304,GRL,NA,Grönland,gr(o|ö)nland,greenland,NA,NA,NA,NA,GL,GL,GRL,NA,NA
NA,Guadeloupe,NA,NA,NA,NA,NA,NA,NA,NA,NA,NA,NA,NA,NA,NA,NA,NA,NA,NA,FALSE,FALSE,FALSE,guadeloupe,16.265,-61.55099999999999,Guadeloupe,Caribbean,Americas,LAM,Americas,NA,Southern America,Mid-Atlantic,NA,GP,TF,T,329,NA,GP,GLP,312,Caribbean,312,GLP,NA,Guadeloupe,guadeloupe,guadeloupe,NA,NA,NA,NA,NA,NA,NA,NA,NA
NA,Guam,NA,NA,NA,NA,NA,NA,NA,NA,NA,NA,NA,NA,NA,NA,NA,NA,NA,NA,FALSE,FALSE,FALSE,\bguam,13.444304,144.793731,Guam,Micronesia,Oceania,OECD1990,Oceania,NA,Asia,Asia/Pacific,NA,GU,PG,P,829,GUM,GU,GUM,316,Micronesia,316,GUM,NA,Guam,\bguam,\bguam,NA,NA,NA,NA,GU,GU,GUM,NA,NA
NA,Guernsey,NA,NA,NA,NA,NA,NA,NA,NA,NA,NA,NA,NA,NA,NA,NA,NA,NA,NA,FALSE,FALSE,FALSE,guernsey,49.465691,-2.585278,Guernsey,Northern Europe,Europe,OECD1990,Europe,NA,Eurocontrol,ESRA North-West,NA,GK,EG,E,NA,NA,GG,GGY,831,Northern Europe,831,GGY,NA,Guernsey,guernsey,guernsey,NA,NA,NA,NA,GG,NA,NA,NA,NA
NA,Heard Island and McDonald Islands,NA,NA,NA,NA,NA,NA,NA,NA,NA,NA,NA,NA,NA,NA,NA,NA,NA,NA,FALSE,FALSE,FALSE,heard.*mcdonald,-53.08181,73.50415799999999,Heard Island and McDonald Islands,NA,NA,ASIA,NA,NA,NA,NA,NA,NA,NA,NA,NA,NA,HM,HMD,334,NA,NA,HMD,NA,Heard und McDonaldinseln,heard.*mcdonald,heard.*mcdonald,NA,NA,NA,NA,HM,NA,NA,NA,NA
NA,Hong Kong,NA,NA,NA,NA,NA,NA,NA,NA,NA,NA,NA,NA,NA,NA,NA,NA,NA,NA,FALSE,FALSE,FALSE,hong.?kong,22.396428,114.109497,Hong Kong,Eastern Asia,Asia,NA,Asia,NA,China,Asia/Pacific,NA,NA,VH,V,532,HKG,HK,HKG,344,Eastern Asia,344,HKG,NA,Hongkong,hong.?kong,hong.?kong,NA,NA,NA,NA,HK,HK,HKG,344,NA
NA,Isle of Man,NA,NA,NA,NA,NA,NA,NA,NA,NA,NA,NA,NA,NA,NA,NA,NA,NA,NA,FALSE,FALSE,FALSE,^(?=.*isle).*\bman,54.236107,-4.548056,Isle of Man,Northern Europe,Europe,OECD1990,Europe,NA,Eurocontrol,ESRA North-West,NA,IM,EG,E,NA,NA,IM,IMN,833,Northern Europe,833,IMY,NA,Isle of Man,^(?=.*isle).*\bman|^man.*insel,^(?=.*isle).*\bman,NA,NA,NA,NA,IM,IM,IMN,NA,NA
NA,Jersey,NA,NA,NA,NA,NA,NA,NA,NA,NA,NA,NA,NA,NA,NA,NA,NA,NA,NA,FALSE,FALSE,FALSE,jersey,49.214439,-2.13125,Jersey,Northern Europe,Europe,OECD1990,Europe,NA,Eurocontrol,ESRA North-West,NA,NA,EG,E,NA,NA,JE,JEY,832,Northern Europe,832,JEY,NA,Jersey,jersey,jersey,NA,NA,NA,NA,JE,NA,NA,NA,NA
NA,Macao,NA,NA,NA,NA,NA,NA,NA,NA,NA,NA,NA,NA,NA,NA,NA,NA,NA,NA,FALSE,FALSE,FALSE,maca(o|u),22.198745,113.543873,Macao,Eastern Asia,Asia,NA,Asia,NA,China,Asia/Pacific,NA,MC,VM,V,546,NA,MO,MAC,446,Eastern Asia,446,MAC,NA,Macao,maca(o|u),maca(o|u),NA,NA,NA,NA,MO,MO,MAC,NA,NA
NA,Martinique,NA,NA,NA,NA,NA,NA,NA,NA,NA,NA,NA,NA,NA,NA,NA,NA,NA,NA,FALSE,FALSE,FALSE,martinique,14.641528,-61.024174,Martinique,Caribbean,Americas,LAM,Americas,NA,Southern America,Mid-Atlantic,NA,MB,TF,T,349,NA,MQ,MTQ,474,Caribbean,474,MTQ,NA,Martinique,martinique,martinique,NA,NA,NA,NA,NA,NA,NA,474,NA
NA,Mayotte,NA,NA,NA,NA,NA,NA,NA,NA,NA,NA,NA,NA,NA,NA,NA,NA,NA,NA,FALSE,FALSE,FALSE,\bmayotte,-12.8275,45.166244,Mayotte,Eastern Africa,Africa,MAF,Africa,NA,Africa,Southern Africa,NA,NA,FM,F,NA,NA,YT,MYT,175,Eastern Africa,175,MYT,NA,Mayotte,\bmayotte,\bmayotte,NA,NA,NA,NA,YT,NA,NA,NA,NA
NA,Montserrat,NA,NA,NA,NA,NA,NA,NA,NA,NA,NA,NA,NA,NA,NA,NA,NA,NA,NA,FALSE,FALSE,FALSE,montserrat,16.742498,-62.187366,Montserrat,Caribbean,Americas,LAM,Americas,NA,Southern America,Mid-Atlantic,NA,MH,TR,T,351,NA,MS,MSR,500,Caribbean,500,MSR,NA,Montserrat,montserrat,montserrat,NA,NA,NA,NA,MS,NA,NA,NA,NA
NA,Netherlands Antilles,NA,NA,NA,NA,NA,NA,NA,NA,NA,NA,NA,NA,NA,NA,NA,NA,NA,NA,FALSE,FALSE,FALSE,^(?=.*\bant).*(nether|dutch),12.2248767,-68.81088489999999,Netherlands Antilles,Caribbean,Americas,LAM,Americas,NA,Southern America,Mid-Atlantic,NA,NA,TN,T,353,AHO,AN,ANT,530,Caribbean,NA,ANT,NA,Niederländische Antillen,niederl(a|ä)ndische.?antillen,^(?=.*\bant).*(nether|dutch),NA,NA,NA,NA,AN,NA,NA,NA,NA
NA,New Caledonia,NA,NA,NA,NA,NA,NA,NA,NA,NA,NA,NA,NA,NA,NA,NA,NA,NA,NA,FALSE,FALSE,FALSE,new.?caledonia,-20.904305,165.618042,New Caledonia,Melanesia,Oceania,ASIA,Oceania,NA,Asia,Asia/Pacific,NA,NC,NW,N,839,NA,NC,NCL,540,Melanesia,540,NCL,NA,Neu-Kaledonien,neu.?kaledonien,new.?caledonia,NA,NA,NA,NA,NC,NC,NCL,NA,NA
NA,Niue,NA,NA,NA,NA,NA,NA,NA,NA,NA,NA,NA,NA,NA,NA,NA,NA,NA,NA,FALSE,FALSE,FALSE,niue,-19.054445,-169.867233,Niue,Polynesia,Oceania,ASIA,Oceania,NA,Asia,Asia/Pacific,160,NE,NI,N,NA,NA,NU,NIU,570,Polynesia,570,NIU,NA,Niue,niue,niue,NA,NA,NA,NA,NU,NA,NA,NA,NA
NA,Norfolk Island,NA,NA,NA,NA,NA,NA,NA,NA,NA,NA,NA,NA,NA,NA,NA,NA,NA,NA,FALSE,FALSE,FALSE,norfolk,-29.040835,167.954712,Norfolk Island,Australia and New Zealand,Oceania,ASIA,Oceania,NA,Asia,Asia/Pacific,NA,NA,Y,Y,NA,NA,NF,NFK,574,Australia and New Zealand,574,NFK,NA,Norfolk-Insel,norfolk,norfolk,NA,NA,NA,NA,NF,NA,NA,NA,NA
NA,Northern Mariana Islands,NA,NA,NA,NA,NA,NA,NA,NA,NA,NA,NA,NA,NA,NA,NA,NA,NA,NA,FALSE,FALSE,FALSE,mariana,15.0979,145.6739,Northern Mariana Islands,Micronesia,Oceania,ASIA,Oceania,NA,Asia,Asia/Pacific,NA,CQ,PG,P,NA,NA,MP,MNP,580,Micronesia,580,MNP,NA,Nördliche Marianen,marianen,mariana,NA,NA,NA,NA,MP,MP,MNP,NA,NA
NA,Pitcairn,NA,NA,NA,NA,NA,NA,NA,NA,NA,NA,NA,NA,NA,NA,NA,NA,NA,NA,FALSE,FALSE,FALSE,pitcairn,-24.3767537,-128.3242376,Pitcairn,Polynesia,Oceania,ASIA,Oceania,NA,NA,NA,NA,NA,NA,NA,NA,NA,PN,PCN,612,Polynesia,612,PCN,NA,Pitcairn,pitcairn,pitcairn,NA,NA,NA,NA,PN,NA,NA,NA,NA
NA,Puerto Rico,NA,NA,NA,NA,NA,NA,NA,NA,NA,NA,NA,NA,NA,NA,NA,NA,NA,NA,FALSE,FALSE,FALSE,puerto.?rico,18.220833,-66.590149,Puerto Rico,Caribbean,Americas,LAM,Americas,NA,Southern America,Mid-Atlantic,NA,RQ,TJ,T,NA,PUR,PR,PRI,630,Caribbean,630,PRI,NA,Puerto Rico,puerto.?rico,puerto.?rico,NA,NA,NA,NA,PR,PR,PRI,630,NA
NA,Reunion,NA,NA,NA,NA,NA,NA,NA,NA,NA,NA,NA,NA,NA,NA,NA,NA,NA,NA,FALSE,FALSE,FALSE,r(e|é)union,-21.115141,55.536384,Reunion,Eastern Africa,Africa,MAF,Africa,NA,Africa,Southern Africa,NA,RE,FM,F,696,NA,RE,REU,638,Eastern Africa,638,REU,NA,Reunion,r(e|é)union,r(e|é)union,NA,NA,NA,NA,NA,NA,NA,NA,NA
NA,Saint Barthelemy,NA,NA,NA,NA,NA,NA,NA,NA,NA,NA,NA,NA,NA,NA,NA,NA,NA,NA,FALSE,FALSE,FALSE,barth(e|é)lemy,17.9,-62.833333,Saint Barthelemy,Caribbean,Americas,NA,Americas,NA,Southern America,Mid-Atlantic,NA,NA,TF,T,NA,NA,BL,BLM,652,Caribbean,652,BLM,NA,Saint-Barthelemy,barth(e|é)lemy,barth(e|é)lemy,NA,NA,NA,NA,BL,NA,NA,NA,NA
NA,"Saint Helena, Ascension and Tristan da Cunha",NA,NA,NA,NA,NA,NA,NA,NA,NA,NA,NA,NA,NA,NA,NA,NA,NA,NA,FALSE,FALSE,FALSE,helena,-24.1434812,-10.0306945,"Saint Helena, Ascension and Tristan da Cunha",Western Africa,Africa,MAF,Africa,NA,Africa,Southern Africa,NA,SH,FH,F,856,NA,SH,SHN,654,Western Africa,654,SHN,NA,"St. Helena, Ascension und Tristan da Cunha",helena,helena,NA,NA,NA,NA,SH,NA,NA,NA,NA
NA,Saint Martin (French part),NA,NA,NA,NA,NA,NA,NA,NA,NA,NA,NA,NA,NA,NA,NA,NA,NA,NA,FALSE,FALSE,FALSE,^(?=.*collectivity).*martin|^(?=.*france).*martin(?!ique)|^(?=.*french).*martin(?!ique),18.0708298,-63.0500809,Saint Martin (French part),Caribbean,Americas,NA,Americas,NA,Southern America,Mid-Atlantic,NA,NA,TF,T,352,NA,MF,MAF,663,Caribbean,663,MAF,NA,Saint Martin (französischer Teil),^(?=.*franz).*saint.*martin(?!ique),^(?=.*collectivity).*martin|^(?=.*france).*martin(?!ique)|^(?=.*french).*martin(?!ique),NA,NA,NA,NA,MF,MF,MAF,NA,NA
NA,Saint Pierre and Miquelon,NA,NA,NA,NA,NA,NA,NA,NA,NA,NA,NA,NA,NA,NA,NA,NA,NA,NA,FALSE,FALSE,FALSE,miquelon,46.8852,-56.3159,Saint Pierre and Miquelon,Northern America,Americas,OECD1990,Americas,NA,Northern America,ESRA North-West,NA,NA,LF,L,363,NA,PM,SPM,666,Northern America,666,SPM,NA,Saint-Pierre und Miquelon,miquelon,miquelon,NA,NA,NA,NA,PM,NA,NA,NA,NA
NA,Sint Maarten (Dutch part),NA,NA,NA,NA,NA,NA,NA,NA,NA,NA,NA,NA,NA,NA,NA,NA,NA,NA,FALSE,FALSE,FALSE,^(?!.*martin)(?!.*saba).*maarten,18.04248,-63.05483,Sint Maarten (Dutch part),Caribbean,Americas,LAM,Americas,NA,Southern America,Mid-Atlantic,NA,NN,TN,T,NA,NA,SX,SXM,534,Caribbean,534,SXM,NA,Sint Maarten (Niederländischer Teil),^(?!.*martin)(?!.*saba).*maarten,^(?!.*martin)(?!.*saba).*maarten,NA,NA,NA,NA,SX,SX,SXM,NA,NA
NA,South Georgia and the South Sandwich Islands,NA,NA,NA,NA,NA,NA,NA,NA,NA,NA,NA,NA,NA,NA,NA,NA,NA,NA,FALSE,FALSE,FALSE,south.?georgia|sandwich,-54.429579,-36.587909,South Georgia and the South Sandwich Islands,NA,NA,LAM,NA,NA,NA,NA,NA,NA,NA,NA,NA,NA,GS,SGS,239,NA,NA,SGS,NA,Südgeorgien und die Südlichen Sandwichinseln,süd.?georgia|sandwich,south.?georgia|sandwich,NA,NA,NA,NA,GS,NA,NA,NA,NA
NA,Svalbard and Jan Mayen,NA,NA,NA,NA,NA,NA,NA,NA,NA,NA,NA,NA,NA,NA,NA,NA,NA,NA,FALSE,FALSE,FALSE,svalbard,77.55360399999999,23.6702719,Svalbard and Jan Mayen,Northern Europe,Europe,OECD1990,Europe,NA,Eurocontrol,ESRA North-West,NA,SV,EN,E,NA,NA,SJ,SJM,744,Northern Europe,744,SJM,NA,Svalbard und Jan Mayen,svalbard,svalbard,NA,NA,NA,NA,SJ,NA,NA,NA,NA
NA,Tokelau,NA,NA,NA,NA,NA,NA,NA,NA,NA,NA,NA,NA,NA,NA,NA,NA,NA,NA,FALSE,FALSE,FALSE,tokelau,-9.2002,-171.8484,Tokelau,Polynesia,Oceania,ASIA,Oceania,NA,NA,NA,NA,TL,NA,NA,NA,NA,TK,TKL,772,Polynesia,772,TKL,NA,Tokelau,tokelau,tokelau,NA,NA,NA,NA,TK,NA,NA,NA,NA
NA,Turks and Caicos Islands,NA,NA,NA,NA,NA,NA,NA,NA,NA,NA,NA,NA,NA,NA,NA,NA,NA,NA,FALSE,FALSE,FALSE,turks,21.694025,-71.797928,Turks and Caicos Islands,Caribbean,Americas,LAM,Americas,NA,Southern America,Mid-Atlantic,NA,NA,MB,M,NA,NA,TC,TCA,796,Caribbean,796,TCA,NA,Turks- und Caicosinseln,turks,turks,NA,NA,NA,NA,TC,TC,TCA,NA,NA
NA,United States Minor Outlying Islands,NA,NA,NA,NA,NA,NA,NA,NA,NA,NA,NA,NA,NA,NA,NA,NA,NA,NA,FALSE,FALSE,FALSE,minor.?outlying.?is,19.2823192,166.647047,United States Minor Outlying Islands,NA,NA,ASIA,NA,NA,Asia,Asia/Pacific,NA,NA,P[JON|MDY|AWK|LPA|BAR|LUR],P,NA,NA,UM,UMI,581,NA,NA,UMI,NA,United States Minor Outlying Islands,minor.?outlying.?is,minor.?outlying.?is,NA,NA,NA,NA,UM,NA,NA,NA,NA
NA,"Virgin Islands, British",NA,NA,NA,NA,NA,NA,NA,NA,NA,NA,NA,NA,NA,NA,NA,NA,NA,NA,FALSE,FALSE,FALSE,^(?=.*\bu\.?\s?k).*virgin|^(?=.*brit).*virgin|^(?=.*kingdom).*virgin,18.420695,-64.639968,"Virgin Islands, British",Caribbean,Americas,LAM,Americas,NA,Southern America,Mid-Atlantic,NA,VI,TU,T,NA,NA,VG,VGB,92,Caribbean,92,VGB,NA,Britische Jungferninseln,brit.*jungferninseln,^(?=.*\bu\.?\s?k).*virgin|^(?=.*brit).*virgin|^(?=.*kingdom).*virgin,NA,NA,NA,NA,VG,VG,VGB,NA,NA
NA,"Virgin Islands, U.S.",NA,NA,NA,NA,NA,NA,NA,NA,NA,NA,NA,NA,NA,NA,NA,NA,NA,NA,FALSE,FALSE,FALSE,^(?=.*\bu\.?\s?s).*virgin|^(?=.*states).*virgin,18.335765,-64.896335,"Virgin Islands, U.S.",Caribbean,Americas,LAM,Americas,NA,Southern America,Mid-Atlantic,NA,VQ,TI,T,NA,ISV,VI,VIR,850,Caribbean,850,VIR,NA,"Virgin Islands, U.S.",^(?=.*\bu\.?\s?s).*virgin|^(?=.*states).*virgin,^(?=.*\bu\.?\s?s).*virgin|^(?=.*states).*virgin,NA,NA,NA,NA,VI,VI,VIR,850,NA
NA,Wallis and Futuna,NA,NA,NA,NA,NA,NA,NA,NA,NA,NA,NA,NA,NA,NA,NA,NA,NA,NA,FALSE,FALSE,FALSE,futuna|wallis,-14.2938,-178.1165,Wallis and Futuna,Polynesia,Oceania,ASIA,Oceania,NA,Asia,Asia/Pacific,NA,WF,NL,N,NA,NA,WF,WLF,876,Polynesia,876,WLF,NA,Wallis und Futuna,futuna|wallis,futuna|wallis,NA,NA,NA,NA,WF,NA,NA,NA,NA
NA,United Provinces of Central America,United Provinces,United Provinces of Central America,89,89,UPC,UPC,NA,NA,89,UPC,NA,NA,1824-01-01,1838-12-31,1823-07-01,1839-12-31,NA,NA,TRUE,TRUE,FALSE,united province|CENTRAL AMERICAN UNION|upca|up of central america,15.783471,-90.230759,NA,Central America,Americas,NA,NA,NA,NA,NA,NA,NA,NA,NA,NA,NA,NA,NA,NA,NA,NA,NA,NA,NA,NA,NA,NA,NA,NA,NA,NA,NA,NA,NA,FALSE
NA,Great Colombia,Gran Colombia,Great Colombia,99,99,GCL,GCL,NA,NA,99,GCL,NA,NA,1821-08-03,1832-02-28,1821-08-30,1830-09-22,NA,NA,TRUE,TRUE,FALSE,great colombia|gran colombia,4.570868,-74.297333,NA,South America,Americas,NA,NA,NA,NA,NA,NA,NA,NA,NA,NA,NA,NA,NA,NA,NA,NA,NA,NA,NA,NA,NA,NA,NA,NA,NA,NA,NA,NA,NA,FALSE
NA,Transvaal,NA,Transvaal,563,563,TRA,TRA,NA,NA,NA,NA,NA,NA,NA,NA,1852-01-01,1910-05-30,NA,NA,TRUE,FALSE,FALSE,transvaal,-25.7593148,28.189255,NA,Southern Africa,Africa,NA,NA,NA,NA,NA,NA,NA,NA,NA,NA,NA,NA,NA,NA,NA,NA,NA,NA,NA,NA,NA,NA,NA,NA,NA,NA,NA,NA,NA,FALSE
NA,Orange Free State,Orange Free State,Orange Free State,564,564,OFS,OFS,NA,NA,564,OFS,NA,NA,1854-02-17,1902-05-24,1854-03-28,1910-05-30,NA,NA,TRUE,TRUE,FALSE,orange free,-26.8831211,27.4820657,NA,Southern Africa,Africa,NA,NA,NA,NA,NA,NA,NA,NA,NA,NA,NA,NA,NA,NA,NA,NA,NA,NA,NA,NA,NA,NA,NA,NA,NA,NA,NA,NA,NA,FALSE
NA,Tibet,NA,Tibet,711,711,TBT,TBT,NA,NA,NA,NA,NA,NA,NA,NA,1913-01-01,1950-10-01,NA,NA,TRUE,FALSE,FALSE,tibet,21.194974,-101.6620418,NA,Eastern Asia,Asia,NA,NA,NA,NA,NA,NA,NA,NA,NA,NA,NA,NA,NA,NA,NA,NA,NA,NA,NA,NA,NA,NA,NA,NA,NA,NA,NA,NA,NA,FALSE
NA,Abkhazia,NA,Abkhazia,396,396,ABK,ABK,NA,NA,NA,NA,NA,NA,NA,NA,2008-08-26,NA,NA,NA,TRUE,FALSE,FALSE,abkhazia,42.315407,43.356892,NA,Western Asia,Asia,NA,NA,NA,NA,NA,NA,NA,NA,NA,NA,NA,NA,NA,NA,NA,NA,NA,NA,NA,NA,NA,NA,NA,NA,NA,NA,NA,NA,NA,TRUE
NA,South Ossetia,NA,South Ossetia,397,397,SOT,SOT,NA,NA,NA,NA,NA,NA,NA,NA,2008-08-26,NA,NA,NA,TRUE,FALSE,FALSE,ossetia,42.2214597,43.9644051,NA,Western Asia,Asia,NA,NA,NA,NA,NA,NA,NA,NA,NA,NA,NA,NA,NA,NA,NA,NA,NA,NA,NA,NA,NA,NA,NA,NA,NA,NA,NA,NA,NA,TRUE
NA,Vietnam (Annam/Cochin China/Tonkin),NA,Vietnam (Annam/Cochin China/Tonkin),815,815,VNM,VNM,NA,NA,NA,NA,NA,NA,NA,NA,1816-01-01,1893-01-01,NA,NA,TRUE,FALSE,FALSE,^(?!.*republic)^(?!.*dem).*viet.?nam,14.058324,108.277199,NA,South-Eastern Asia,Asia,NA,NA,NA,NA,NA,NA,NA,NA,NA,NA,NA,NA,NA,NA,NA,NA,NA,NA,NA,NA,NA,NA,NA,NA,NA,NA,NA,NA,NA,FALSE
NA,Somaliland,NA,NA,NA,NA,NA,NA,NA,NA,NA,NA,NA,NA,NA,NA,NA,NA,NA,NA,FALSE,FALSE,FALSE,somaliland,9.33,44.03,NA,Eastern Africa,Africa,NA,NA,NA,NA,NA,NA,NA,NA,NA,NA,NA,NA,NA,NA,NA,NA,NA,NA,NA,NA,NA,NA,NA,NA,NA,NA,NA,NA,NA,NA
NA,"Palestine, State of",NA,NA,NA,NA,NA,NA,NA,NA,NA,NA,NA,NA,NA,NA,NA,NA,1948-05-14,NA,FALSE,FALSE,FALSE,^(?!.*british.*)palestin(?!.*british)|west bank|gaza,31.046051,34.851612,"Palestine, State of",Western Asia,Asia,MAF,Asia,NA,Middle East,Middle-East,NA,NA,LV,L,487,PLE,PS,PSE,275,Western Asia,275,WBG,NA,Palästina,pal(ä|a)stin|\bgaza|west.?bank,palestin|\bgaza|west.?bank,NA,NA,NA,NA,PS,PS,PSE,275,NA
NA,British Mandate of Palestine,NA,NA,NA,NA,NA,NA,NA,NA,NA,NA,NA,NA,NA,NA,NA,NA,1920-04-25,1948-05-13,FALSE,FALSE,FALSE,mandat.*palestine|british.*palestine|palestine.*british|palestine,31.046051,34.851612,NA,Western Asia,Asia,NA,NA,NA,NA,NA,NA,NA,NA,NA,NA,NA,NA,NA,NA,NA,NA,NA,NA,NA,NA,NA,NA,NA,NA,NA,NA,NA,NA,NA,NA
NA,"Israel, pre-1967 borders",NA,NA,NA,666.001,NA,ISR.1,NA,NA,NA,NA,NA,NA,NA,NA,NA,NA,1948-05-14,NA,FALSE,FALSE,FALSE,israel.+pre-1967,31.046051,34.851612,NA,Western Asia,Asia,NA,NA,NA,NA,NA,NA,NA,NA,NA,NA,NA,NA,NA,NA,NA,NA,NA,NA,NA,NA,NA,NA,NA,NA,NA,NA,NA,NA,NA,NA
NA,Hyderabad,NA,NA,NA,751,NA,HYD,NA,NA,NA,NA,NA,NA,NA,NA,NA,NA,1947-06-30,1948-09-13,FALSE,FALSE,FALSE,hyderab,17.37,78.48,NA,Southern Asia,Asia,NA,NA,NA,NA,NA,NA,NA,NA,NA,NA,NA,NA,NA,NA,NA,NA,NA,NA,NA,NA,NA,NA,NA,NA,NA,NA,NA,NA,NA,NA
NA,"Israel, occupied territories only",NA,NA,NA,666.002,NA,ISR.2,NA,NA,NA,NA,NA,NA,NA,NA,NA,NA,1948-05-14,NA,FALSE,FALSE,FALSE,israel.+occupied.+only|israel.+occupied.+territor,31.046051,34.851612,NA,Western Asia,Asia,NA,NA,NA,NA,NA,NA,NA,NA,NA,NA,NA,NA,NA,NA,NA,NA,NA,NA,NA,NA,NA,NA,NA,NA,NA,NA,NA,NA,NA,NA
NA,Western Sahara,NA,NA,NA,605,NA,SAH,NA,NA,NA,NA,NA,NA,NA,NA,NA,NA,1976-02-27,NA,FALSE,FALSE,FALSE,western sahara|sahrawi,26.158056,-10.566944,NA,Northern Africa,Africa,NA,NA,NA,NA,NA,NA,NA,NA,NA,NA,NA,NA,NA,NA,NA,NA,NA,NA,NA,NA,NA,NA,NA,NA,NA,NA,NA,NA,NA,NA
